id,name,address,type_code,industry,port,lng,lat,pname,cityname,adname
B01730HZRE,河南博物院,农业路8号,科教文化服务;博物馆;博物馆,其他行业,消费端,113.672097,34.788263,河南省,郑州市,金水区
B017308PRI,郑州国际会展中心,郑东新区商务内环路中央公园1号,科教文化服务;会展中心;会展中心,其他行业,消费端,113.728952,34.772596,河南省,郑州市,金水区
B01730K37H,郑州大学,科学大道100号,科教文化服务;学校;高等院校,其他行业,消费端,113.53591,34.817077,河南省,郑州市,中原区
B01730JLX0,郑州西亚斯学院,人民路168号,科教文化服务;学校;高等院校,其他行业,消费端,113.765004,34.401422,河南省,郑州市,新郑市
B017316EDQ,河南财经政法大学(郑东校区),博学路街道明理路社区金水东路180号,科教文化服务;学校;高等院校,其他行业,消费端,113.820123,34.783173,河南省,郑州市,金水区
B0173082JT,河南工业大学莲花街校区,高新区莲花街100号,科教文化服务;学校;高等院校,其他行业,消费端,113.549843,34.831152,河南省,郑州市,中原区
B01730ISNA,黄河科技学院(南校区),紫荆山南路666号,科教文化服务;学校;高等院校,其他行业,消费端,113.676224,34.687598,河南省,郑州市,二七区
B0FFKCGLHK,郑州博物馆新馆,文翰街9号,科教文化服务;博物馆;博物馆,其他行业,消费端,113.54672,34.7396,河南省,郑州市,中原区
B017307EVG,河南省黄河迎宾馆,迎宾路1号,住宿服务;宾馆酒店;五星级宾馆,旅游业,消费端,113.648913,34.873673,河南省,郑州市,惠济区
B0HGH7AXMW,河南自然博物馆,郑东新区金水东路18号,科教文化服务;博物馆;博物馆,其他行业,消费端,113.751945,34.765612,河南省,郑州市,金水区
B01730KB8H,郑州航空工业管理学院(东校区),文苑西路15号,科教文化服务;学校;高等院校,其他行业,消费端,113.78725,34.788509,河南省,郑州市,金水区
B01730JEHS,郑州科技学院,马寨镇学院路1号,科教文化服务;学校;高等院校,其他行业,消费端,113.509188,34.707415,河南省,郑州市,荥阳市
B0FFJ4LGNS,郑州银基冰雪酒店(动物王国店),刘寨镇刘寨村迎宾大道南侧,住宿服务;宾馆酒店;宾馆酒店,旅游业,消费端,113.55329,34.481039,河南省,郑州市,新密市
B017316NDC,郑州升达经贸管理学院西院区,龙湖街道文昌路1号,科教文化服务;学校;高等院校,其他行业,消费端,113.690552,34.5925,河南省,郑州市,新郑市
B017307G1J,华北水利水电大学(龙子湖校区),郑东新区金水东路136号,科教文化服务;学校;高等院校,其他行业,消费端,113.794241,34.780685,河南省,郑州市,金水区
B01730JOT1,河南农业大学龙子湖校区,文苑北路河南农业大学,科教文化服务;学校;高等院校,其他行业,生产端,113.822341,34.798804,河南省,郑州市,金水区
B01730J0GV,河南中医药大学(龙子湖校区),金水东路156号,科教文化服务;学校;高等院校,其他行业,消费端,113.805064,34.780242,河南省,郑州市,金水区
B0FFHK9L2I,郑州大学(南校区),大学北路75号,科教文化服务;学校;高等院校,其他行业,消费端,113.638826,34.742979,河南省,郑州市,二七区
B0173163B3,郑州轻工业大学科学校区,科学大道136号,科教文化服务;学校;高等院校,其他行业,消费端,113.50932,34.811214,河南省,郑州市,中原区
B0FFJOP9FY,郑州轻工业大学(东风校区),东风路街道东风路5号,科教文化服务;学校;高等院校,其他行业,消费端,113.654816,34.796975,河南省,郑州市,金水区
B01730IRU8,河南省人民会堂,花园路1号花园路与金水路交叉口,科教文化服务;会展中心;会展中心,其他行业,消费端,113.683593,34.764433,河南省,郑州市,金水区
B01731AQYC,郑州工业应用技术学院东校区,学院路16号,科教文化服务;学校;高等院校,其他行业,消费端,113.757887,34.411394,河南省,郑州市,新郑市
B01730JLMT,中国(郑州)汽配大世界,郑花路52号,汽车服务;汽车配件销售;汽车配件销售,零售业,消费端,113.679492,34.813486,河南省,郑州市,金水区
B01730I02O,河南经贸职业学院龙子湖校区,郑东新区龙子湖北路58号,科教文化服务;学校;高等院校,其他行业,消费端,113.798507,34.800728,河南省,郑州市,金水区
B0LU7SYB0C,大河村遗址博物馆,中州大道与连霍高速交叉口南500米路东,科教文化服务;博物馆;博物馆,其他行业,消费端,113.694559,34.837406,河南省,郑州市,金水区
B0FFHEDWF4,河南大学郑州校区,明理路北段379号,科教文化服务;学校;高等院校,其他行业,消费端,113.819123,34.820703,河南省,郑州市,金水区
B017316EJK,郑州图书馆,客文一街10号,科教文化服务;图书馆;图书馆,其他行业,消费端,113.750686,34.759085,河南省,郑州市,金水区
B01731DUXT,郑州美盛喜来登大酒店,郑东新区金水东路33号(农业南路地铁站C口步行210米),住宿服务;宾馆酒店;五星级宾馆,旅游业,消费端,113.754621,34.763893,河南省,郑州市,金水区
B0173187I7,郑州铁路职业技术学院,郑东新区前程大道56号,科教文化服务;学校;高等院校,其他行业,消费端,113.88774,34.796479,河南省,郑州市,中牟县
B01730JQWK,中原工学院龙湖校区,淮河路1号,科教文化服务;学校;高等院校,其他行业,消费端,113.688411,34.585248,河南省,郑州市,新郑市
B017316B8D,郑州工商学院(郑州校区),郑东新区文明路8号,科教文化服务;学校;高等院校,其他行业,消费端,113.890568,34.792171,河南省,郑州市,中牟县
B0FFJBNSAE,河南省科技馆(新馆),郑东新区郑开大道100号,科教文化服务;科技馆;科技馆,其他行业,消费端,113.867361,34.776448,河南省,郑州市,中牟县
B01730JQTK,河南职业技术学院(龙子湖校区),高校园区祭城路(龙子湖西地铁站D口步行120米),科教文化服务;学校;职业技术学校,其他行业,消费端,113.792283,34.796826,河南省,郑州市,金水区
B01730JPAJ,郑州健康学院,马寨镇公明路6号,科教文化服务;学校;高等院校,其他行业,消费端,113.535188,34.697856,河南省,郑州市,二七区
B0FFFGYH66,郑州财经学院,江山路街道天河路36号,科教文化服务;学校;高等院校,其他行业,消费端,113.60117,34.861481,河南省,郑州市,惠济区
B01730IAET,河南农业大学文化路校区,农业路63号,科教文化服务;学校;高等院校,其他行业,生产端,113.66277,34.785258,河南省,郑州市,金水区
B0FFF00TL3,郑州师范学院东区,英才街16号,科教文化服务;学校;高等院校,其他行业,消费端,113.657169,34.862798,河南省,郑州市,惠济区
B0GRZ58104,郑州经贸学院,龙湖街道双湖大道2号,科教文化服务;学校;高等院校,其他行业,消费端,113.719714,34.615475,河南省,郑州市,新郑市
B017306RF8,郑州大学北校区,文化路街道文化路97号,科教文化服务;学校;高等院校,其他行业,消费端,113.662506,34.781777,河南省,郑州市,金水区
B01730ISMJ,河南饭店,花园路88号(紫荆山地铁站E口步行250米),住宿服务;宾馆酒店;三星级宾馆,旅游业,消费端,113.681177,34.765632,河南省,郑州市,金水区
B0173165Q0,河南机电职业学院,龙湖街道泰山路1号,科教文化服务;学校;高等院校,其他行业,消费端,113.717203,34.589538,河南省,郑州市,新郑市
B0FFGJQ789,少林塔沟武术学校,大禹路西段207国道旁,科教文化服务;学校;职业技术学校|科教文化服务;学校;高等院校|科教文化服务;培训机构;培训机构,其他行业,消费端,113.009784,34.471424,河南省,郑州市,登封市
B01731C96I,郑州希尔顿酒店,金水路288号(燕庄地铁站B2口步行350米),住宿服务;宾馆酒店;五星级宾馆,旅游业,消费端,113.707279,34.763497,河南省,郑州市,金水区
B0FFGZV1PS,中原国际会展中心,郑州航空港区,科教文化服务;会展中心;会展中心,其他行业,消费端,113.919517,34.497164,河南省,郑州市,中牟县
B01730JP6V,郑州职业技术学院,郑上路81号,科教文化服务;学校;高等院校,其他行业,消费端,113.451183,34.763821,河南省,郑州市,荥阳市
B017304692,河南省实验中学校本部,文化路60号,科教文化服务;学校;中学,其他行业,消费端,113.66849,34.791632,河南省,郑州市,金水区
B017316E5G,永和铂爵国际酒店,金水东路21号,住宿服务;宾馆酒店;五星级宾馆|餐饮服务;餐饮相关场所;餐饮相关,旅游业,消费端,113.7496,34.763054,河南省,郑州市,金水区
B017316LWI,河南交通职业技术学院,郑东新区通惠路259号,科教文化服务;学校;高等院校,其他行业,消费端,113.895285,34.787689,河南省,郑州市,中牟县
B0HACUUZYR,郑州商学院(紫荆东校区),紫荆路136号,科教文化服务;学校;高等院校,其他行业,消费端,113.029473,34.760838,河南省,郑州市,巩义市
B017316DQ7,河南大学河南戏剧艺术学院,郑东新区郑开大道134号,科教文化服务;学校;高等院校,其他行业,消费端,113.895393,34.783118,河南省,郑州市,中牟县
B017316F99,河南牧业经济学院英才校区,英才街146号,科教文化服务;学校;高等院校,其他行业,消费端,113.641356,34.86219,河南省,郑州市,惠济区
B01730IAES,华北水利水电大学(花园校区),北环路36号,科教文化服务;学校;高等院校,其他行业,消费端,113.674329,34.812526,河南省,郑州市,金水区
B0173188FV,河南工程学院龙湖校区,龙湖镇祥和路1号,科教文化服务;学校;高等院校,其他行业,制造端,113.696073,34.618865,河南省,郑州市,新郑市
B0FFF4HCG1,郑州绿地JW万豪酒店,商务中央公园2号千玺广场,住宿服务;宾馆酒店;五星级宾馆|餐饮服务;餐饮相关场所;餐饮相关,旅游业,消费端,113.72733,34.770977,河南省,郑州市,金水区
B0FFF8PNOB,河南牧业经济学院龙子湖校区,龙子湖北路6号,科教文化服务;学校;高等院校,其他行业,消费端,113.814915,34.803795,河南省,郑州市,金水区
B01730I02Y,河南财政金融学院(龙子湖校区),龙子湖北路22号(文苑北路地铁站A口步行290米),科教文化服务;学校;高等院校,其他行业,消费端,113.807988,34.805276,河南省,郑州市,金水区
B01730JOSZ,河南警察学院(龙子湖校区),郑东新区龙子湖东路1号,科教文化服务;学校;高等院校,其他行业,消费端,113.822471,34.791074,河南省,郑州市,金水区
B01730KDA1,河南财政金融学院象湖校区,郑东新区郑开大道76号,科教文化服务;学校;高等院校,其他行业,消费端,113.861537,34.777426,河南省,郑州市,中牟县
B0FFF00RTI,郑州财税金融职业学院,岗东路6号,科教文化服务;学校;高等院校,其他行业,消费端,113.716789,34.705406,河南省,郑州市,管城回族区
B0FFKDZM2O,腾发二手车总店,郑花路63号一层A区3号商铺,汽车服务;二手车交易;二手车交易|汽车服务;汽车养护/装饰;汽车养护|汽车维修;汽车维修;汽车维修|汽车销售;汽车销售;汽车销售,零售业,消费端,113.684457,34.825333,河南省,郑州市,金水区
B017308KBA,郑州市第四十七高级中学,平安大道6号,科教文化服务;学校;中学,其他行业,消费端,113.737997,34.771504,河南省,郑州市,金水区
B0173169MD,郑州城市职业学院,溱水路618号,科教文化服务;学校;高等院校,其他行业,消费端,113.339599,34.546343,河南省,郑州市,新密市
B01730517L,河南财经政法大学(文北校区),文化路80号,科教文化服务;学校;高等院校,其他行业,消费端,113.662504,34.803662,河南省,郑州市,金水区
B0FFHDS9FH,泉舜上城,南阳路街道黄河路82号(海滩寺地铁站A口步行410米),商务住宅;住宅区;住宅小区|汽车服务;充电站;充电站,其他行业,消费端,113.652596,34.77676,河南省,郑州市,金水区
B0G0DZ8ELH,中原科技学院郑州校区,郑东新区郑开大道50号,科教文化服务;学校;高等院校,其他行业,消费端,113.850055,34.780218,河南省,郑州市,中牟县
B0FFK7OH4Q,CBD会展中心,商务外环路27号景峰国际中心F13层,科教文化服务;科教文化场所;科教文化场所,其他行业,消费端,113.735013,34.770615,河南省,郑州市,金水区
B01730IAEM,郑州外国语学校,枫杨办事处高新区银屏路与翠竹街交叉口,科教文化服务;学校;中学,其他行业,消费端,113.56263,34.815575,河南省,郑州市,中原区
B01730IBLM,河南体育学院,银河街2号(省体育中心地铁站A口步行150米),科教文化服务;学校;高等院校,其他行业,消费端,113.628642,34.82899,河南省,郑州市,惠济区
B0FFJWFNQQ,少林延鲁武术培训学校,少林大道与禅武大道交汇处东边,科教文化服务;培训机构;培训机构,其他行业,消费端,113.009167,34.455418,河南省,郑州市,登封市
B0FFG82W26,郑州富力万达文华酒店(农科路),农科路16号(东风路地铁站B口步行400米),住宿服务;宾馆酒店;五星级宾馆,旅游业,消费端,113.678996,34.792786,河南省,郑州市,金水区
B017317L0H,郑州建业艾美酒店,东十里铺地铁站B口步行120米,住宿服务;宾馆酒店;五星级宾馆,旅游业,消费端,113.724967,34.747658,河南省,郑州市,金水区
B01730ISQ3,河南省工业学校,文化路78号,科教文化服务;学校;职业技术学校,其他行业,消费端,113.663117,34.807697,河南省,郑州市,金水区
B01731DC5L,郑州电力高等专科学校,郑东新区平安大道与凤栖街交汇处,科教文化服务;学校;高等院校,其他行业,生产端,113.897005,34.798275,河南省,郑州市,中牟县
B0FFF917LA,河南医学高等专科学校,龙湖镇双湖大道8号,科教文化服务;学校;高等院校,其他行业,消费端,113.707191,34.615217,河南省,郑州市,新郑市
B01730I0K4,郑州市第一中学,中原西路182号(郑州一中地铁站A口步行200米),科教文化服务;学校;学校,其他行业,消费端,113.56099,34.749174,河南省,郑州市,中原区
B0FFG4FT56,郑州铁路技师学院,五云路68号,科教文化服务;学校;职业技术学校,其他行业,消费端,113.287668,34.774319,河南省,郑州市,上街区
B01730JPUK,郑州理工职业学院,新村镇107国道,科教文化服务;学校;高等院校,其他行业,消费端,113.706812,34.438266,河南省,郑州市,新郑市
B0FFHS6DT9,郑州市公安局警察训练部,[],科教文化服务;培训机构;培训机构,其他行业,消费端,113.487722,34.676767,河南省,郑州市,荥阳市
B01730JJT0,河南建筑职业技术学院,马寨镇工业路51号,科教文化服务;学校;高等院校,其他行业,制造端,113.522819,34.711294,河南省,郑州市,二七区
B017307E9F,河南工业贸易职业学院龙湖中心校区,祥云路与龙湖大道交叉口东北角,科教文化服务;学校;高等院校,其他行业,消费端,113.685111,34.631645,河南省,郑州市,新郑市
B0173080S1,郑州电力职业技术学院,郑州新区商都大街东段1933号,科教文化服务;学校;高等院校,其他行业,生产端,113.993286,34.721651,河南省,郑州市,中牟县
B017306SC7,河南广播电视台,郑花路18号(北三环地铁站C口步行170米),科教文化服务;传媒机构;电视台,其他行业,消费端,113.682846,34.80678,河南省,郑州市,金水区
B017315Z58,河南农业职业学院,青年西路38号(近中牟县电视塔),科教文化服务;学校;高等院校,其他行业,生产端,114.014892,34.723792,河南省,郑州市,中牟县
B0173048C6,郑州大学河南医学院,大学北路40号(医学院地铁站J口步行490米),科教文化服务;学校;高等院校,其他行业,消费端,113.646087,34.749491,河南省,郑州市,二七区
B01730IACR,河南工业大学(嵩山路校区),嵩山南路140号,科教文化服务;学校;高等院校,其他行业,消费端,113.626113,34.740717,河南省,郑州市,中原区
B01730HYMQ,河南应用技术职业学院,郑上路548号,科教文化服务;学校;职业技术学校,其他行业,消费端,113.539243,34.77249,河南省,郑州市,中原区
B0HKVN5MXD,郑州嘉锦酒店,中原中路220号,住宿服务;宾馆酒店;宾馆酒店,旅游业,消费端,113.623128,34.746759,河南省,郑州市,中原区
B0I25CGSC3,郑州人事考试基地,龙子湖智慧岛尚贤街16号,科教文化服务;科教文化场所;科教文化场所,其他行业,消费端,113.807004,34.788808,河南省,郑州市,金水区
B0FFG3MV9S,郑州信息科技职业学院,龙子湖高校园区龙子湖北路36号文苑北路、姚夏路、龙子湖北路交汇处,科教文化服务;学校;高等院校,其他行业,消费端,113.80264,34.803425,河南省,郑州市,金水区
B0HAGLXH5A,郑州高新皇冠假日酒店,高新技术产业开发区牡丹路26号,住宿服务;宾馆酒店;五星级宾馆,旅游业,消费端,113.562981,34.827426,河南省,郑州市,中原区
B01730JOIO,郑州工业安全职业学院,郭店镇芦家桥,科教文化服务;学校;职业技术学校,其他行业,消费端,113.683092,34.532227,河南省,郑州市,新郑市
B01730ISSJ,河南信息工程学校,鑫苑路10号,科教文化服务;学校;高等院校,其他行业,制造端,113.697428,34.797779,河南省,郑州市,金水区
B0FFHOW7KO,河南测绘职业学院象湖校区,永顺路与工贸路交叉口西北角(白沙园区工贸路30号),科教文化服务;学校;高等院校,其他行业,消费端,113.856159,34.787363,河南省,郑州市,中牟县
B01730JCHL,国家检察官学院河南分院,龙湖街道双湖大道1号,科教文化服务;学校;高等院校,其他行业,消费端,113.707844,34.607237,河南省,郑州市,新郑市
B0L6M5XA82,河南帅车好兄弟严选商城,玉华路和金马路交汇处路南100米帅车好兄弟严选商城,汽车销售;汽车销售;汽车销售,零售业,消费端,113.531586,34.73298,河南省,郑州市,中原区
B01730IUHM,郑州电子信息职业技术学院,大学路1号,科教文化服务;学校;高等院校,其他行业,消费端,114.031203,34.701075,河南省,郑州市,中牟县
B0173087LK,郑州市第十一中学,朝凤路11号,科教文化服务;学校;中学,其他行业,消费端,113.735403,34.714566,河南省,郑州市,管城回族区
B0FFIA47VZ,郑州亚帮汽配城,兴达路16号,汽车服务;汽车服务相关;汽车服务相关,其他行业,消费端,113.820168,34.847123,河南省,郑州市,金水区
B0FFGG7SP4,NEW ZEALAND,龙子湖中道西路8号,科教文化服务;科研机构;科研机构,其他行业,消费端,113.803593,34.796065,河南省,郑州市,金水区
B01730K2UB,河南中州皇冠假日酒店,金水路115号,住宿服务;宾馆酒店;四星级宾馆|住宿服务;宾馆酒店;五星级宾馆,旅游业,消费端,113.69432,34.762547,河南省,郑州市,金水区
B01730JLN8,嵩山少林武术学校,登封大道235号,科教文化服务;学校;高等院校,其他行业,消费端,113.022151,34.465624,河南省,郑州市,登封市
B0FFJR1YLP,河南水利与环境职业学院(航空港校区),航空港区八千乡梅河路与工业十一路交叉口西南,科教文化服务;学校;高等院校,其他行业,消费端,113.830664,34.380562,河南省,郑州市,新郑市
B0FFFOC0SP,河南省农业科学院,花园路116号(关虎屯地铁站G口步行110米),科教文化服务;学校;高等院校,其他行业,生产端,113.67951,34.788753,河南省,郑州市,金水区
B01730IGA0,中国石化郑州东服务区东加油站,京珠高速圃田服务区刘江立交4000米东侧,汽车服务;加油站;中国石化,其他行业,消费端,113.833233,34.79383,河南省,郑州市,金水区
B01730HYIZ,郑州财经技师学院,中原中路128号,科教文化服务;学校;高等院校|科教文化服务;学校;职业技术学校,其他行业,消费端,113.588625,34.752392,河南省,郑州市,中原区
B01730HZVC,郑州市第七高级中学,三全路72号,科教文化服务;学校;中学,其他行业,消费端,113.668682,34.830971,河南省,郑州市,金水区
B0FFHQNWES,金马凯旋二手车交易中心,金马路与玉华路交叉口西南160米,汽车服务;二手车交易;二手车交易,其他行业,消费端,113.530327,34.733727,河南省,郑州市,中原区
B01731ADPA,河南水利与环境职业学院花园路校区,花园路136号,科教文化服务;学校;高等院校,其他行业,消费端,113.679,34.800699,河南省,郑州市,金水区
B017316AX0,郑州商业技师学院,荥泽大道99号,科教文化服务;学校;职业技术学校,其他行业,消费端,113.432021,34.764241,河南省,郑州市,荥阳市
B0G0UHLMYK,郑州城建职业学院,中原西路6号,科教文化服务;学校;高等院校,其他行业,消费端,113.262641,34.756752,河南省,郑州市,巩义市
B0FFF36R5X,郑州黄河护理职业学院,西四环与化工路交汇处向西100米,科教文化服务;学校;职业技术学校,其他行业,消费端,113.527148,34.787581,河南省,郑州市,中原区
B01730IAF6,河南省商务学校,博颂路6号,科教文化服务;学校;职业技术学校,其他行业,消费端,113.657216,34.807425,河南省,郑州市,金水区
B0FFKOEEEV,郑州中学(高中校区),红梅街2号,科教文化服务;学校;中学,其他行业,消费端,113.512756,34.829358,河南省,郑州市,中原区
B0KDG7JVWW,小米汽车销售服务中心(郑州商都路店),商都路与通泰路交汇处向南100米路西威佳汽车园区7-6号,汽车服务;汽车服务相关;汽车服务相关|汽车销售;汽车销售;汽车销售,零售业,消费端,113.732801,34.745937,河南省,郑州市,金水区
B0FFM905VQ,郑州财经学院航空港校区(装修中),航空港区豫州大道东侧,科教文化服务;学校;高等院校,其他行业,消费端,113.946055,34.573019,河南省,郑州市,中牟县
B01730K6IN,正方元国际酒店,黄河南路86号,住宿服务;宾馆酒店;五星级宾馆,旅游业,消费端,113.743651,34.759431,河南省,郑州市,金水区
B0GURMMOFC,郑州商都遗址博物院,东大街366号,风景名胜;公园广场;公园|科教文化服务;博物馆;博物馆,其他行业,消费端,113.686762,34.746546,河南省,郑州市,管城回族区
B01730I1FS,大桥石化郑州圃田加油站,商都路与京港澳高速交叉口向东300米路南,汽车服务;加油站;加油站,其他行业,消费端,113.819343,34.737534,河南省,郑州市,管城回族区
B0FFG0O2BI,郑州工程技术学院金河校区,金河路66号,科教文化服务;学校;高等院校,其他行业,制造端,113.629991,34.861129,河南省,郑州市,惠济区
B0FFHJ9LKC,河南地矿职业学院,通商路,科教文化服务;学校;职业技术学校,其他行业,消费端,113.851275,34.788176,河南省,郑州市,中牟县
B0HBBC5KXR,中原科技城投资促进中心,龙源东六街与龙湖内环北路交叉口西南420米,科教文化服务;会展中心;会展中心,其他行业,消费端,113.750666,34.812592,河南省,郑州市,金水区
B01730IBBW,河南豫海汽车销售有限公司,中州大道与民航路交汇处南100米路西,汽车销售;奥迪特约销售;一汽-大众奥迪销售|汽车维修;奥迪特约维修;一汽-大众奥迪维修,零售业,消费端,113.721786,34.764119,河南省,郑州市,金水区
B0H3U571Z9,迈卡汽车文创园,天河路39号,汽车销售;汽车销售;汽车销售,零售业,消费端,113.613214,34.857254,河南省,郑州市,惠济区
B01730HXXI,河南汽车贸易中心,花园北路236号(金达路地铁站C口步行310米),汽车销售;汽车销售;汽车销售,零售业,消费端,113.674405,34.86457,河南省,郑州市,惠济区
B017306A9C,河南省理工学校(茂花路),茂花路6号,科教文化服务;学校;职业技术学校|科教文化服务;学校;高等院校,其他行业,消费端,113.677858,34.803094,河南省,郑州市,金水区
B01730ISJJ,郑州索菲特国际饭店,金水路115号E座,住宿服务;宾馆酒店;五星级宾馆|餐饮服务;餐饮相关场所;餐饮相关,旅游业,消费端,113.692526,34.761908,河南省,郑州市,金水区
B0H3U571Z9,迈卡汽车文创园,天河路39号,汽车销售;汽车销售;汽车销售,零售业,消费端,113.613214,34.857254,河南省,郑州市,惠济区
B01730HXXI,河南汽车贸易中心,花园北路236号(金达路地铁站C口步行310米),汽车销售;汽车销售;汽车销售,零售业,消费端,113.674405,34.86457,河南省,郑州市,惠济区
B017306A9C,河南省理工学校(茂花路),茂花路6号,科教文化服务;学校;职业技术学校|科教文化服务;学校;高等院校,其他行业,消费端,113.677858,34.803094,河南省,郑州市,金水区
B0H0MZKOLQ,如家精选酒店(郑州东站店),心怡路与东站南街交叉口西南角,住宿服务;宾馆酒店;经济型连锁酒店,旅游业,消费端,113.773099,34.757334,河南省,郑州市,管城回族区
B01730IZRZ,河南广播电视台8号演播厅,北林路街道花园路北段8号,科教文化服务;传媒机构;电视台,其他行业,消费端,113.678356,34.844761,河南省,郑州市,金水区
B0FFG7W4UD,郑州市国防科技学校,富民路18号,科教文化服务;学校;职业技术学校,其他行业,消费端,113.540989,34.73431,河南省,郑州市,中原区
B0173082M3,河南轻工职业学院(园田校区),东风路街道园田路2号,科教文化服务;学校;成人教育,其他行业,消费端,113.65123,34.795128,河南省,郑州市,金水区
B01730IBS8,河南工程学院,桐柏路62号(桐柏北路187号院东南),科教文化服务;学校;高等院校,其他行业,制造端,113.615282,34.753008,河南省,郑州市,中原区
B0FFHF7ISR,河南司法警官职业学院东校区,金水东路166号,科教文化服务;学校;高等院校,其他行业,消费端,113.813119,34.78051,河南省,郑州市,金水区
B0FFJ4DFHF,郑州卫生健康职业学院,京襄路69号,科教文化服务;学校;高等院校,其他行业,消费端,113.413135,34.717598,河南省,郑州市,荥阳市
B0FFMATC5B,郑州美天迈迈卡名车茂店,天河路与英才街交叉口东北角迈卡名车茂B馆一楼郑州美天迈,汽车服务;二手车交易;二手车交易,其他行业,消费端,113.613334,34.856536,河南省,郑州市,惠济区
B01730HXX7,郑州师范学院西校区,英才街86号(北大学城地铁站D口步行270米),科教文化服务;学校;高等院校,其他行业,消费端,113.64763,34.863207,河南省,郑州市,惠济区
B0HKKADGU7,郑州东站正商建国饭店,圃田西路与七里河南路交汇处东南角正商国际大厦B栋27楼,住宿服务;宾馆酒店;宾馆酒店,旅游业,消费端,113.787495,34.762912,河南省,郑州市,金水区
B0FFFQ7EUV,黄河科技学院北校区,航海中路94号黄河科技大学附近,科教文化服务;学校;高等院校,其他行业,消费端,113.637763,34.721602,河南省,郑州市,二七区
B0GK7AY2DS,河南工业贸易职业学院,优胜北路4号,科教文化服务;学校;职业技术学校|科教文化服务;学校;高等院校,其他行业,消费端,113.659889,34.770137,河南省,郑州市,金水区
B0FFH00EKL,威佳汽车园区,商都路107辅(圃田西地铁站B口步行120米),汽车销售;汽车销售;汽车销售,零售业,消费端,113.789652,34.739714,河南省,郑州市,管城回族区
B017307BUQ,郑州市第二高级中学,建中街街道政通路97号,科教文化服务;学校;中学,其他行业,消费端,113.637861,34.723756,河南省,郑州市,二七区
B0IAKAEIEZ,郑州龙湖一中,中原西路与泰州路向南200米,科教文化服务;学校;中学,其他行业,消费端,113.496278,34.744169,河南省,郑州市,中原区
B01731E461,郑州幼儿师范高等专科学校(新校区),郑东新区郑开大道66号,科教文化服务;学校;高等院校,其他行业,消费端,113.855114,34.777322,河南省,郑州市,中牟县
B0173186WW,天鹅城国际饭店,郑东新区商鼎路与康平路交叉口(距离高铁郑州东站1公里),住宿服务;宾馆酒店;五星级宾馆,旅游业,消费端,113.763001,34.755533,河南省,郑州市,管城回族区
B0FFF8PODO,河南轻工职业学院嵩山校区,嵩山南路426号,科教文化服务;学校;职业技术学校|科教文化服务;学校;高等院校,其他行业,消费端,113.625212,34.668792,河南省,郑州市,二七区
B017304696,郑州市第九中学,农业路21号(农业大学地铁站B口步行300米),科教文化服务;学校;中学,其他行业,消费端,113.664661,34.788802,河南省,郑州市,金水区
B0FFGDUCCV,郑州工业应用技术学院(西校区),新村镇华信路与107国道交叉路口东北角,科教文化服务;学校;高等院校,其他行业,消费端,113.712921,34.428257,河南省,郑州市,新郑市
B0FFHF5OTM,郑州商业中等专业学校,江山路600号,科教文化服务;学校;职业技术学校,其他行业,消费端,113.538356,34.917702,河南省,郑州市,惠济区
B0JGHKLZ2J,大中原国际汽车城,中原西路兰州北路16号,汽车销售;汽车销售;汽车销售,零售业,消费端,113.491538,34.753984,河南省,郑州市,中原区
B0KBF5T8EI,郑州科学技术馆(常西湖馆),临文路郑州市民活动中心,科教文化服务;科技馆;科技馆,其他行业,消费端,113.55659,34.739785,河南省,郑州市,中原区
B0173076Y0,中原国际博览中心,郑汴路106号,科教文化服务;会展中心;会展中心,其他行业,消费端,113.706293,34.74802,河南省,郑州市,管城回族区
B017319XZ6,郑州一中教育集团郑州领航实验学校,汝河路街道航海西路108号,科教文化服务;学校;学校,其他行业,消费端,113.597757,34.724383,河南省,郑州市,中原区
B0G0ZZYQWI,郑州郑东新区城际酒店,普惠路55号1号楼一楼部分,住宿服务;宾馆酒店;宾馆酒店,旅游业,消费端,113.773379,34.752861,河南省,郑州市,管城回族区
B0FFHF13MB,河南艺术中心,商务内环路西六街河南艺术中心,体育休闲服务;影剧院;剧场|科教文化服务;文化宫;文化宫,其他行业,消费端,113.724011,34.770719,河南省,郑州市,金水区
B01730ISHW,河南牧业经济学院北林路校区,北林路16号,科教文化服务;学校;高等院校,其他行业,消费端,113.686727,34.803489,河南省,郑州市,金水区
B017316UJK,郑州市第十九高级中学,淮河路街道陇海路兴华街交叉口,科教文化服务;学校;中学,其他行业,消费端,113.634162,34.735266,河南省,郑州市,二七区
B0173072GH,中原工学院中原校区,中原中路41号,科教文化服务;学校;高等院校,其他行业,消费端,113.615291,34.749122,河南省,郑州市,中原区
B0KGPU56UJ,小米汽车交付中心(郑州前程店),经济技术开发区前程大道339号10号厂房B区,汽车服务;汽车服务相关;汽车服务相关,其他行业,消费端,113.879292,34.715035,河南省,郑州市,中牟县
B0FFFXPJYG,广汽丰田郑州富达航海路店,海中路179号(富达汽车广场)广汽丰田富达航海路店,汽车销售;丰田特约销售;广汽丰田销售|汽车维修;丰田特约维修;广汽丰田维修,零售业,消费端,113.63417,34.72007,河南省,郑州市,二七区
B0FFHE3CRO,河南省廉政文化教育中心,正光路26号,科教文化服务;科教文化场所;科教文化场所,其他行业,消费端,113.76152,34.772629,河南省,郑州市,金水区
B01730I18E,郑州交通技师学院,第三大街33号,科教文化服务;学校;职业技术学校,其他行业,消费端,113.746284,34.705658,河南省,郑州市,管城回族区
B017306UAA,河南省图书馆,嵩山南路150号,科教文化服务;图书馆;图书馆,其他行业,消费端,113.627249,34.743304,河南省,郑州市,中原区
B0FFG8WDGQ,民航加油站(中州大道辅路),中州大道与民航路交叉口向北50米,汽车服务;加油站;加油站,其他行业,消费端,113.718989,34.766983,河南省,郑州市,金水区
B0173088R1,郑州外国语新枫杨学校,高新技术开发区翠竹街税务干部学校对面,科教文化服务;学校;中学,其他行业,消费端,113.559114,34.818386,河南省,郑州市,中原区
B01730JFQ7,郑州粤海酒店,德化街5号,住宿服务;宾馆酒店;五星级宾馆|餐饮服务;中餐厅;中餐厅,旅游业,消费端,113.667432,34.749403,河南省,郑州市,二七区
B0FFHOLL5P,郑州合盛怡思得酒店,普惠路81号,住宿服务;宾馆酒店;四星级宾馆,旅游业,消费端,113.772403,34.761945,河南省,郑州市,金水区
B0FFGVWH9K,郑州方特假日酒店,刘集镇产业园华强文化科技产业基地,住宿服务;住宿服务相关;住宿服务相关,其他行业,消费端,113.93686,34.763734,河南省,郑州市,中牟县
B01731DVGT,郑州市第一零一中学,列里路101号,科教文化服务;学校;中学,其他行业,消费端,113.772544,34.739068,河南省,郑州市,管城回族区
B01730ISIU,建国饭店,金水大道东段机场路272号,住宿服务;宾馆酒店;五星级宾馆|餐饮服务;餐饮相关场所;餐饮相关,旅游业,消费端,113.715436,34.763071,河南省,郑州市,金水区
B01730IKUF,鹰城鑫地饭店,大学中路120号,住宿服务;宾馆酒店;四星级宾馆|餐饮服务;餐饮相关场所;餐饮相关,旅游业,消费端,113.643266,34.724017,河南省,郑州市,二七区
B017309CJR,大桥石化西四环加油站,西四环与金菊街交叉口西南角,汽车服务;加油站;加油站,其他行业,消费端,113.529302,34.821019,河南省,郑州市,中原区
B017315UT3,河南交通职业技术学院(淮南街),航海中路165号,科教文化服务;学校;高等院校,其他行业,消费端,113.637201,34.715896,河南省,郑州市,二七区
B0FFG3G6K2,八堡五金机电汽配城,花园口镇大河路南(田河村东),汽车服务;汽车配件销售;汽车配件销售,零售业,消费端,113.748156,34.869359,河南省,郑州市,惠济区
B0FFG8WDGQ,民航加油站(中州大道辅路),中州大道与民航路交叉口向北50米,汽车服务;加油站;加油站,其他行业,消费端,113.718989,34.766983,河南省,郑州市,金水区
B0FFLFLA0W,郑州喆鹏酒店,开元路100号(毛庄地铁站C口步行420米),住宿服务;宾馆酒店;宾馆酒店,旅游业,消费端,113.62279,34.866364,河南省,郑州市,惠济区
B0173088R1,郑州外国语新枫杨学校,高新技术开发区翠竹街税务干部学校对面,科教文化服务;学校;中学,其他行业,消费端,113.559114,34.818386,河南省,郑州市,中原区
B01730JFQ7,郑州粤海酒店,德化街5号,住宿服务;宾馆酒店;五星级宾馆|餐饮服务;中餐厅;中餐厅,旅游业,消费端,113.667432,34.749403,河南省,郑州市,二七区
B0FFHOLL5P,郑州合盛怡思得酒店,普惠路81号,住宿服务;宾馆酒店;四星级宾馆,旅游业,消费端,113.772403,34.761945,河南省,郑州市,金水区
B0FFGVWH9K,郑州方特假日酒店,刘集镇产业园华强文化科技产业基地,住宿服务;住宿服务相关;住宿服务相关,其他行业,消费端,113.93686,34.763734,河南省,郑州市,中牟县
B01731DVGT,郑州市第一零一中学,列里路101号,科教文化服务;学校;中学,其他行业,消费端,113.772544,34.739068,河南省,郑州市,管城回族区
B01730ISIU,建国饭店,金水大道东段机场路272号,住宿服务;宾馆酒店;五星级宾馆|餐饮服务;餐饮相关场所;餐饮相关,旅游业,消费端,113.715436,34.763071,河南省,郑州市,金水区
B017309CJR,大桥石化西四环加油站,西四环与金菊街交叉口西南角,汽车服务;加油站;加油站,其他行业,消费端,113.529302,34.821019,河南省,郑州市,中原区
B017315UT3,河南交通职业技术学院(淮南街),航海中路165号,科教文化服务;学校;高等院校,其他行业,消费端,113.637201,34.715896,河南省,郑州市,二七区
B0FFG3G6K2,八堡五金机电汽配城,花园口镇大河路南(田河村东),汽车服务;汽车配件销售;汽车配件销售,零售业,消费端,113.748156,34.869359,河南省,郑州市,惠济区
B01730JLDM,郑飞国际酒店,南三环中段,住宿服务;宾馆酒店;四星级宾馆,旅游业,消费端,113.636561,34.700125,河南省,郑州市,二七区
B0G32ME51S,郑州铂笙酒店,宇兴路与前程大道交叉口北160米路东,住宿服务;宾馆酒店;四星级宾馆,旅游业,消费端,113.872752,34.689806,河南省,郑州市,中牟县
B0FFGCYLF6,郑州M酒店,陇海路80号(陇海西路地铁站D口步行190米),住宿服务;宾馆酒店;四星级宾馆,旅游业,消费端,113.616251,34.736853,河南省,郑州市,中原区
B0FFH5CSEU,北四环汽车城,花园口镇中州大道与迎宾路交叉口向北100米,汽车销售;汽车销售;汽车销售,零售业,消费端,113.677927,34.875928,河南省,郑州市,惠济区
B01730ICI4,丰产路加油站,经一路与丰产路交叉口西50米路南,汽车服务;加油站;加油站,其他行业,消费端,113.696758,34.783535,河南省,郑州市,金水区
B0FFIZQKCT,郑州新奇中学,三全路70号,科教文化服务;学校;中学,其他行业,消费端,113.6712,34.830893,河南省,郑州市,金水区
B0FFF3JV8I,郑州市实验高级中学,文化北路256号,科教文化服务;学校;中学,其他行业,消费端,113.642831,34.865655,河南省,郑州市,惠济区
B017306BX6,郑州外国语中学,陇海西路65号,科教文化服务;学校;中学,其他行业,消费端,113.619528,34.737657,河南省,郑州市,中原区
B0JRMCOBF7,新郑鑫港萬華酒店,创业路与湖滨路交汇处,住宿服务;宾馆酒店;宾馆酒店,旅游业,消费端,113.749787,34.420468,河南省,郑州市,新郑市
B01730JVNT,方中山胡辣汤(总店),紫荆山路3号(紫荆山地铁站C口步行190米),餐饮服务;中餐厅;清真菜馆,旅游业,消费端,113.682462,34.760065,河南省,郑州市,金水区
B0H3V57MZ1,华丰来旺达酒店(郑州高铁东站CBD会展中心店),商都路七里河南路向南300米路东,住宿服务;宾馆酒店;宾馆酒店,旅游业,消费端,113.739056,34.743291,河南省,郑州市,管城回族区
B0GR2ZBXC1,东风日产郑州威佳宏远专营店,南三环与连云路交叉口向东300米路南,汽车销售;日产特约销售;东风日产销售|汽车维修;日产特约维修;东风日产维修,零售业,消费端,113.673991,34.697298,河南省,郑州市,二七区
B01731BNWB,河南信息统计职业学院(金水校区),鑫苑路5号,科教文化服务;学校;职业技术学校,其他行业,消费端,113.686634,34.799193,河南省,郑州市,金水区
B0FFHR1E52,河南艺术职业学院文化路校区,东风路街道文化路79号,科教文化服务;学校;高等院校|科教文化服务;学校;职业技术学校,其他行业,消费端,113.663273,34.806128,河南省,郑州市,金水区
B017308CXT,少林景区,207国道旁,风景名胜;风景名胜;国家级景点,其他行业,消费端,112.949076,34.486349,河南省,郑州市,登封市
B01730IES4,二七广场,西大街21号,风景名胜;公园广场;城市广场,其他行业,消费端,113.666451,34.75186,河南省,郑州市,二七区
B0JKCMNDVK,郑州郑东万象城,金水东路与东风南路交叉口西南角,购物服务;商场;购物中心,零售业,消费端,113.764208,34.765546,河南省,郑州市,金水区
B0FFKYGE2W,郑州银基动物王国,刘寨镇大鸿路1号银基国际旅游度假区,风景名胜;公园广场;动物园,其他行业,消费端,113.550465,34.486206,河南省,郑州市,新密市
B0173065N4,少林寺,嵩山少林风景区,风景名胜;风景名胜;寺庙道观,其他行业,消费端,112.941373,34.507029,河南省,郑州市,登封市
B0HAHAI4K3,郑州方特旅游度假区,郑汴物流通道与人文路交叉口,风景名胜;风景名胜相关;旅游景点,旅游业,消费端,113.929932,34.765965,河南省,郑州市,中牟县
B01730JLF0,嵩山国家重点风景名胜区,中岳大街146号,风景名胜;风景名胜;国家级景点,其他行业,消费端,112.995299,34.507867,河南省,郑州市,登封市
B0FFKEZM5H,只有河南·戏剧幻城,平安大道与广信街交叉口西北角,风景名胜;风景名胜;风景名胜,其他行业,消费端,114.002921,34.799139,河南省,郑州市,中牟县
B0FFFZHR2O,丹尼斯·大卫城,西太康路与二七路交汇处西北角,购物服务;商场;购物中心,零售业,消费端,113.665886,34.757768,河南省,郑州市,金水区
B01730K6MX,万达广场(郑州中原店),中原中路171号,购物服务;商场;购物中心,零售业,消费端,113.601543,34.746421,河南省,郑州市,中原区
B0FFINGG8V,郑州海昌海洋公园,大孟街道平安大道东1号,风景名胜;风景名胜;风景名胜,其他行业,消费端,113.988652,34.785878,河南省,郑州市,中牟县
B0FFF4H1OV,郑州二七万象城,民主路10号(二七广场地铁站L口步行190米),购物服务;商场;购物中心,零售业,消费端,113.661854,34.754929,河南省,郑州市,二七区
B0FFJ5VRHU,郑州记忆1952油化厂旅游休闲街区,沙口路黄河路北(沙口路地铁站C口步行270米),风景名胜;风景名胜相关;旅游景点,旅游业,消费端,113.640204,34.772317,河南省,郑州市,金水区
B0FFFA7G1F,银基广场,一马路8号,购物服务;商场;购物中心,零售业,消费端,113.665328,34.742993,河南省,郑州市,管城回族区
B0H015NYCK,郑州正弘汇,科学大道与瑞达路交叉口西北角,购物服务;商场;商场,零售业,消费端,113.566287,34.808911,河南省,郑州市,中原区
B0FFGCBRRP,郑州杉杉奥莱·中牟店,郑开大道与223省道交叉路路口东北角a14600,购物服务;商场;购物中心,零售业,消费端,114.029211,34.782086,河南省,郑州市,中牟县
B0FFG9WS5S,CityOn熙地港(郑州)购物中心,农业东路15号,购物服务;商场;购物中心,零售业,消费端,113.717482,34.78481,河南省,郑州市,金水区
B0FFHUOOHX,伏羲山,米村镇月寨村四组,风景名胜;风景名胜;国家级景点,其他行业,消费端,113.244619,34.601317,河南省,郑州市,新密市
B0H315XM7Y,尚座中心,农业南路81号(农业南路地铁站B口步行490米),商务住宅;楼宇;商务写字楼|购物服务;购物相关场所;购物相关场所,其他行业,消费端,113.756845,34.763993,河南省,郑州市,金水区
B0HR6K6K9Z,新田360广场(郑州绿地店),金水东路80号(金水东路地铁站C口旁),购物服务;商场;普通商场,零售业,消费端,113.767615,34.770009,河南省,郑州市,金水区
B0FFHRUD9Z,建业电影小镇,文创路与百花街交叉口,风景名胜;风景名胜;风景名胜,其他行业,消费端,113.999207,34.775389,河南省,郑州市,中牟县
B0FFGH2W5G,万达广场(郑州惠济店),开元路68号,购物服务;商场;购物中心,零售业,消费端,113.636377,34.868556,河南省,郑州市,惠济区
B01731A02B,郑州站西广场,京广路,风景名胜;公园广场;城市广场,其他行业,消费端,113.656525,34.74513,河南省,郑州市,二七区
B0IR5SVHUJ,探十里(升龙金中环财富中心店),陇海西路338号(陇海西路地铁站A口步行180米),购物服务;商场;购物中心|购物服务;家电电子卖场;家电电子卖场,零售业,消费端,113.614647,34.735474,河南省,郑州市,中原区
B0FFFDR2BG,万达广场(郑州二七店),大学南路8号,购物服务;商场;购物中心,零售业,消费端,113.64303,34.718184,河南省,郑州市,二七区
B0FFGH2W5G,万达广场(郑州惠济店),开元路68号,购物服务;商场;购物中心,零售业,消费端,113.636377,34.868556,河南省,郑州市,惠济区
B01731A02B,郑州站西广场,京广路,风景名胜;公园广场;城市广场,其他行业,消费端,113.656525,34.74513,河南省,郑州市,二七区
B0IR5SVHUJ,探十里(升龙金中环财富中心店),陇海西路338号(陇海西路地铁站A口步行180米),购物服务;商场;购物中心|购物服务;家电电子卖场;家电电子卖场,零售业,消费端,113.614647,34.735474,河南省,郑州市,中原区
B0FFFDR2BG,万达广场(郑州二七店),大学南路8号,购物服务;商场;购物中心,零售业,消费端,113.64303,34.718184,河南省,郑州市,二七区
B0G3O7CFST,郑州龙湖湿地公园,源十三街隧道附近,风景名胜;公园广场;公园,其他行业,消费端,113.734745,34.8142,河南省,郑州市,金水区
B01730K6LT,郑州大观音寺,国基路76号,风景名胜;风景名胜;寺庙道观,其他行业,消费端,113.66632,34.822344,河南省,郑州市,金水区
B0G2VMKLTR,万达广场(郑州高新店),郑州高新技术产业开发区科学大道郁香路西北角,购物服务;商场;购物中心,零售业,消费端,113.582252,34.809127,河南省,郑州市,中原区
B0173169EF,中原福塔,经济技术开发区航海东路1206号,风景名胜;风景名胜;国家级景点,其他行业,消费端,113.728679,34.723295,河南省,郑州市,管城回族区
B0FFG7QGEZ,郑州锦艺城购物中心,棉纺西路36号,购物服务;商场;购物中心,零售业,消费端,113.609249,34.762388,河南省,郑州市,中原区
B01730I9JJ,德化步行街,德化街85号附71号,购物服务;特色商业街;特色商业街,其他行业,消费端,113.666303,34.749703,河南省,郑州市,二七区
B017300007,郑州海洋馆,国基路86号,风景名胜;公园广场;水族馆,其他行业,消费端,113.658001,34.820057,河南省,郑州市,金水区
B01730JVLG,郑州印象汇,中州大道1188号(东十里铺地铁站D口步行180米),购物服务;商场;购物中心,零售业,消费端,113.725035,34.748937,河南省,郑州市,金水区
B0J1ZUIPKN,郑州杉杉奥莱·二七店,大学南路319号,购物服务;商场;购物中心,零售业,消费端,113.646135,34.650365,河南省,郑州市,二七区
B01730JSOF,绿博园,郑开大道与人文路交汇处,风景名胜;风景名胜;国家级景点,其他行业,消费端,113.933241,34.755324,河南省,郑州市,中牟县
B01730ISHK,郑州市动物园,花园路103号(关虎屯地铁站A口步行120米),风景名胜;公园广场;动物园,其他行业,消费端,113.685214,34.789401,河南省,郑州市,金水区
B0FFFWIZUA,万达坊(郑州花园路店),花园路122号(东风路地铁站B口步行210米),购物服务;商场;购物中心,零售业,消费端,113.680542,34.79354,河南省,郑州市,金水区
B0G1XOI6ET,新田360广场(TK360),西太康路58号(人民公园地铁站A口步行260米),购物服务;商场;购物中心,零售业,消费端,113.662596,34.758186,河南省,郑州市,金水区
B0FFKSV6F8,华商汇,汇远路华商汇A馆2楼405/406,购物服务;家居建材市场;家具建材综合市场|购物服务;家居建材市场;建材五金市场|生活服务;生活服务场所;生活服务场所,建筑业,制造端,113.723187,34.570654,河南省,郑州市,新郑市
B0FFKCGLHK,郑州博物馆新馆,文翰街9号,科教文化服务;博物馆;博物馆,其他行业,消费端,113.54672,34.7396,河南省,郑州市,中原区
B0FFFEIEX5,万邦国际批发市场,万洪路2号,购物服务;综合市场;综合市场,其他行业,消费端,113.943526,34.688661,河南省,郑州市,中牟县
B0FFF9LAKG,河南万邦国际农产品物流城果品区,万洪路7-9号河南万邦国际农产品物流城,购物服务;综合市场;果品市场|生活服务;物流速递;物流仓储场地,交通运输业,运输端,113.947301,34.692094,河南省,郑州市,中牟县
B0FFKKVZ8E,IKEA宜家家居(郑州商场),长兴路2号,购物服务;家居建材市场;家具城,建筑业,制造端,113.627827,34.815443,河南省,郑州市,惠济区
B0FFF3AUV1,西流湖公园,建设西路与湖西路交叉口,风景名胜;公园广场;公园,其他行业,消费端,113.578986,34.763312,河南省,郑州市,中原区
B0FFID6Y3G,郑州二七纪念馆,德化街街道二七路230号二七广场(近火车站),风景名胜;风景名胜;纪念馆|风景名胜;风景名胜;红色景区,旅游业,消费端,113.666494,34.752186,河南省,郑州市,二七区
B01731887Y,华丰灯饰界,商都路与七里河南路交汇处,购物服务;家居建材市场;建材五金市场,建筑业,制造端,113.741182,34.74433,河南省,郑州市,管城回族区
B0H22BG1ZY,朗悦公园茂,翠竹街与雪松路交汇处西北角,购物服务;商场;普通商场,零售业,消费端,113.555837,34.819459,河南省,郑州市,中原区
B0FFF9160K,龙湖锦艺城购物中心,双湖大道152号,购物服务;商场;购物中心,零售业,消费端,113.726021,34.613215,河南省,郑州市,新郑市
B0G2M1YT8L,永和·时光里购物中心,平安大道中道西路路口(龙子湖地铁站E口步行310米),购物服务;商场;购物中心|购物服务;商场;普通商场,零售业,消费端,113.805642,34.791097,河南省,郑州市,金水区
B0FFI6BI11,首创奥特莱斯,贾峪镇奥莱大道与滨湖东路交汇处,购物服务;商场;购物中心,零售业,消费端,113.501616,34.675782,河南省,郑州市,荥阳市
B01730I0HS,中原百姓广场,嵩山南路69号,购物服务;家居建材市场;家具建材综合市场,建筑业,制造端,113.63011,34.702644,河南省,郑州市,二七区
B01731DST2,郑州华强广场,高新区电厂路70号(大学科技园地铁站C口步行160米),购物服务;商场;普通商场,零售业,消费端,113.603443,34.792034,河南省,郑州市,中原区
B01730IQMH,紫荆山公园,金水路108号(紫荆山地铁站B口步行270米),风景名胜;公园广场;公园,其他行业,消费端,113.687708,34.76189,河南省,郑州市,金水区
B0FFG9ZQKL,郑州华盛奥特莱斯,环西路与华南城一路交叉口东南角,购物服务;商场;购物中心,零售业,消费端,113.727616,34.604343,河南省,郑州市,新郑市
B0FFJKV3YU,百荣世贸商城,京广路与浔江西路交叉口,购物服务;综合市场;综合市场,其他行业,消费端,113.662268,34.659651,河南省,郑州市,二七区
B0GKVZ2IPG,吾悦广场(郑州荥阳店),荥泽大道与菖蒲路交叉口西140米,购物服务;商场;购物中心,零售业,消费端,113.428155,34.774258,河南省,郑州市,荥阳市
B01730JPOR,郑州植物园,四环路,风景名胜;公园广场;植物园,其他行业,消费端,113.536584,34.734592,河南省,郑州市,中原区
B01730IDDX,郑州市人民公园,北二七路97号,风景名胜;公园广场;公园,其他行业,消费端,113.662369,34.76161,河南省,郑州市,二七区
B0FFHI74Y2,中陆广场,京广南路,购物服务;家居建材市场;家具建材综合市场,建筑业,制造端,113.659725,34.702635,河南省,郑州市,二七区
B0FFLKR4MC,盛华里购物中心,航海东路与第五大街交汇处,购物服务;商场;商场,零售业,消费端,113.753076,34.722253,河南省,郑州市,管城回族区
B0FFGM30GJ,伏羲山凤泉湖景区,尖山风景区管委会尖山村,风景名胜;风景名胜;国家级景点,其他行业,消费端,113.219409,34.590644,河南省,郑州市,新密市
B01730KC5D,新世界百货(郑州店),紫荆山路57-1号,购物服务;商场;购物中心,零售业,消费端,113.682704,34.75359,河南省,郑州市,管城回族区
B0FFK5P922,郑州方特梦幻王国,郑开大道与人文路交叉口向南,风景名胜;风景名胜相关;旅游景点,旅游业,消费端,113.925669,34.767122,河南省,郑州市,中牟县
B0LU7SYB0C,大河村遗址博物馆,中州大道与连霍高速交叉口南500米路东,科教文化服务;博物馆;博物馆,其他行业,消费端,113.694559,34.837406,河南省,郑州市,金水区
B0GRJMN6BN,富田新天地,航海东路街道航海东路2号,购物服务;商场;普通商场|商务住宅;住宅区;住宅小区,零售业,消费端,113.715138,34.722674,河南省,郑州市,管城回族区
B017304769,始祖山,辛店镇,风景名胜;风景名胜;风景名胜,其他行业,消费端,113.540792,34.34224,河南省,郑州市,新郑市
B0HBY7JB6R,高新万科广场,高新区科学大道西四环西南角,购物服务;商场;普通商场,零售业,消费端,113.525084,34.80599,河南省,郑州市,中原区
B0FFHSIZAB,美景·欢乐广场,迎宾路街道文化北路236号,购物服务;商场;购物中心,零售业,消费端,113.64518,34.858845,河南省,郑州市,惠济区
B01730839D,郑州黄河文化公园,江山路黄河南岸1号,风景名胜;风景名胜;国家级景点,其他行业,消费端,113.512589,34.953667,河南省,郑州市,惠济区
B01730799J,碧沙岗公园,建设东路31号(绿城广场地铁站J口步行50米),风景名胜;公园广场;公园,其他行业,消费端,113.630255,34.75128,河南省,郑州市,中原区
B017316EML,宝龙广场,农业东路33号,购物服务;商场;购物中心,零售业,消费端,113.736417,34.781901,河南省,郑州市,金水区
B01730839D,郑州黄河文化公园,江山路黄河南岸1号,风景名胜;风景名胜;国家级景点,其他行业,消费端,113.512589,34.953667,河南省,郑州市,惠济区
B01730799J,碧沙岗公园,建设东路31号(绿城广场地铁站J口步行50米),风景名胜;公园广场;公园,其他行业,消费端,113.630255,34.75128,河南省,郑州市,中原区
B017316EML,宝龙广场,农业东路33号,购物服务;商场;购物中心,零售业,消费端,113.736417,34.781901,河南省,郑州市,金水区
B01730IGU0,百年德化风情购物公园,彩虹路(二七广场西南角),购物服务;商场;商场,零售业,消费端,113.665317,34.750407,河南省,郑州市,二七区
B0FFF5HXO8,大上海城,太康路24-28号(人民路地铁站D口步行360米),购物服务;商场;购物中心,零售业,消费端,113.669437,34.756898,河南省,郑州市,管城回族区
B0FFGHQO8V,五洲城,中原西路与棋源路交叉口西北角,购物服务;家居建材市场;家具建材综合市场,建筑业,制造端,113.414964,34.754002,河南省,郑州市,荥阳市
B0FFHF6N83,郑州园博园,航空港区苑陵路140号,风景名胜;风景名胜相关;旅游景点,旅游业,消费端,113.872043,34.458925,河南省,郑州市,新郑市
B0FFGZYHIV,华南城1号交易广场,双湖大道与郑新快速通道交汇处,购物服务;综合市场;综合市场,其他行业,消费端,113.728564,34.608781,河南省,郑州市,新郑市
B0HDVNX1C7,郑州蝶湖森林公园,东三环,风景名胜;公园广场;公园,其他行业,消费端,113.76782,34.684769,河南省,郑州市,管城回族区
B0HADZE29C,乐城·祥锐广场,东太康路72号3层,购物服务;商场;普通商场,零售业,消费端,113.670907,34.754101,河南省,郑州市,管城回族区
B0FFI5MUHR,东建材精品广场,郑汴路郑州建材大世界(东十里铺地铁站A口步行360米),购物服务;家居建材市场;建材五金市场,建筑业,制造端,113.723861,34.745711,河南省,郑州市,金水区
B0173187Y6,沃金商业广场,航空港区郑港七路,购物服务;商场;购物中心,零售业,消费端,113.857909,34.560863,河南省,郑州市,中牟县
B0HB3X9LUQ,国贸360店,关虎屯地铁站C口步行260米,购物服务;购物相关场所;购物相关场所,其他行业,消费端,113.681176,34.78505,河南省,郑州市,金水区
B0FFJKBY18,丹尼斯百货人民店,人民路2号丹尼斯百货(人民店)F3,购物服务;商场;普通商场|购物服务;超级市场;超市,零售业,消费端,113.675133,34.757064,河南省,郑州市,金水区
B0FFF9022G,中原水产物流港,绿源路8号,购物服务;综合市场;水产海鲜市场,其他行业,运输端,113.574523,34.890005,河南省,郑州市,惠济区
B0FFGC99HL,大玉米58楼城市观光厅,郑东新区如意湖大玉米58楼,风景名胜;风景名胜相关;旅游景点,旅游业,消费端,113.727346,34.770765,河南省,郑州市,金水区
B0FFGJPC94,锦荣悦汇城,航空港区雍州路与巡航路交汇处东北角,购物服务;商场;普通商场,零售业,消费端,113.861713,34.564947,河南省,郑州市,中牟县
B0FFKKW5HD,红石林景区,云上牧场,风景名胜;风景名胜;国家级景点,其他行业,消费端,113.257523,34.590441,河南省,郑州市,新密市
B01731E1VQ,郑州东站西广场,心怡路(郑州东站地铁站I口步行170米),风景名胜;公园广场;城市广场,其他行业,消费端,113.775057,34.759005,河南省,郑州市,金水区
B0GK0A8VW9,大河村国家考古遗址公园,中州大道与连霍高速交叉口南500米路东,风景名胜;公园广场;公园,其他行业,消费端,113.703616,34.841266,河南省,郑州市,金水区
B0FFG4ZOD5,万博商城,苑陵街16号(二七广场地铁站F口向南200米),购物服务;商场;普通商场,零售业,消费端,113.663878,34.749661,河南省,郑州市,二七区
B0173080LC,丹尼斯(航海天地店),航海东路1228号,购物服务;超级市场;超市,零售业,消费端,113.737723,34.721837,河南省,郑州市,管城回族区
B017316L0V,王府井城市奥莱,棉纺西路4号,购物服务;商场;购物中心,零售业,消费端,113.612587,34.761702,河南省,郑州市,中原区
B01730KC8R,丹尼斯百货(花园店),花园路与农业路交叉口东北角,购物服务;商场;普通商场,零售业,消费端,113.68245,34.787149,河南省,郑州市,金水区
B0HGXZYC9C,天泽城广场(建设中),宝峰街7号,购物服务;商场;普通商场,零售业,消费端,113.961553,34.716953,河南省,郑州市,中牟县
B01731DV5Y,南环公园,南四环与大学南路交叉口东北角,风景名胜;公园广场;公园,其他行业,消费端,113.647477,34.666539,河南省,郑州市,二七区
B01730IEGO,百脑汇数码广场,东风路52号,购物服务;家电电子卖场;数码电子,制造业,消费端,113.671385,34.798994,河南省,郑州市,金水区
B0FFMFJZ2Y,郑州凤凰茶城(青年路店),升龙凤凰城C区(凤凰台南地铁站D1口步行160米),购物服务;综合市场;农副产品市场|生活服务;生活服务场所;生活服务场所,其他行业,消费端,113.707587,34.741448,河南省,郑州市,金水区
B0KARAGJRM,上东国际,郑东新区芦医庙大街与老薛庵路交叉口东200米,商务住宅;楼宇;商务写字楼|购物服务;购物相关场所;购物相关场所,其他行业,消费端,113.853406,34.773876,河南省,郑州市,中牟县
B01731E0M1,裕华广场(三全路),三全路与长兴路交会处西北角,购物服务;商场;购物中心|购物服务;商场;普通商场,零售业,消费端,113.624802,34.83322,河南省,郑州市,惠济区
B0FFKM4GWY,信万广场,国基路87号,购物服务;商场;购物中心|购物服务;体育用品店;体育用品店|生活服务;生活服务场所;生活服务场所,零售业,消费端,113.647244,34.819151,河南省,郑州市,金水区
B01730JPRL,嵩阳景区,太室路与少室路交叉口北50米,风景名胜;风景名胜;风景名胜,其他行业,消费端,113.036664,34.498949,河南省,郑州市,登封市
B0FFF90W50,中原第一城,郑密路,购物服务;综合市场;综合市场,其他行业,消费端,113.588264,34.683056,河南省,郑州市,二七区
B01730489F,康百万庄园,康店镇庄园路59号,风景名胜;风景名胜;国家级景点,其他行业,消费端,112.950939,34.762906,河南省,郑州市,巩义市
B01730I1AG,红星美凯龙中原全球家居1号店,商都路1号,购物服务;家居建材市场;家具建材综合市场,建筑业,制造端,113.728779,34.745745,河南省,郑州市,金水区
B01730I9X0,五指岭,口五路,地名地址信息;自然地名;山|风景名胜;风景名胜;风景名胜,其他行业,消费端,113.169817,34.599545,河南省,郑州市,巩义市
B01731DTNW,郑州站东广场,大同路与一马路交汇处,风景名胜;公园广场;城市广场,其他行业,消费端,113.661807,34.746682,河南省,郑州市,二七区
B0H6HCGA56,月湖广场,迎宾路街道新城路与文创路交叉口西北角,购物服务;商场;普通商场,零售业,消费端,113.637351,34.870225,河南省,郑州市,惠济区
B0173042DA,郑州市绿城广场,兴华北街16-4号(绿城广场地铁站C口步行180米),风景名胜;公园广场;城市广场,其他行业,消费端,113.629954,34.746381,河南省,郑州市,二七区
B0FFHI4OAM,乐尚天地生活广场,经开第五大街与经南三路交汇处,购物服务;商场;普通商场,零售业,消费端,113.754736,34.713636,河南省,郑州市,管城回族区
B01730ILOT,河南中博家居中心,未来路89号,购物服务;家居建材市场;家具城,建筑业,制造端,113.706823,34.744406,河南省,郑州市,管城回族区
B0173042C6,世贸购物中心,一马路,购物服务;商场;购物中心,零售业,消费端,113.665916,34.740748,河南省,郑州市,二七区
B0G27MC69R,云尚,商都路辅路与康平路向南50米路西,体育休闲服务;娱乐场所;KTV|购物服务;商场;商场,零售业,消费端,113.759965,34.745213,河南省,郑州市,管城回族区
B0FFI1OSJN,登封大熊山仙人谷景区,徐庄镇013乡道,风景名胜;风景名胜;国家级景点,其他行业,消费端,113.129525,34.280154,河南省,郑州市,登封市
B01730K4GG,丹尼斯7天地,[],购物服务;商场;购物中心,零售业,消费端,113.72293,34.778035,河南省,郑州市,金水区
B017316M5M,郑州黄河国家湿地公园,黄河大堤,风景名胜;风景名胜;风景名胜,其他行业,消费端,113.654863,34.908128,河南省,郑州市,惠济区
B0FFHE3G9U,郑州华联商厦,二七路230号(二七广场地铁站L口步行190米),购物服务;商场;购物中心,零售业,消费端,113.66594,34.753271,河南省,郑州市,二七区
B0FFGHPG76,郑州蝶湖公园,蝶湖东一街,风景名胜;风景名胜相关;旅游景点,旅游业,消费端,113.77854,34.683794,河南省,郑州市,管城回族区
B0KKHR2OBX,鲜风生活(郑州尚座中心店),祥盛街30号尚座中心B馆1层B1001号,购物服务;超级市场;超市,零售业,消费端,113.757413,34.76409,河南省,郑州市,金水区
B0I2HC7JI2,小马高原,伏羲山凤泉湖景区内(东侧),风景名胜;风景名胜相关;旅游景点,旅游业,消费端,113.233521,34.595734,河南省,郑州市,新密市
B0FFHE0ZUQ,龙湖万佳商业广场,双湖大道11号(居易国际城对面),购物服务;商场;普通商场,零售业,消费端,113.715633,34.61269,河南省,郑州市,新郑市
B0173049F0,嵩阳书院,嵩阳南路,风景名胜;风景名胜;国家级景点,其他行业,消费端,113.033552,34.480289,河南省,郑州市,登封市
B01730JKPI,丹尼斯大卖场微型消防站(丹尼斯6天地店),商务内环路与众意路交叉口南100米路西,购物服务;商场;购物中心|购物服务;商场;普通商场,零售业,消费端,113.720844,34.776744,河南省,郑州市,金水区
B0HGN5N7XK,朗悦新悦荟,高新区长椿路与红桦街交叉口西北角,购物服务;商场;普通商场,零售业,消费端,113.541172,34.830852,河南省,郑州市,中原区
B0FFICJF97,河南艺术中心-文化广场,商城路176-177号,风景名胜;公园广场;城市广场,其他行业,消费端,113.724036,34.770705,河南省,郑州市,金水区
B0FFGLGQNN,世纪城时代广场,建设路与青年路交叉口南100米东侧,购物服务;商场;商场,零售业,消费端,114.01829,34.723456,河南省,郑州市,中牟县
B01730432A,黄帝故里,轩辕路1号,风景名胜;风景名胜;国家级景点,其他行业,消费端,113.727051,34.400213,河南省,郑州市,新郑市
B01730IMDU,华城国际中心,大学路80号,购物服务;商场;普通商场,零售业,消费端,113.64328,34.738695,河南省,郑州市,二七区
B0L6CACV7F,永辉超市(大学路店),大学路30号(医学院地铁站P口步行140米),购物服务;超级市场;超市,零售业,消费端,113.644462,34.745256,河南省,郑州市,二七区
B0HGOCUCLA,云上牧场,红石林景区内(北侧),风景名胜;风景名胜;风景名胜,其他行业,消费端,113.254831,34.597245,河南省,郑州市,新密市
B0FFGWPR3T,大观国贸,乔家门路1号,购物服务;综合市场;综合市场,其他行业,消费端,113.66738,34.743757,河南省,郑州市,管城回族区
B0FFKFORF1,智汇城,东风路文博西路(白庙地铁站E口步行280米),购物服务;商场;普通商场|商务住宅;商务住宅相关;商务住宅相关|生活服务;生活服务场所;生活服务场所,零售业,消费端,113.671274,34.797891,河南省,郑州市,金水区
B0FFHWVAX8,郑州树木园,316省道,风景名胜;风景名胜;风景名胜,其他行业,消费端,113.555864,34.670784,河南省,郑州市,二七区
B0FFH1RZQ2,双桥五金机电汽配城,008乡道与江山路交叉口西南260米,购物服务;家居建材市场;建材五金市场,建筑业,制造端,113.592554,34.857083,河南省,郑州市,惠济区
B0FFFZW868,中灵山,城西25公里处颍阳镇境内,风景名胜;风景名胜相关;旅游景点,旅游业,消费端,112.801221,34.485141,河南省,郑州市,登封市
B0FFH6PHBB,华丰建材交易中心,航海东路,购物服务;家居建材市场;建材五金市场,建筑业,制造端,113.877842,34.71727,河南省,郑州市,中牟县
B0FFMAZYVA,汇美茂购物中心,银莺路76号,购物服务;商场;普通商场|购物服务;超级市场;超市,零售业,消费端,113.700212,34.703966,河南省,郑州市,管城回族区
B017316H7O,大润发(陇海店),紫荆山路与陇海东路交叉口东北角,购物服务;超级市场;超市,零售业,消费端,113.683209,34.740424,河南省,郑州市,管城回族区
B017315YDN,锦荣商贸城,乔家门路30号,购物服务;综合市场;综合市场,其他行业,消费端,113.668691,34.741642,河南省,郑州市,管城回族区
B0FFMDY75G,郑州二砂文化创意园,华山路与颍河西路交叉口西500米路北,风景名胜;风景名胜;风景名胜,其他行业,消费端,113.593681,34.743255,河南省,郑州市,中原区
B0FFHBLFXZ,双鹤湖中央公园,郑州航空港区梁州大道西侧,风景名胜;公园广场;公园,其他行业,消费端,113.85781,34.402549,河南省,郑州市,新郑市
B0FFFYIE8I,CBD广场,商务内环路中央公园1号国际商务会展中心,商务住宅;楼宇;楼宇相关|风景名胜;风景名胜相关;旅游景点,旅游业,消费端,113.728667,34.769628,河南省,郑州市,金水区
B0J2PS99C2,明伦岛,侯寨乡鲁河明伦岛A区9号楼,风景名胜;风景名胜;风景名胜,其他行业,消费端,113.570941,34.714655,河南省,郑州市,二七区
B0FFGVEJYR,中国郑州建材大世界,东建材大世界六区23-25号,购物服务;家居建材市场;建材五金市场,建筑业,制造端,113.724217,34.744554,河南省,郑州市,金水区
B0FFIEDPRG,新田360广场(新郑新壹城店),创业路与政通路交汇处(轩辕湖公园北),购物服务;商场;普通商场,零售业,消费端,113.74361,34.420658,河南省,郑州市,新郑市
B017316H7O,大润发(陇海店),紫荆山路与陇海东路交叉口东北角,购物服务;超级市场;超市,零售业,消费端,113.683209,34.740424,河南省,郑州市,管城回族区
B017316HAT,樱桃沟景区,侯寨乡凤栖南路,风景名胜;风景名胜;国家级景点,其他行业,消费端,113.595447,34.612593,河南省,郑州市,二七区
B01730I1KX,环翠峪风景名胜区,神仙洞景区北,风景名胜;风景名胜;省级景点,其他行业,消费端,113.27097,34.636245,河南省,郑州市,荥阳市
B017315YDN,锦荣商贸城,乔家门路30号,购物服务;综合市场;综合市场,其他行业,消费端,113.668691,34.741642,河南省,郑州市,管城回族区
B0FFMDY75G,郑州二砂文化创意园,华山路与颍河西路交叉口西500米路北,风景名胜;风景名胜;风景名胜,其他行业,消费端,113.593681,34.743255,河南省,郑州市,中原区
B0FFHBLFXZ,双鹤湖中央公园,郑州航空港区梁州大道西侧,风景名胜;公园广场;公园,其他行业,消费端,113.85781,34.402549,河南省,郑州市,新郑市
B0FFFYIE8I,CBD广场,商务内环路中央公园1号国际商务会展中心,商务住宅;楼宇;楼宇相关|风景名胜;风景名胜相关;旅游景点,旅游业,消费端,113.728667,34.769628,河南省,郑州市,金水区
B0J2PS99C2,明伦岛,侯寨乡鲁河明伦岛A区9号楼,风景名胜;风景名胜;风景名胜,其他行业,消费端,113.570941,34.714655,河南省,郑州市,二七区
B0FFGVEJYR,中国郑州建材大世界,东建材大世界六区23-25号,购物服务;家居建材市场;建材五金市场,建筑业,制造端,113.724217,34.744554,河南省,郑州市,金水区
B0FFIEDPRG,新田360广场(新郑新壹城店),创业路与政通路交汇处(轩辕湖公园北),购物服务;商场;普通商场,零售业,消费端,113.74361,34.420658,河南省,郑州市,新郑市
B0G3ZZPW0B,郑州华南城,[],购物服务;商场;普通商场|购物服务;综合市场;综合市场|商务住宅;楼宇;商住两用楼宇|购物服务;家居建材市场;建材五金市场,建筑业,制造端,113.734963,34.601416,河南省,郑州市,新郑市
B0FFFES65J,青龙山生态文化旅游区,大峪沟镇民权村(距巩义市区20余公里),风景名胜;风景名胜;风景名胜,其他行业,消费端,113.06686,34.676803,河南省,郑州市,巩义市
B01730IGN2,郑州天旺广场,东风路38号,购物服务;商场;普通商场,零售业,消费端,113.64171,34.797717,河南省,郑州市,金水区
B0FFM5T0Q6,贾鲁河公园,丹水大道与渠南路交叉口正南方向938米,风景名胜;公园广场;公园,其他行业,消费端,113.575834,34.72539,河南省,郑州市,中原区
B0FFF4KBZL,鑫苑·鑫都汇,陇海中路100号,购物服务;商场;商场,零售业,消费端,113.651091,34.735742,河南省,郑州市,二七区
B0FFH0RWQX,中部两岸海鲜市场,花园口镇北四环与中州大道交叉口,购物服务;综合市场;水产海鲜市场,其他行业,消费端,113.672243,34.886037,河南省,郑州市,惠济区
B01731A16S,郑州丰乐五金机电城,博颂路与索凌路的交汇处往西200米,购物服务;家居建材市场;建材五金市场,建筑业,制造端,113.634629,34.807479,河南省,郑州市,金水区
B0FFHEIG0V,金多银多珠宝,紫荆山路东大街(东大街地铁站D口旁),购物服务;专卖店;珠宝首饰工艺品,其他行业,消费端,113.681271,34.74859,河南省,郑州市,管城回族区
B0FFF90F8L,天健湖公园,枫香街与创新大道交叉口西北侧,风景名胜;公园广场;公园,其他行业,消费端,113.482993,34.81719,河南省,郑州市,中原区
B0FFI69VVQ,星光城购物中心,郑汴路127号(凤凰台地铁站A口旁),购物服务;商场;普通商场,零售业,消费端,113.715103,34.746091,河南省,郑州市,金水区
B0KKXMYKU7,鲜风生活(郑州印象汇店),中州大道1188号印象汇(金水区店)B1层,购物服务;超级市场;超市,零售业,消费端,113.724879,34.749211,河南省,郑州市,金水区
B017316OEY,家家欣购物中心(锦荣店),航空港区郑港七路与郑港四街交叉口,购物服务;商场;购物中心,零售业,消费端,113.860461,34.563565,河南省,郑州市,中牟县
B01730ISCL,五一公园,文化宫路68号(五一公园地铁站D2口步行440米),风景名胜;公园广场;公园,其他行业,消费端,113.617872,34.753615,河南省,郑州市,中原区
B017306LNL,神仙洞景区,尖山乡神仙洞村沙一丁路,风景名胜;风景名胜;风景名胜,其他行业,消费端,113.268863,34.619631,河南省,郑州市,新密市
B01730ITEZ,杜甫故里文化园,站街镇杜甫前街中段,风景名胜;风景名胜;纪念馆,其他行业,消费端,113.063323,34.794819,河南省,郑州市,巩义市
B0FFI2GH98,汇艺银河里,商鼎路77号,购物服务;商场;普通商场|商务住宅;商务住宅相关;商务住宅相关,零售业,消费端,113.770269,34.75415,河南省,郑州市,管城回族区
B017316QWP,硅谷广场,文化路82号,购物服务;商场;购物中心,零售业,消费端,113.665272,34.796452,河南省,郑州市,金水区
B01730414B,紫荆山百货,紫荆山路1号,购物服务;商场;购物中心,零售业,消费端,113.681219,34.762398,河南省,郑州市,金水区
B017304897,三皇山桃花峪旅游区,"广武镇桃花峪风景区(黄河风景名胜区西侧,黄河岸边)",风景名胜;风景名胜;省级景点,其他行业,消费端,113.493979,34.944512,河南省,郑州市,荥阳市
B0FFFR0455,Apple 郑州万象城,民主路10号郑州万象城2层,购物服务;家电电子卖场;数码电子,制造业,消费端,113.662952,34.754429,河南省,郑州市,二七区
B0IB2CT0E0,大卫城,西太康路与二七路交叉口西南角二七路136到150号,购物服务;商场;普通商场|商务住宅;住宅区;住宅小区|地名地址信息;热点地名;热点地名,零售业,消费端,113.666031,34.758202,河南省,郑州市,金水区
B0FFGK3R7X,丹尼斯5天地,众意西路与商务内环路辅路交叉口西100米,购物服务;商场;普通商场,零售业,消费端,113.719406,34.774655,河南省,郑州市,金水区
B0FFI6OU4A,巩义石窟寺,河洛镇寺湾村,风景名胜;风景名胜;寺庙道观|风景名胜;风景名胜;国家级景点,其他行业,消费端,113.033761,34.821507,河南省,郑州市,巩义市
B017316BC5,郑州信基调味食品城,江山路信基调味食品城食化区A20号,购物服务;综合市场;农副产品市场,其他行业,消费端,113.607236,34.835103,河南省,郑州市,惠济区
B0FFIMTR2P,浮戏山雪花洞风景区,口五路南侧浮戏山风景名胜区,风景名胜;风景名胜;风景名胜,其他行业,消费端,113.190801,34.625473,河南省,郑州市,巩义市
B0FFGGZJTY,锦艺城C区,棉纺西路与秦岭路交汇处东50米路北,购物服务;商场;购物中心,零售业,消费端,113.605931,34.763224,河南省,郑州市,中原区
B0FFGE6DW6,大旺城购物中心,畅和街(祭城地铁站D口步行410米),购物服务;商场;购物中心,零售业,消费端,113.769378,34.779797,河南省,郑州市,金水区
B01731AD3W,丹尼斯2天地,商务内环路4号丹尼斯二天地,购物服务;商场;购物中心|购物服务;商场;普通商场,零售业,消费端,113.721801,34.76869,河南省,郑州市,金水区
B0KG9Z5FBE,永辉超市(裕华广场店),三全路76号靠近裕华广场(三全路),购物服务;超级市场;超市,零售业,消费端,113.624905,34.832869,河南省,郑州市,惠济区
B0FFFQ7F60,锦艺城购物中心B区,棉纺西路23号,购物服务;商场;购物中心|购物服务;商场;普通商场,零售业,消费端,113.610084,34.762093,河南省,郑州市,中原区
B017316CS3,郑州信基调味品城冻品市场,江山路与连霍高速交叉口,购物服务;综合市场;农副产品市场,其他行业,消费端,113.607613,34.833532,河南省,郑州市,惠济区
B0FFFCLJNL,三皇寨,西南15公里的少室山西南侧,风景名胜;风景名胜;风景名胜,其他行业,消费端,112.952063,34.473496,河南省,郑州市,登封市
B0FFJAG2IV,福都百货(航海路店),航海东路六十三中对面,购物服务;商场;普通商场|购物服务;商场;购物中心|购物服务;便民商店/便利店;便民商店/便利店,零售业,消费端,113.70069,34.71981,河南省,郑州市,管城回族区
B0FFFOWAD3,象湖生态湿地公园,郑东新区郑开大道,风景名胜;公园广场;公园,其他行业,消费端,113.87406,34.778664,河南省,郑州市,中牟县
B0FFIWM1M2,美景龙堂·欢乐广场,中州大道与航海路交叉口东北角,购物服务;商场;普通商场,零售业,消费端,113.719087,34.721882,河南省,郑州市,管城回族区
B01730JLT9,陈砦花卉市场(A区),中方园路320号,购物服务;花鸟鱼虫市场;花卉市场|购物服务;专卖店;专营店,其他行业,消费端,113.654861,34.818125,河南省,郑州市,金水区
B0GURMMOFC,郑州商都遗址博物院,东大街366号,风景名胜;公园广场;公园|科教文化服务;博物馆;博物馆,其他行业,消费端,113.686762,34.746546,河南省,郑州市,管城回族区
B0FFF35REO,古柏渡飞黄旅游区(暂停开放),王村镇,风景名胜;风景名胜;国家级景点,其他行业,消费端,113.230696,34.880692,河南省,郑州市,荥阳市
B0IRSM9T5F,水墨香山旅游区,大冶镇周山村一组,风景名胜;风景名胜;风景名胜,其他行业,消费端,113.289387,34.428261,河南省,郑州市,登封市
B017305563,黄河花园口旅游区,防汛拥军路与黄古线交叉口西北50米,风景名胜;风景名胜;省级景点,其他行业,消费端,113.676636,34.903629,河南省,郑州市,惠济区
B0IRSM9T5F,水墨香山旅游区,大冶镇周山村一组,风景名胜;风景名胜;风景名胜,其他行业,消费端,113.289387,34.428261,河南省,郑州市,登封市
B0FFJ38TEA,小龙池,浮戏山雪花洞景区口五路,风景名胜;风景名胜;风景名胜,其他行业,消费端,113.181207,34.657992,河南省,郑州市,巩义市
B01730J4AI,如意湖景区,商务内环路11号,风景名胜;风景名胜;风景名胜,其他行业,消费端,113.724204,34.772895,河南省,郑州市,金水区
B017315T91,麦德龙(郑州郑东商场),澳柯玛郑州国际物流园内(通泰路地铁站B口步行450米),购物服务;超级市场;麦德龙,其他行业,消费端,113.736221,34.74701,河南省,郑州市,金水区
B0FFM5LENV,华祥国贸购物中心,双湖大道与龙湖大道交汇处,购物服务;商场;商场,零售业,消费端,113.681611,34.6111,河南省,郑州市,新郑市
B0FFHWG0WX,蝴蝶谷,水峪沟北,风景名胜;风景名胜;风景名胜,其他行业,消费端,113.152599,34.653076,河南省,郑州市,巩义市
B0FFJGURDQ,淘气堡新天地,嵩山路南彩路交叉口西150米路南,购物服务;商场;商场,零售业,消费端,113.62558,34.68316,河南省,郑州市,二七区
B0FFF8PMCM,黄河富景生态世界,黄河东滩区,风景名胜;风景名胜;省级景点,其他行业,消费端,113.745115,34.905107,河南省,郑州市,惠济区
B01730KBB3,星月时代广场,新兴路45号,购物服务;商场;普通商场,零售业,消费端,112.984909,34.754785,河南省,郑州市,巩义市
B01731AALK,丹尼斯3天地,商务内环路5号,购物服务;商场;购物中心,零售业,消费端,113.719555,34.771239,河南省,郑州市,金水区
B0FFH7UX6V,龙湖里,九如路(龙湖中环南地铁站B口步行350米),购物服务;特色商业街;特色商业街,其他行业,消费端,113.741947,34.791067,河南省,郑州市,金水区
B0IAAC9YYI,嵩顶高山草甸,[],风景名胜;风景名胜相关;旅游景点,旅游业,消费端,112.997121,34.526724,河南省,郑州市,巩义市
B0LBNCSQPD,北龙湖湿地公园沙滩,郑州龙湖湿地公园,风景名胜;风景名胜;风景名胜,其他行业,消费端,113.714109,34.823861,河南省,郑州市,金水区
B0FFLK4GO0,永辉超市(信万广场店),丰庆路国基路交叉口信万广场B1层,购物服务;超级市场;超市,零售业,消费端,113.647914,34.819344,河南省,郑州市,金水区
B0FFHCJEY9,凤凰幸福城,青年路145号环球大厦C座,购物服务;商场;普通商场,零售业,消费端,113.709603,34.740596,河南省,郑州市,金水区
B0FFFYDQ0C,浮戏山风景名胜区,口五路南侧,风景名胜;风景名胜相关;旅游景点,旅游业,消费端,113.196016,34.677282,河南省,郑州市,巩义市
B0HALZ3QVS,盒马鲜生(新田360广场绿地新都会店),绿地新都会·新田360广场A馆2层,购物服务;超级市场;超市,零售业,消费端,113.767131,34.770099,河南省,郑州市,金水区
B0FFM1YDZP,永辉超市(郑州市盛华里店),航海路与第五大街交叉口西北角盛华里负一层,购物服务;超级市场;超市,零售业,消费端,113.75299,34.72164,河南省,郑州市,管城回族区
B0FFL843UO,郑州东区万达坊,商都路十里铺建业5D生活馆,购物服务;商场;普通商场,零售业,消费端,113.731077,34.745612,河南省,郑州市,金水区
B0FFGH2XOY,锦艺城购物中心A区,棉纺西路4号附3号,购物服务;商场;购物中心,零售业,消费端,113.612587,34.761703,河南省,郑州市,中原区
B0173002E8,中原商贸城,嵩山北路28号(碧沙岗地铁站B口步行150米),购物服务;商场;普通商场,零售业,消费端,113.626368,34.753174,河南省,郑州市,中原区
B01730KA8I,郑州居然之家(商都店),商都路6号(通泰路地铁站E口旁),购物服务;家居建材市场;家具建材综合市场|购物服务;家居建材市场;家具城,建筑业,制造端,113.733913,34.748912,河南省,郑州市,金水区
B0FFHQ12E1,凤凰城-北城,郑汴路125号(凤凰台地铁站B口步行360米),购物服务;家居建材市场;建材五金市场|购物服务;家居建材市场;家具城,建筑业,制造端,113.71313,34.745578,河南省,郑州市,金水区
B0FFHEX94N,龙湖商业广场,文昌路与泰山路交叉口向南150米路西,购物服务;商场;购物中心,零售业,消费端,113.686881,34.598917,河南省,郑州市,新郑市
B0FFI972TP,郑州通讯大世界,陇海东路181号,购物服务;家电电子卖场;手机销售|购物服务;家电电子卖场;数码电子,零售业,消费端,113.666619,34.740163,河南省,郑州市,二七区
B0IR5SVHUJ,探十里(升龙金中环财富中心店),陇海西路338号(陇海西路地铁站A口步行180米),购物服务;商场;购物中心|购物服务;家电电子卖场;家电电子卖场,零售业,消费端,113.614647,34.735474,河南省,郑州市,中原区
B01730I9JJ,德化步行街,德化街85号附71号,购物服务;特色商业街;特色商业街,其他行业,消费端,113.666303,34.749703,河南省,郑州市,二七区
B0JBYAR1X4,郑州比亚迪工厂,航空港区030乡道,公司企业;公司企业;公司企业,其他行业,制造端,113.942281,34.38508,河南省,郑州市,新郑市
B0FFJKBY18,丹尼斯百货人民店,人民路2号丹尼斯百货(人民店)F3,购物服务;商场;普通商场|购物服务;超级市场;超市,零售业,消费端,113.675133,34.757064,河南省,郑州市,金水区
B0173080LC,丹尼斯(航海天地店),航海东路1228号,购物服务;超级市场;超市,零售业,消费端,113.737723,34.721837,河南省,郑州市,管城回族区
B01730IEGO,百脑汇数码广场,东风路52号,购物服务;家电电子卖场;数码电子,制造业,消费端,113.671385,34.798994,河南省,郑州市,金水区
B0FFKM4GWY,信万广场,国基路87号,购物服务;商场;购物中心|购物服务;体育用品店;体育用品店|生活服务;生活服务场所;生活服务场所,零售业,消费端,113.647244,34.819151,河南省,郑州市,金水区
B0KKHR2OBX,鲜风生活(郑州尚座中心店),祥盛街30号尚座中心B馆1层B1001号,购物服务;超级市场;超市,零售业,消费端,113.757413,34.76409,河南省,郑州市,金水区
B0FFF918TB,宇通新能源厂区,经开区新安路,公司企业;公司;公司|公司企业;工厂;工厂,制造业,生产端,113.865009,34.693265,河南省,郑州市,中牟县
B0L6CACV7F,永辉超市(大学路店),大学路30号(医学院地铁站P口步行140米),购物服务;超级市场;超市,零售业,消费端,113.644462,34.745256,河南省,郑州市,二七区
B0FFMAZYVA,汇美茂购物中心,银莺路76号,购物服务;商场;普通商场|购物服务;超级市场;超市,零售业,消费端,113.700212,34.703966,河南省,郑州市,管城回族区
B017316H7O,大润发(陇海店),紫荆山路与陇海东路交叉口东北角,购物服务;超级市场;超市,零售业,消费端,113.683209,34.740424,河南省,郑州市,管城回族区
B0KKXMYKU7,鲜风生活(郑州印象汇店),中州大道1188号印象汇(金水区店)B1层,购物服务;超级市场;超市,零售业,消费端,113.724879,34.749211,河南省,郑州市,金水区
B0JUJUTBKK,中铁·泰和里,陇海中路13号,购物服务;特色商业街;特色商业街,其他行业,消费端,113.657545,34.738409,河南省,郑州市,二七区
B0FFFX1DQF,迪卡侬(京广店),京广南路59号中陆广场1层,购物服务;体育用品店;体育用品店,其他行业,消费端,113.65871,34.70191,河南省,郑州市,二七区
B0173186K9,郑州宇通重工有限公司,九龙镇郑州经济技术开发区宇工路88号,公司企业;公司;公司,其他行业,消费端,113.86549,34.702475,河南省,郑州市,中牟县
B0FFFR0455,Apple 郑州万象城,民主路10号郑州万象城2层,购物服务;家电电子卖场;数码电子,制造业,消费端,113.662952,34.754429,河南省,郑州市,二七区
B0173188FJ,郑州双汇食品有限公司,航海东路1897号,公司企业;公司;公司,其他行业,消费端,113.841663,34.718244,河南省,郑州市,管城回族区
B0KG9Z5FBE,永辉超市(裕华广场店),三全路76号靠近裕华广场(三全路),购物服务;超级市场;超市,零售业,消费端,113.624905,34.832869,河南省,郑州市,惠济区
B0FFJAG2IV,福都百货(航海路店),航海东路六十三中对面,购物服务;商场;普通商场|购物服务;商场;购物中心|购物服务;便民商店/便利店;便民商店/便利店,零售业,消费端,113.70069,34.71981,河南省,郑州市,管城回族区
B01730JLT9,陈砦花卉市场(A区),中方园路320号,购物服务;花鸟鱼虫市场;花卉市场|购物服务;专卖店;专营店,其他行业,消费端,113.654861,34.818125,河南省,郑州市,金水区
B017315T91,麦德龙(郑州郑东商场),澳柯玛郑州国际物流园内(通泰路地铁站B口步行450米),购物服务;超级市场;麦德龙,其他行业,消费端,113.736221,34.74701,河南省,郑州市,金水区
B0FFF91RNT,白象食品集团(薛店大道),薛店镇工贸开发区,公司企业;公司;公司,其他行业,消费端,113.796571,34.48683,河南省,郑州市,新郑市
B0FFH7UX6V,龙湖里,九如路(龙湖中环南地铁站B口步行350米),购物服务;特色商业街;特色商业街,其他行业,消费端,113.741947,34.791067,河南省,郑州市,金水区
B0FFLK4GO0,永辉超市(信万广场店),丰庆路国基路交叉口信万广场B1层,购物服务;超级市场;超市,零售业,消费端,113.647914,34.819344,河南省,郑州市,金水区
B0FFH6L6WE,郑州煤矿机械集团股份有限公司(经开工业大道),经开第九大街167号,公司企业;公司;机械电子,制造业,消费端,113.770521,34.708074,河南省,郑州市,管城回族区
B0HALZ3QVS,盒马鲜生(新田360广场绿地新都会店),绿地新都会·新田360广场A馆2层,购物服务;超级市场;超市,零售业,消费端,113.767131,34.770099,河南省,郑州市,金水区
B0FFM1YDZP,永辉超市(郑州市盛华里店),航海路与第五大街交叉口西北角盛华里负一层,购物服务;超级市场;超市,零售业,消费端,113.75299,34.72164,河南省,郑州市,管城回族区
B0FFI972TP,郑州通讯大世界,陇海东路181号,购物服务;家电电子卖场;手机销售|购物服务;家电电子卖场;数码电子,零售业,消费端,113.666619,34.740163,河南省,郑州市,二七区
B0FFHDJAV8,郑东花卉市场,惠民三路与东四环向南200米路东,购物服务;花鸟鱼虫市场;花鸟鱼虫市场,其他行业,消费端,113.819853,34.767031,河南省,郑州市,金水区
B0FFGVVAL7,丹尼斯(象湖店),郑东新区白沙园区象湖南路与永顺路交叉口东北角,购物服务;超级市场;超市,零售业,消费端,113.857471,34.771487,河南省,郑州市,中牟县
B0FFM57Q8I,郑州国棉四厂,工人路80号(碧沙岗地铁站D口步行290米),购物服务;特色商业街;特色商业街,其他行业,消费端,113.620709,34.755664,河南省,郑州市,中原区
B0JBTOD5EI,丰客隆购物广场(郑东新区店),小夏街与育翔路交叉口西南160米,购物服务;超级市场;超市,零售业,消费端,113.796904,34.814433,河南省,郑州市,金水区
B0HBY7J3LC,嵩山风景名胜区-中岳嵩山,少室路与环山路交叉口北40米,公司企业;公司;公司|风景名胜;风景名胜;风景名胜,其他行业,消费端,113.030693,34.480386,河南省,郑州市,登封市
B01730116A,宇通客车股份有限公司(十八里河厂区),十八里河宇通路1号,公司企业;知名企业;知名企业,其他行业,消费端,113.691698,34.687886,河南省,郑州市,管城回族区
B0H6BRGXW1,高坡岩步行街,高坡岩步行街与双湖大道交叉口北20米,购物服务;特色商业街;步行街,其他行业,消费端,113.711437,34.611142,河南省,郑州市,新郑市
B0FFF5V9IH,中国铁路郑州局集团有限公司,陇海中路106号,公司企业;公司;公司,其他行业,消费端,113.655643,34.736283,河南省,郑州市,二七区
B0GKUUICJ4,华润河南医药有限公司,郑州经济技术开发区航海东路1639号,公司企业;公司;医药公司,其他行业,消费端,113.790531,34.71935,河南省,郑州市,管城回族区
B017308B38,郑州宇通集团有限公司,[],公司企业;知名企业;知名企业,其他行业,消费端,113.538713,34.791588,河南省,郑州市,中原区
B0FFMHQ09E,永辉超市(郑州市瀚海海尚店),东风路32号瀚海海尚B1层,购物服务;超级市场;超市,零售业,消费端,113.645812,34.800005,河南省,郑州市,金水区
B0FFF90J59,郑州陈砦(双桥)花卉基地,双桥花卉基地A区53号,购物服务;花鸟鱼虫市场;花卉市场,其他行业,消费端,113.581584,34.869089,河南省,郑州市,惠济区
B017315XNE,陈砦花卉市场国基路绿之缘园林,金水区园林区18号,购物服务;花鸟鱼虫市场;花卉市场,其他行业,消费端,113.65673,34.818115,河南省,郑州市,金水区
B0JAOCW2WA,盒马鲜生(国贸360店),花园路39号新田360广场郑州国贸店B1层,购物服务;超级市场;超市,零售业,消费端,113.680036,34.785261,河南省,郑州市,金水区
B0173166R4,中铁工程装备集团有限公司,经济技术开发区经开第六大街99号,公司企业;公司;公司,其他行业,制造端,113.755883,34.705851,河南省,郑州市,管城回族区
B0FFG7HXH1,郑州文博城,经开第八大街与经北六路交汇处,购物服务;特色商业街;特色商业街,其他行业,消费端,113.765578,34.734034,河南省,郑州市,管城回族区
B0FFFIT2M0,丹尼斯(东明路店),东明路224号名门国际1-3层,购物服务;超级市场;超市,零售业,消费端,113.69974,34.780574,河南省,郑州市,金水区
B0FFH0L8BL,鸿成光彩,人民路75号(二七广场地铁站A口步行270米),购物服务;综合市场;综合市场|购物服务;特色商业街;特色商业街|生活服务;生活服务场所;生活服务场所,其他行业,消费端,113.669346,34.754775,河南省,郑州市,管城回族区
B0FFHUFIJJ,上海汽车集团股份有限公司乘用车(郑州分公司),经开第十七大街与南三环交叉路口南侧,公司企业;公司;公司,其他行业,消费端,113.838664,34.687799,河南省,郑州市,中牟县
B01730K9MV,万佳商业(时代广场店),人民路,购物服务;超级市场;超市|购物服务;商场;商场,零售业,消费端,113.746871,34.395876,河南省,郑州市,新郑市
B017315UFW,河南省天冰冷饮有限公司(经北一路),经北一路与经开第六大街交叉口东南200米,公司企业;公司;公司,其他行业,消费端,113.759336,34.722265,河南省,郑州市,管城回族区
B0FFFFM96Z,德化新街,德化新街B1-B2层(二七广场地铁站D口步行270米),购物服务;特色商业街;步行街,其他行业,消费端,113.666679,34.751341,河南省,郑州市,二七区
B0IA1DWTGJ,淘小胖超市(华祥国贸购物中心店),龙湖镇华祥国贸购物中心负一层(双湖大道地铁站B2口旁),购物服务;便民商店/便利店;便民商店/便利店,零售业,消费端,113.681249,34.610924,河南省,郑州市,新郑市
B0FFH9R6G1,S102好想你枣业股份有限公司(好想你红枣博览园店),薛店S102路与中华路交叉口好想你公司1号展厅红枣城北门,公司企业;公司;公司,其他行业,消费端,113.762564,34.510335,河南省,郑州市,新郑市
B0JUKA43V0,华豫佰佳超市(大学路店),大学路与绿水路交汇处西南角(泰宏建业国际城商业中心),购物服务;超级市场;超市,零售业,消费端,113.643026,34.682778,河南省,郑州市,二七区
B0FFF90YCT,河南花花牛乳业集团股份有限公司(郑州分公司),腾达路1号,公司企业;公司;网络科技,其他行业,消费端,113.538194,34.694674,河南省,郑州市,二七区
B0FFIY02HD,丹尼斯(瑞达路店),科学大道与瑞达路交汇处正弘·高新数码港1-3层,购物服务;超级市场;超市,零售业,消费端,113.565846,34.806802,河南省,郑州市,中原区
B0H621YOXY,丹尼斯百货(中原店),棉纺路嵩山路交叉口,购物服务;商场;普通商场|购物服务;商场;购物中心|购物服务;便民商店/便利店;便民商店/便利店,零售业,消费端,113.628444,34.758028,河南省,郑州市,中原区
B0J1NME333,迪卡侬(探十里店),陇海西路338号探十里购物中心1楼(东门),购物服务;体育用品店;体育用品店,其他行业,消费端,113.616404,34.735637,河南省,郑州市,中原区
B01730JEVH,豫泰商厦,陇海马路街道布厂街与陇海东路交叉口,购物服务;家电电子卖场;手机销售|购物服务;家电电子卖场;数码电子|购物服务;商场;商场,零售业,消费端,113.66801,34.73919,河南省,郑州市,管城回族区
B017307XEG,中铁七局集团,航海东路1225号,公司企业;公司;建筑公司,建筑业,制造端,113.734685,34.719874,河南省,郑州市,管城回族区
B0FFKPJ9DD,中建七局,十五大街与经南八路交叉口中建七局大厦A座,公司企业;公司企业;公司企业,其他行业,消费端,113.797015,34.686403,河南省,郑州市,管城回族区
B0FFHUA31C,凤凰城南城,郑汴路125号(凤凰台地铁站B口步行430米),购物服务;家居建材市场;家居建材市场|购物服务;特色商业街;特色商业街,建筑业,制造端,113.713112,34.743242,河南省,郑州市,金水区
B0FFFKD3VA,河南中烟黄金叶生产制造中心,经开第三大街9号,公司企业;工厂;工厂,制造业,制造端,113.749075,34.700875,河南省,郑州市,管城回族区
B0FFGVVNAA,陈砦花卉郑汴路店,玉凤路青年路交叉西北角,购物服务;花鸟鱼虫市场;花卉市场,其他行业,消费端,113.710685,34.74287,河南省,郑州市,金水区
B0JUN548PK,郑州国际陆港,航空港区343国道,商务住宅;产业园区;产业园区|公司企业;公司;公司,其他行业,消费端,113.977532,34.380603,河南省,郑州市,新郑市
B0FFGPKUXF,精益达新工厂,经开二十五大街,公司企业;公司;公司|公司企业;工厂;工厂|购物服务;购物相关场所;购物相关场所,制造业,制造端,113.840846,34.710547,河南省,郑州市,管城回族区
B017308SNA,华润万家(经三路店),经三路北46号,购物服务;超级市场;华润,其他行业,消费端,113.691558,34.78822,河南省,郑州市,金水区
B0FFGH5084,新天科技股份有限公司,高新技术产业开发区红松路252号,公司企业;公司;网络科技,其他行业,消费端,113.503052,34.795577,河南省,郑州市,中原区
B01730INDA,Suning Max苏宁易购(郑州花园路店),花园路59号邮政大厦(原正道中环百货)二楼,购物服务;家电电子卖场;苏宁,制造业,消费端,113.681206,34.778065,河南省,郑州市,金水区
B0G03UGFB3,农科路酒吧街(嘉悦广场店),星光大道b座,购物服务;特色商业街;特色商业街,其他行业,消费端,113.687941,34.792242,河南省,郑州市,金水区
B0FFLP29KE,陈砦(双桥)花卉基地君子兰花卉,"江山路开元路,交叉口,A区68号",购物服务;花鸟鱼虫市场;花卉市场,其他行业,消费端,113.582739,34.867504,河南省,郑州市,惠济区
B0G0TDEJ39,美邻汇生活中心,城东南路135号院,购物服务;商场;普通商场|购物服务;超级市场;超市,零售业,消费端,113.68986,34.722421,河南省,郑州市,管城回族区
B0FFH0LWVG,郑州东动车所,001乡道附近,公司企业;公司;公司,其他行业,消费端,113.738591,34.840254,河南省,郑州市,金水区
B0FFGFV2IN,比克电池,中兴路与比克大道交叉口向西200米路北,公司企业;公司;公司,其他行业,消费端,113.995814,34.686387,河南省,郑州市,中牟县
B017316LVK,郑州思念食品有限公司(英才街),迎宾路街道英才街15号,公司企业;公司;公司,其他行业,消费端,113.657677,34.858274,河南省,郑州市,惠济区
B0173187K9,国药集团,经南五路185号,公司企业;公司;医药公司,其他行业,消费端,113.781537,34.709412,河南省,郑州市,管城回族区
B0FFF8PP2Q,郑州福耀玻璃有限公司,文德路(郎庄地铁站B口步行330米),公司企业;公司;公司,其他行业,消费端,113.735109,34.685269,河南省,郑州市,管城回族区
B0FFMBBJDS,新大新生活广场(巩义店),建设路159号香谢里2号楼,购物服务;超级市场;超市,零售业,消费端,112.987338,34.75478,河南省,郑州市,巩义市
B0IUDUFT6J,盒马鲜生(锦艺城王府井店),锦艺城写字楼A座负一楼,购物服务;综合市场;水产海鲜市场|购物服务;超级市场;超市,零售业,消费端,113.612593,34.76209,河南省,郑州市,中原区
B0FFL9VW9M,郑州金星啤酒有限公司(新厂),薛店镇莲花路与暖泉路交叉口北800米路西,公司企业;公司;公司,其他行业,消费端,113.766208,34.492269,河南省,郑州市,新郑市
B017306H4L,郑州太古可口可乐饮料有限公司,高新技术开发区科学大道68号,公司企业;公司;公司,其他行业,消费端,113.563549,34.80886,河南省,郑州市,中原区
B017316D28,三全食品股份有限公司,天河路开元路,公司企业;公司;公司,其他行业,消费端,113.60957,34.864261,河南省,郑州市,惠济区
B0J0GZ40F4,盒马鲜生(郑州二七万达广场店),大学南路8号万达广场(郑州二七店)B1层,购物服务;超级市场;超市,零售业,消费端,113.64338,34.718091,河南省,郑州市,二七区
B0G3T1QXSA,国网河南省电力公司直流公司,腾达路70号,公司企业;公司;公司,其他行业,生产端,113.809222,34.69642,河南省,郑州市,管城回族区
B01731883P,金泰购物中心(庙张街),畅和街与庙张街交叉口,购物服务;超级市场;超市,零售业,消费端,113.773993,34.778916,河南省,郑州市,金水区
B01730HZ1R,中国电信河南省电信分公司(金水东路),金水东路29号(农业南路地铁站C口步行350米),公司企业;公司;电信公司,其他行业,消费端,113.752011,34.763357,河南省,郑州市,金水区
B0JD1H5DV5,河南阳光考评科技研究院,中原区高新区莲花街与山茶路交叉口向南100米路西亿达科技新城二期11-1栋,公司企业;公司;公司,其他行业,消费端,113.523494,34.825255,河南省,郑州市,中原区
B0G1JX9IAW,第一建筑工程集团有限公司,航海东路246号河南省一建集团生产科研大楼,公司企业;公司;建筑公司,建筑业,制造端,113.691392,34.721446,河南省,郑州市,管城回族区
B01730JRUO,今麦郎饮品(郑州)有限公司,河洛镇神南村神堤大道1号,公司企业;公司;公司,其他行业,消费端,113.056039,34.816319,河南省,郑州市,巩义市
B0FFHFRCM2,郑州百事饮料有限公司,万祥路与经开第十五大街交叉口西北200米,公司企业;公司;公司,其他行业,消费端,113.793094,34.705384,河南省,郑州市,管城回族区
B0FFI5D5L5,中国电建集团河南工程有限公司,长椿路30号(郑州大学地铁站B口步行480米),公司企业;公司;公司,其他行业,制造端,113.539637,34.803539,河南省,郑州市,中原区
B0FFGH514I,河南省联通公司,金水路229号(民航路地铁站F3口步行330米),公司企业;公司;公司,其他行业,消费端,113.71723,34.760916,河南省,郑州市,金水区
B0FFMDFGDK,裕华高新动力谷,科学大道与创新大道交汇处往南150米,公司企业;公司;公司,其他行业,消费端,113.493895,34.803129,河南省,郑州市,中原区
B0FFGHONU6,河南大中原国际汽车城有限公司,[],汽车销售;大众特约销售;一汽-大众销售|公司企业;公司;公司,零售业,消费端,113.492108,34.75293,河南省,郑州市,中原区
B0KD6SGCQY,万佳商业(万佳省心店),新郑新区创业路与湖滨路交叉口东南处,购物服务;超级市场;超市,零售业,消费端,113.749425,34.418856,河南省,郑州市,新郑市
B0IRBC0A3O,郑州德邦供应链基地,航空港区佩玉路,公司企业;公司;公司,其他行业,消费端,113.81656,34.49909,河南省,郑州市,新郑市
B017316DP2,三全二基地,天河路与开元路交汇处,公司企业;公司;公司,其他行业,消费端,113.609665,34.86442,河南省,郑州市,惠济区
B0J2D5YEI0,商都阜民里文化街区,城南路与南顺城街交会处郑州商代遗址南侧,购物服务;特色商业街;特色商业街|风景名胜;公园广场;公园广场,其他行业,消费端,113.672491,34.745706,河南省,郑州市,管城回族区
B0KKM7L0RC,山姆会员店(郑州店)(建设中),九如路48号(龙湖中环南地铁站B口步行80米),购物服务;超级市场;超市,零售业,消费端,113.739221,34.791047,河南省,郑州市,金水区
B017316DP2,三全二基地,天河路与开元路交汇处,公司企业;公司;公司,其他行业,消费端,113.609665,34.86442,河南省,郑州市,惠济区
B0KUAR1V3E,顺心捷达(郑州枢纽),新港八路16号航空港区菜鸟网络郑州空港3期物流园区12-13号库,公司企业;公司企业;公司企业,其他行业,消费端,113.903049,34.470271,河南省,郑州市,中牟县
B01730K0PB,郑州云顶服饰有限公司,西四环与新达路向西200米,公司企业;公司;公司,其他行业,消费端,113.526573,34.778372,河南省,郑州市,中原区
B0FFMAXS8K,沃尔玛(中原万达店),中原中路171号万达广场郑州中原店B1层,购物服务;超级市场;沃尔玛,其他行业,消费端,113.600467,34.746439,河南省,郑州市,中原区
B0FFI7TJRK,郑州大学综合设计研究院有限公司(总院),东三街与丰产路交叉口东南角,公司企业;公司;公司,其他行业,消费端,113.659102,34.78298,河南省,郑州市,金水区
B0FFJMQ2NQ,郑州有家装饰总店,凤凰东路与英协路交叉口向西路南,公司企业;公司;广告装饰|购物服务;家电电子卖场;家电电子卖场,制造业,消费端,113.717945,34.744154,河南省,郑州市,金水区
B0FFL21BJQ,河南逸祥卫生科技有限公司,司家门村东坡寨,公司企业;公司企业;公司企业,其他行业,消费端,113.50547,34.528703,河南省,郑州市,新密市
B0FFF90GKV,郑州中联收获机械有限公司,织机路与文博路交叉口向北100米,公司企业;公司;机械电子,制造业,消费端,113.437942,34.777995,河南省,郑州市,荥阳市
B0173165EL,河南张仲景大药房股份有限公司,管城回族区金岱工业园文兴路中段文兴路22号,公司企业;公司;医药公司,其他行业,消费端,113.718926,34.686676,河南省,郑州市,管城回族区
B0173188F4,郑州精益达汽车零部件有限公司(经开第九大街),第八大街69号,公司企业;公司;公司,其他行业,消费端,113.767045,34.709944,河南省,郑州市,管城回族区
B01731C2TL,黎明重工股份有限公司,高新区科学大道139号,公司企业;公司;公司,其他行业,消费端,113.511491,34.805873,河南省,郑州市,中原区
B0FFILMZAS,郑州合晶硅材料有限公司,航空港区鹤舞东街60号,公司企业;公司;公司,其他行业,消费端,113.815218,34.413421,河南省,郑州市,新郑市
B0KG0CKN6G,诚信志远集团,米村镇荥密大道与东柿路交叉口东南角,公司企业;公司企业;公司企业,其他行业,消费端,113.313,34.575228,河南省,郑州市,新密市
B0FFKKHVLG,彩虹桥汽车城,电厂路嵩山路口,公司企业;公司;公司,其他行业,消费端,113.608344,34.803929,河南省,郑州市,惠济区
B0FFG7XYVN,河南超凡装饰(未来路店),商城东路9号院12号楼1.2.3层,公司企业;公司;广告装饰|购物服务;家居建材市场;家居建材市场,建筑业,制造端,113.704588,34.751643,河南省,郑州市,管城回族区
B017307EFX,河南森源集团,经北五路56号,公司企业;公司;公司,其他行业,消费端,113.748764,34.732081,河南省,郑州市,管城回族区
B0FFGC7SDQ,康师傅食品公司,马寨镇振兴路8号,公司企业;公司;公司,其他行业,消费端,113.513583,34.691584,河南省,郑州市,二七区
B017309BWQ,河南明泰铝业股份有限公司,回郭镇开发区310国道与人和路交叉口向北800米,公司企业;公司;冶金化工,其他行业,消费端,112.871614,34.693202,河南省,郑州市,巩义市
B017316O9U,郑州东昇汽车零部件有限公司,[],公司企业;公司;公司,其他行业,消费端,113.807077,34.694675,河南省,郑州市,管城回族区
B01730JXMA,超继运动奥特莱斯,经三路北60号华润万家1层,购物服务;体育用品店;体育用品店,其他行业,消费端,113.69193,34.7879,河南省,郑州市,金水区
B0FFIJI70J,郑州振华君润汽车部件有限公司,振华君润21大街135号,公司企业;公司;公司,其他行业,消费端,113.830302,34.675364,河南省,郑州市,中牟县
B0K6SS2DW5,锦荣花卉市场,漓江路与行云路交叉口西南侧锦荣中心5区B1-4层,购物服务;花鸟鱼虫市场;花卉市场,其他行业,消费端,113.647738,34.693925,河南省,郑州市,二七区
B01730JSD9,郑州绿业元农业科技有限公司,永平路48号,公司企业;公司;公司,其他行业,生产端,113.741335,34.739875,河南省,郑州市,管城回族区
B0FFF8PB19,河南达利食品有限公司,和庄镇神州南路与沿河路交叉口向东,公司企业;公司;公司,其他行业,消费端,113.797905,34.385524,河南省,郑州市,新郑市
B0FFKEOJ4Z,郑州报业集团,博体路1号,公司企业;公司企业;公司企业,其他行业,消费端,113.562538,34.739946,河南省,郑州市,中原区
B01730JRYS,河南省水利勘测设计研究有限公司,郑东新区康平路16号,公司企业;公司;公司,其他行业,消费端,113.760944,34.757902,河南省,郑州市,管城回族区
B0FFK26W0F,永辉超市(郑州市新郑龙湖锦艺城店),郑新路与双湖大道交叉口龙湖锦艺城购物中心B1层,购物服务;超级市场;超市,零售业,消费端,113.72597,34.612721,河南省,郑州市,新郑市
B0FFKBYOOX,金水金街(万达中心店),文化路街道花园路与农科路交叉口向西500米万达中心金街2-203室,购物服务;特色商业街;特色商业街,其他行业,消费端,113.676992,34.792723,河南省,郑州市,金水区
B0JB1477XW,淘小胖超市(正弘汇店),枫杨街道科学大道正弘汇负一楼,购物服务;超级市场;超市,零售业,消费端,113.567132,34.808984,河南省,郑州市,中原区
B01731A538,郑州飞龙汽车部件有限公司,南三环东路79号,公司企业;公司;公司,其他行业,消费端,114.004254,34.69045,河南省,郑州市,中牟县
B0FFIOV5XW,赛博数码(数码港大厦店),文化路68号数码港大厦4层,购物服务;家电电子卖场;数码电子,制造业,消费端,113.666758,34.799928,河南省,郑州市,金水区
B017306TSZ,河南省建筑设计研究院有限公司,金水路103号,公司企业;公司;公司,其他行业,制造端,113.671167,34.763885,河南省,郑州市,金水区
B0FFHFJR3P,中国移动集团中移在线服务有限公司河南分公司,玉兰街97号(郑州大学地铁站B口步行370米),公司企业;公司;公司,其他行业,消费端,113.539657,34.804391,河南省,郑州市,中原区
B0173187G3,大桥石化加油站(中澳站),花园路中州大道连霍高速下口向南300米路西,汽车服务;加油站;加油站|公司企业;公司;公司|生活服务;生活服务场所;生活服务场所,其他行业,消费端,113.691514,34.836813,河南省,郑州市,金水区
B017316MCV,益海嘉里(郑州)食品工业有限公司,经北四路155号,公司企业;公司;公司,其他行业,消费端,113.788188,34.728618,河南省,郑州市,管城回族区
B0FFM9UWWD,三全食品股份有限公司,长兴路街道长兴路28号,公司企业;公司;公司,其他行业,消费端,113.624803,34.827786,河南省,郑州市,惠济区
B01730IS5E,丹尼斯(大学路店),大学路80号鸿鑫·华城1-3层,购物服务;超级市场;超市,零售业,消费端,113.643654,34.739044,河南省,郑州市,二七区
B0GK0CCNO3,河南九州通医药有限公司,前程大道369号,公司企业;公司;医药公司,其他行业,消费端,113.87472,34.712854,河南省,郑州市,中牟县
B0FFJ0CWJ0,中翔购物广场(元通综合商城店),须水街道须水河东路元通综合商城,购物服务;商场;普通商场|购物服务;超级市场;超市,零售业,消费端,113.522318,34.763757,河南省,郑州市,中原区
B0FFF8PODD,郑州顶津食品有限公司,经济开发区马寨镇工业苑光明路6号,公司企业;公司;公司,其他行业,消费端,113.522229,34.703091,河南省,郑州市,二七区
B0FFF5TRDZ,天下收藏文化街,[],购物服务;特色商业街;特色商业街,其他行业,消费端,113.734272,34.771172,河南省,郑州市,金水区
B0FFHCCLIP,郑州格力绿色再生资源有限公司,西四环莲花街交叉口向西两公里龙鼎创富中心,公司企业;公司;公司,其他行业,消费端,113.509224,34.841768,河南省,郑州市,中原区
B0FFFWZAM1,永辉超市(郑州市瀚海北金店店),瀚海北金负一楼,购物服务;超级市场;超市,零售业,消费端,113.665966,34.809317,河南省,郑州市,金水区
B0FFFQ686X,郑州顶益食品有限公司制面工厂,智明路1号(安宁路地铁站C口步行440米),公司企业;工厂;工厂,制造业,制造端,113.513584,34.691586,河南省,郑州市,二七区
B0FFHB8TZ0,豫金梧桐鲜品馆(瑞达店),香草恋酒店楼下,购物服务;超级市场;超市,零售业,消费端,113.576031,34.788087,河南省,郑州市,中原区
B01730171F,郑州统一企业有限公司,航空港区新港办事处台商投资区新港大道东侧,公司企业;公司;公司,其他行业,消费端,113.816756,34.516991,河南省,郑州市,新郑市
B017307WHN,中建七局安装工程有限公司,北环三路72号,公司企业;公司;建筑公司,建筑业,制造端,113.632937,34.814141,河南省,郑州市,金水区
B017307RXZ,新迪商务,未来路街道黄河路131号,商务住宅;楼宇;商务写字楼|公司企业;公司;公司,其他行业,消费端,113.70536,34.774196,河南省,郑州市,金水区
B0I1AHCM3U,超聚变数字技术有限公司研发中心及总部基地,龙湖内环北路与龙源东一街交叉口路南,公司企业;公司;公司,其他行业,消费端,113.742304,34.821779,河南省,郑州市,金水区
B01731643G,白坪煤业,迎宾大道与登徐线交叉口东南340米,公司企业;公司;公司,其他行业,消费端,113.090646,34.353248,河南省,郑州市,登封市
B0FFIBXFUF,裕中电厂一期分厂,曲梁镇庙朱村电厂路12号,公司企业;公司;公司,其他行业,消费端,113.603693,34.499106,河南省,郑州市,新密市
B01731AP22,中粮(郑州)粮油工业有限公司,管城回族区经济技术开发区航海东路1746号,公司企业;公司;公司,其他行业,消费端,113.807641,34.722738,河南省,郑州市,管城回族区
B0I1VUZ4QV,圣都整装郑州店,商都路22号E2号楼1层087号(欧凯龙家居1楼),公司企业;公司;广告装饰|购物服务;购物相关场所;购物相关场所,其他行业,消费端,113.757798,34.747278,河南省,郑州市,管城回族区
B0IDFSGL5K,飞腾云仓,曲梁产业集聚区工信大道与劳动街交叉口郑州酷派电子厂对面,公司企业;公司;公司,其他行业,消费端,113.661673,34.536161,河南省,郑州市,新密市
B0FFLJVZ2Q,华为授权服务中心(郑汴路),郑汴路与中州大道交叉口西约200米路北建业置地广场一楼(地铁东十里铺B出口),购物服务;家电电子卖场;数码电子|生活服务;维修站点;维修站点,制造业,消费端,113.724049,34.747409,河南省,郑州市,金水区
B0FFGXGYZ4,河南能源集团有限公司(国龙大厦),商务外环路6号国龙大厦,公司企业;公司;冶金化工|金融保险服务;金融保险服务机构;金融保险机构,其他行业,生产端,113.718705,34.771488,河南省,郑州市,金水区
B0LAOL1HN3,郑州惠科光电有限公司,航空港区010乡道,公司企业;公司;公司,其他行业,消费端,113.990952,34.418405,河南省,郑州市,新郑市
B0173163AA,新开普电子股份有限公司,高新技术产业开发区迎春街18号,公司企业;公司;公司,其他行业,消费端,113.56311,34.819871,河南省,郑州市,中原区
B0FFGXWUTF,中铝河南铝业有限公司郑州冷轧厂,航海东路街道航海东路1662号,公司企业;公司;冶金化工,其他行业,消费端,113.790704,34.722441,河南省,郑州市,管城回族区
B017300FAB,国家电网河南省电力公司,金水东路(农业南路地铁站A口步行290米),公司企业;公司;公司,其他行业,生产端,113.758181,34.768262,河南省,郑州市,金水区
B0FFJ2ZH30,陈砦花卉(双桥花卉基地郑州陈砦店),老鸦陈街道西三环(陈砦花卉双桥基地鲜切花一厅东南侧约50米),购物服务;花鸟鱼虫市场;花卉市场,其他行业,消费端,113.5842,34.868645,河南省,郑州市,惠济区
B0FFHTVWW0,二七金街,大学南路与荣盛里交叉口西北220米,购物服务;特色商业街;特色商业街,其他行业,消费端,113.642534,34.718035,河南省,郑州市,二七区
B0JGU1F00P,郑州佛吉亚汽车部件有限公司,航空港区顺之街与如云路交叉口西北160米,公司企业;公司;公司,其他行业,消费端,113.814931,34.49527,河南省,郑州市,新郑市
B0FFKYDYQT,格力电器(郑州)有限公司,枫香街格力电器(枫香街店)门面房38号,公司企业;公司;公司,其他行业,消费端,113.518982,34.814696,河南省,郑州市,中原区
B0FFGAM9H2,地中海商业广场,宏达街与丰华北路交叉口东320米,购物服务;特色商业街;特色商业街,其他行业,消费端,113.636537,34.823335,河南省,郑州市,金水区
B0FFIZMD6N,河南乾德精密技术有限公司,经济技术开发区经开腾达路55号,公司企业;公司企业;公司企业,其他行业,消费端,113.803971,34.695331,河南省,郑州市,管城回族区
B0G1NU4Y7H,丹尼斯生活超市(长安路店),航空港区长安路桥航路交叉口东南角,购物服务;超级市场;超市,零售业,消费端,113.847025,34.579768,河南省,郑州市,新郑市
B0K6LULOQA,华豫佰佳超市(三全路店),三全路86-20号瀚宇天悦城5号院负1层,购物服务;超级市场;超市,零售业,消费端,113.654828,34.829483,河南省,郑州市,金水区
B0FFHOIIA6,郑州万达重工股份有限公司,航空港区苑林路1号,公司企业;公司;公司,其他行业,消费端,113.815322,34.46404,河南省,郑州市,新郑市
B0173187P8,河南中烟工业有限责任公司,榆林南路16号,公司企业;公司;公司,其他行业,消费端,113.763455,34.754196,河南省,郑州市,管城回族区
B0173168HU,河南省雅宝家具有限公司(文治路),文治路028号雅宝展厅中心,购物服务;家居建材市场;家具城|公司企业;公司;公司,建筑业,制造端,113.723473,34.687588,河南省,郑州市,管城回族区
B017307PID,郑州天方食品有限公司,马寨经济开发区日照路,公司企业;公司;公司,其他行业,消费端,113.520602,34.716345,河南省,郑州市,二七区
B0FFH1DVS1,郑州国棉一厂,棉纺路与桐柏路交叉口王府井负1楼,公司企业;工厂;工厂,制造业,制造端,113.611215,34.756521,河南省,郑州市,中原区
B0FFGA8KET,帅太郑州工厂,九龙镇九龙工业园区工业大道96号,公司企业;公司;公司,其他行业,制造端,113.840505,34.651165,河南省,郑州市,中牟县
B0LU6RFRP2,华豫佰佳超市(公园茂店),迎春街52号朗悦公园茂家庭茂,购物服务;超级市场;超市,零售业,消费端,113.556689,34.821102,河南省,郑州市,中原区
B0173168T4,天瑞集团郑州水泥有限公司,崔庙镇邵寨村,公司企业;公司;公司,其他行业,消费端,113.379091,34.654801,河南省,郑州市,荥阳市
B0FFJHF3YB,宝冶钢构,经济开发区22号大街大王庄村临时安置区对面,公司企业;公司;公司,其他行业,消费端,113.83556,34.713164,河南省,郑州市,管城回族区
B0FFLPDKI2,长申超市(郑州正弘城店),正弘城B1层(东风路地铁站D口步行140米),购物服务;便民商店/便利店;便民商店/便利店,零售业,消费端,113.68045,34.795803,河南省,郑州市,金水区
B0FFHD4QZV,金水区未来滨河金叶便利店,未来路街道黑朱庄路86号未来滨河小区,购物服务;便民商店/便利店;便民商店/便利店,零售业,消费端,113.712655,34.767479,河南省,郑州市,金水区
B0FFI95MVX,郑州豫能热电有限公司,贾峪镇祖始村鲁庄,公司企业;公司;公司,其他行业,消费端,113.501886,34.699887,河南省,郑州市,荥阳市
B0FFM8GP6A,中天高新智能科技股份有限公司,高新区长椿路梧桐街交叉口,公司企业;公司;网络科技,其他行业,消费端,113.539703,34.794952,河南省,郑州市,中原区
B0FFHIYMPR,郑州安图生物工程股份有限公司,安图生物体外诊断产业园,公司企业;公司;公司,其他行业,制造端,113.797161,34.692849,河南省,郑州市,管城回族区
B0FFI95709,河南省越人医药有限公司,经南三路266号,公司企业;公司;医药公司,其他行业,消费端,113.79083,34.715448,河南省,郑州市,管城回族区
B0FFHIF5DE,郑州扬昇金属部件有限公司,四港联动大道,公司企业;公司;公司,其他行业,消费端,113.808024,34.693062,河南省,郑州市,管城回族区
B01730I1FP,航空工业郑飞,南三环与南三环入口交叉口东南100米,公司企业;公司;公司,其他行业,消费端,113.636016,34.696757,河南省,郑州市,二七区
B01730IBXL,世纪联华(经三店),经三路66号(枣庄地铁站B口步行230米),购物服务;超级市场;超市,零售业,消费端,113.692168,34.793586,河南省,郑州市,金水区
B0G39HORV9,乐享城HAPPY CITY,自贸试验区郑州片区(郑东)和光街10号A栋1层12,购物服务;商场;普通商场|购物服务;特色商业街;特色商业街,零售业,消费端,113.758348,34.755864,河南省,郑州市,管城回族区
B0FFFTB56Z,华润电力登封有限公司,001乡道,公司企业;公司;公司,其他行业,生产端,113.205135,34.391378,河南省,郑州市,登封市
B0FFI21UR6,白鸽磨料磨具有限公司,科学大道,公司企业;公司;公司,其他行业,消费端,113.357707,34.808381,河南省,郑州市,荥阳市
B0GKCZS5VI,中国河南国际合作集团有限公司,未来路街道东明路与顺河路交叉口东南角,商务住宅;楼宇;商务写字楼|公司企业;公司;公司,其他行业,消费端,113.70055,34.759247,河南省,郑州市,金水区
B0173166BA,河南四方达超硬材料股份有限公司(经开第十大街),管城回族区经济技术开发区第十大街109号,公司企业;公司;公司,其他行业,消费端,113.775083,34.711431,河南省,郑州市,管城回族区
B0FFKVYJNM,郑州泰岳宏旗汽车销售服务有限公司,经开区经北六路第五大街交叉口向东150米路北,汽车销售;红旗销售;红旗销售|汽车维修;红旗维修;红旗维修|公司企业;公司;公司,零售业,消费端,113.757024,34.734057,河南省,郑州市,管城回族区
B0FFG85B54,河南新科技市场,杨金路街道柳林镇新庄村杨金路,购物服务;家电电子卖场;综合家电商场|购物服务;综合市场;综合市场,零售业,消费端,113.726654,34.845362,河南省,郑州市,金水区
B0FFLEW643,捷安高科虚拟仿真产业化项目-虚拟仿真产业车间,雪梅街56号,公司企业;工厂;工厂,制造业,制造端,113.479705,34.825052,河南省,郑州市,中原区
B0FFHW64AA,广云商贸(全香料),A2区12号,购物服务;综合市场;农副产品市场|公司企业;公司;公司,其他行业,消费端,113.956108,34.695393,河南省,郑州市,中牟县
B017307EAN,河南红星矿山机器有限公司,檀香路8号,公司企业;公司;机械电子,制造业,消费端,113.531732,34.803488,河南省,郑州市,中原区
B01730K0PE,娅丽达服饰有限公司,昌达路与西四环交叉口处,公司企业;公司;公司,其他行业,消费端,113.526808,34.770983,河南省,郑州市,中原区
B0JDRSLHXN,华埔装饰家居生活馆,航海路与嵩山路交叉口西南角整栋,公司企业;公司;广告装饰,其他行业,消费端,113.625903,34.719921,河南省,郑州市,二七区
B01730JUUT,郑州卷烟厂,陇海东路72号,公司企业;工厂;工厂,制造业,制造端,113.680212,34.741203,河南省,郑州市,管城回族区
B0FFLI44F9,尚购生活广场,天明路农业路交叉口向南50米,购物服务;商场;普通商场|购物服务;商场;购物中心|购物服务;便民商店/便利店;便民商店/便利店,零售业,消费端,113.650697,34.786625,河南省,郑州市,惠济区
B0FFGI12JV,郑州领胜科技有限公司,航空港区新港大道与人民路交叉口智能终端手机产业园18号-19号楼,公司企业;公司;公司,其他行业,消费端,113.810356,34.391726,河南省,郑州市,新郑市
B017316LOP,郑州东站,心怡路199号,交通设施服务;火车站;火车站,其他行业,消费端,113.779558,34.759081,河南省,郑州市,金水区
B01730K2X2,郑州站,二马路82号,交通设施服务;火车站;火车站,其他行业,消费端,113.658097,34.745795,河南省,郑州市,二七区
B017300016,郑州新郑国际机场,郑州航空港区迎宾大道1号,交通设施服务;机场相关;飞机场,其他行业,消费端,113.856808,34.528476,河南省,郑州市,新郑市
B0FFG8QZHL,郑州新郑国际机场T2航站楼,航空港区机场迎宾大道(新郑机场地铁站A口步行120米),交通设施服务;机场相关;飞机场,其他行业,消费端,113.855025,34.525264,河南省,郑州市,新郑市
BV10729467,华南城(地铁站),城郊线,交通设施服务;地铁站;地铁站,其他行业,消费端,113.748901,34.594077,河南省,郑州市,新郑市
BV10094119,郑州火车站(地铁站),10号线;1号线,交通设施服务;地铁站;地铁站,其他行业,消费端,113.656384,34.746082,河南省,郑州市,二七区
BV10094116,郑州东站(地铁站),1号线;5号线;8号线,交通设施服务;地铁站;地铁站,其他行业,消费端,113.777099,34.759251,河南省,郑州市,金水区
B0FFGFO6UL,郑州新郑国际机场T2航站楼(国内出发),航空港区郑州新郑国际机场T2航站楼4层,交通设施服务;机场相关;机场出发/到达,其他行业,消费端,113.853084,34.52434,河南省,郑州市,新郑市
B0ID1CO93E,郑州航空港站,航空港区三官庙107国道西侧,交通设施服务;火车站;火车站,其他行业,消费端,113.932772,34.486036,河南省,郑州市,中牟县
B0FFG8MSQJ,郑州站(西进站口),二马路82号郑州站F1层,交通设施服务;火车站;进站口/检票口,其他行业,消费端,113.657395,34.745414,河南省,郑州市,二七区
B0FFF37HWM,郑州东站(南进站口),商鼎路与107国道交汇处郑州东站3层,交通设施服务;火车站;进站口/检票口,其他行业,消费端,113.779444,34.758627,河南省,郑州市,金水区
B0FFGDHBFT,郑州站(东进站口),二马路82号郑州站F1层,交通设施服务;火车站;进站口/检票口,其他行业,消费端,113.660985,34.746719,河南省,郑州市,二七区
B0FFJ0E6QD,郑州东站(北进站口),郑州东站,交通设施服务;火车站;进站口/检票口,其他行业,消费端,113.779195,34.760004,河南省,郑州市,金水区
BV10090616,紫荆山(地铁站),1号线;2号线,交通设施服务;地铁站;地铁站,其他行业,消费端,113.682063,34.762187,河南省,郑州市,金水区
BV10090591,二七广场(地铁站),1号线;3号线,交通设施服务;地铁站;地铁站,其他行业,消费端,113.665842,34.752642,河南省,郑州市,二七区
B017308J0J,郑州长途汽车中心站,兴隆街14号,交通设施服务;长途汽车站;长途汽车站,其他行业,消费端,113.663453,34.747417,河南省,郑州市,二七区
B0FFFS3ST4,郑州西站,豫龙街道,交通设施服务;火车站;火车站,其他行业,消费端,113.425242,34.744948,河南省,郑州市,荥阳市
B0FFFH8ZTX,郑州客运南站,南三环与京广南路交叉口东南角,交通设施服务;长途汽车站;长途汽车站,其他行业,消费端,113.6596,34.697547,河南省,郑州市,二七区
BV10524873,南三环(地铁站),2号线,交通设施服务;地铁站;地铁站,其他行业,消费端,113.682325,34.698847,河南省,郑州市,管城回族区
B0173046A3,河南中医药大学第一附属医院人民路院区,人民路19号,医疗保健服务;综合医院;三级甲等医院,医疗与公共卫生,消费端,113.674298,34.75902,河南省,郑州市,金水区
B0FFKEA3WX,河南省儿童医院(郑东院区),龙湖外环东路33号,医疗保健服务;专科医院;专科医院,医疗与公共卫生,消费端,113.753712,34.778732,河南省,郑州市,金水区
B0FFFA12U3,郑州客运北站,花园北路56号(刘庄地铁站D2口步行70米),交通设施服务;长途汽车站;长途汽车站,其他行业,消费端,113.68054,34.843472,河南省,郑州市,金水区
B0173080HG,郑州大学第一附属医院(河医院区),五里堡街道河医社区建设东路1号,医疗保健服务;综合医院;三级甲等医院,医疗与公共卫生,消费端,113.646042,34.752734,河南省,郑州市,二七区
BV09188379,鲁庙(地铁站),8号线,交通设施服务;地铁站;地铁站,其他行业,消费端,113.947795,34.762895,河南省,郑州市,中牟县
BV10602512,南五里堡(地铁站),2号线;5号线,交通设施服务;地铁站;地铁站,其他行业,消费端,113.68118,34.720319,河南省,郑州市,管城回族区
BV10602512,南五里堡(地铁站),2号线;5号线,交通设施服务;地铁站;地铁站,其他行业,消费端,113.68118,34.720319,河南省,郑州市,管城回族区
B0FFF90QNJ,郑州大学第一附属医院(东院区),龙湖中环路1号,医疗保健服务;综合医院;三级甲等医院,医疗与公共卫生,消费端,113.762848,34.797874,河南省,郑州市,金水区
B0173031D9,郑州大学第三附属医院,康复前街7号,医疗保健服务;专科医院;专科医院|医疗保健服务;综合医院;综合医院,医疗与公共卫生,消费端,113.648404,34.742298,河南省,郑州市,二七区
B01730INBM,河南省肿瘤医院,东明路127号,医疗保健服务;专科医院;肿瘤医院,医疗与公共卫生,消费端,113.702025,34.771084,河南省,郑州市,金水区
BV10705651,七里河(地铁站),4号线;5号线,交通设施服务;地铁站;地铁站,其他行业,消费端,113.722089,34.720916,河南省,郑州市,管城回族区
BV10602513,刘庄(地铁站),2号线,交通设施服务;地铁站;地铁站,其他行业,消费端,113.678979,34.843779,河南省,郑州市,金水区
BV10729466,小乔(地铁站),城郊线,交通设施服务;地铁站;地铁站,其他行业,消费端,113.695657,34.600468,河南省,郑州市,新郑市
BV10524874,南四环(地铁站),2号线;城郊线,交通设施服务;地铁站;地铁站,其他行业,消费端,113.681898,34.662762,河南省,郑州市,管城回族区
BV10494972,市体育中心(地铁站),1号线,交通设施服务;地铁站;地铁站,其他行业,消费端,113.810399,34.7731,河南省,郑州市,金水区
BV10092137,东风路(地铁站),2号线;8号线,交通设施服务;地铁站;地铁站,其他行业,消费端,113.681655,34.795852,河南省,郑州市,金水区
BV10602508,沙门(地铁站),2号线;4号线,交通设施服务;地铁站;地铁站,其他行业,消费端,113.68171,34.819445,河南省,郑州市,金水区
BV10094117,燕庄(地铁站),1号线;6号线,交通设施服务;地铁站;地铁站,其他行业,消费端,113.703396,34.76339,河南省,郑州市,金水区
B017306UL1,河南省中医院东风路院区,东风路6号,医疗保健服务;综合医院;三级甲等医院,医疗与公共卫生,消费端,113.650638,34.801351,河南省,郑州市,金水区
BV10739833,龙子湖(地铁站),12号线;1号线,交通设施服务;地铁站;地铁站,其他行业,消费端,113.810504,34.792766,河南省,郑州市,金水区
BV10994060,郑州西站(地铁站),(在建)10号线二期;10号线,交通设施服务;地铁站;地铁站,其他行业,消费端,113.427921,34.749922,河南省,郑州市,荥阳市
BV10090883,会展中心(地铁站),1号线;4号线,交通设施服务;地铁站;地铁站,其他行业,消费端,113.725738,34.766727,河南省,郑州市,金水区
BV10602515,站马屯(地铁站),2号线,交通设施服务;地铁站;地铁站,其他行业,消费端,113.682446,34.684327,河南省,郑州市,管城回族区
B0HGP7UGL5,只有河南·戏剧幻城小车停车场,只有河南·戏剧幻城,交通设施服务;停车场;公共停车场,其他行业,消费端,114.003961,34.799213,河南省,郑州市,中牟县
B0GDR7C4UR,银基动物王国停车楼,郑州银基动物王国,交通设施服务;停车场;公共停车场,其他行业,消费端,113.543218,34.483879,河南省,郑州市,新密市
B0G2KRVC24,郑州新郑国际机场5号停车楼,航空港区贵宾南路与机场二路交叉路口往东北约50米,交通设施服务;停车场;专用停车场,其他行业,消费端,113.843872,34.527225,河南省,郑州市,新郑市
B0G29MNSZY,郑州东站P5停车场,东三环郑州东站,交通设施服务;停车场;公共停车场,其他行业,消费端,113.779738,34.760956,河南省,郑州市,金水区
B0FFIZ1KU5,郑州新郑国际机场2号停车楼,航空港区新郑国际机场T2航站楼,交通设施服务;停车场;公共停车场,其他行业,消费端,113.851522,34.526442,河南省,郑州市,新郑市
B0FFHOERPC,郑州东站P2停车场,商鼎路与107辅道交叉口西北角,交通设施服务;停车场;公共停车场,其他行业,消费端,113.782003,34.75608,河南省,郑州市,金水区
B0FFGFOP1G,郑州新郑国际机场3号停车场,郑州航空港区迎宾大道1号郑州新郑国际机场,交通设施服务;停车场;公共停车场,其他行业,消费端,113.849104,34.529127,河南省,郑州市,新郑市
B0FFG6Q45F,河南博物院南门东停车场,农业路8号河南博物院内,交通设施服务;停车场;公共停车场,其他行业,消费端,113.67276,34.787439,河南省,郑州市,金水区
B0FFG2RZP2,郑州东站P1停车场,心怡路199号郑州东站,交通设施服务;停车场;公共停车场,其他行业,消费端,113.777773,34.757261,河南省,郑州市,管城回族区
B0FFFTB5CE,郑州东站P3停车场,心怡路199号郑州东站,交通设施服务;停车场;公共停车场,其他行业,消费端,113.777526,34.760851,河南省,郑州市,金水区
BV10602507,关虎屯(地铁站),2号线,交通设施服务;地铁站;地铁站,其他行业,消费端,113.681686,34.789139,河南省,郑州市,金水区
BV10090526,医学院(地铁站),10号线;1号线;7号线,交通设施服务;地铁站;地铁站,其他行业,消费端,113.643821,34.746075,河南省,郑州市,二七区
BV10994073,奥体中心(地铁站),14号线;6号线,交通设施服务;地铁站;地铁站,其他行业,消费端,113.540019,34.738664,河南省,郑州市,中原区
BV11300682,金达路(地铁站),2号线,交通设施服务;地铁站;地铁站,其他行业,消费端,113.678767,34.862482,河南省,郑州市,惠济区
B0173183OP,郑州高铁长途汽车枢纽站,107国道旁,交通设施服务;长途汽车站;长途汽车站,其他行业,消费端,113.783411,34.762323,河南省,郑州市,金水区
B0FFH2FKZS,阜外华中心血管病医院,郑东新区阜外路1号,医疗保健服务;综合医院;三级甲等医院,医疗与公共卫生,消费端,113.855692,34.784555,河南省,郑州市,中牟县
B017316BLZ,郑州国际会展中心第四公共地面停车场,商务内环路中央公园1号,交通设施服务;停车场;公共停车场,其他行业,消费端,113.728744,34.774586,河南省,郑州市,金水区
B0173080QA,郑州市第二人民医院(院本部),淮河路街道大学路与航海路交叉口向西200米航海中路90号,医疗保健服务;专科医院;眼科医院,医疗与公共卫生,消费端,113.63998,34.721471,河南省,郑州市,二七区
BV10729465,双湖大道(地铁站),城郊线,交通设施服务;地铁站;地铁站,其他行业,消费端,113.683002,34.611492,河南省,郑州市,新郑市
BV10705658,齐礼阎(地铁站),5号线,交通设施服务;地铁站;地铁站,其他行业,消费端,113.63012,34.72038,河南省,郑州市,二七区
BV10729460,港区北(地铁站),城郊线;郑许线,交通设施服务;地铁站;地铁站,其他行业,消费端,113.837925,34.584862,河南省,郑州市,新郑市
B0FFFRK7B1,南阳寨站,京广快速路辅路,交通设施服务;火车站;火车站,其他行业,消费端,113.616978,34.814723,河南省,郑州市,惠济区
BV11340733,绿博园(地铁站),8号线,交通设施服务;地铁站;地铁站,其他行业,消费端,113.929507,34.760783,河南省,郑州市,中牟县
BV10092704,东风南路(地铁站),1号线,交通设施服务;地铁站;地铁站,其他行业,消费端,113.767132,34.76445,河南省,郑州市,金水区
BV10091175,黄河路(地铁站),2号线;5号线,交通设施服务;地铁站;地铁站,其他行业,消费端,113.682045,34.77391,河南省,郑州市,金水区
B017305KKO,郑州大学附属郑州中心医院,桐柏北路16号,医疗保健服务;综合医院;三级甲等医院,医疗与公共卫生,消费端,113.612241,34.750294,河南省,郑州市,中原区
BV10705660,沙口路(地铁站),5号线,交通设施服务;地铁站;地铁站,其他行业,消费端,113.640426,34.770541,河南省,郑州市,金水区
BV10859917,金融岛北(地铁站),4号线,交通设施服务;地铁站;地铁站,其他行业,消费端,113.734949,34.81614,河南省,郑州市,金水区
B01730K9C6,郑州市第七人民医院(福塔院区),经济技术开发区经南五路17号,医疗保健服务;专科医院;专科医院,医疗与公共卫生,消费端,113.740263,34.713582,河南省,郑州市,管城回族区
BV10094113,陇海东路(地铁站),2号线,交通设施服务;地铁站;地铁站,其他行业,消费端,113.682106,34.738208,河南省,郑州市,管城回族区
BV10729469,沙窝李(地铁站),城郊线,交通设施服务;地铁站;地铁站,其他行业,消费端,113.681693,34.626843,河南省,郑州市,新郑市
BV10602509,二里岗(地铁站),2号线;6号线,交通设施服务;地铁站;地铁站,其他行业,消费端,113.682049,34.728903,河南省,郑州市,管城回族区
BV10705654,海滩寺(地铁站),3号线;5号线,交通设施服务;地铁站;地铁站,其他行业,消费端,113.650702,34.774286,河南省,郑州市,金水区
BV10729473,恩平湖(地铁站),城郊线,交通设施服务;地铁站;地铁站,其他行业,消费端,113.859694,34.56605,河南省,郑州市,中牟县
BV10094021,民航路(地铁站),1号线,交通设施服务;地铁站;地铁站,其他行业,消费端,113.714099,34.763161,河南省,郑州市,金水区
BV10494973,西流湖(地铁站),1号线,交通设施服务;地铁站;地铁站,其他行业,消费端,113.570188,34.761135,河南省,郑州市,中原区
B017315V6Q,郑州人民医院(黄河路院区),黄河路33号,医疗保健服务;综合医院;综合医院,医疗与公共卫生,消费端,113.66462,34.775449,河南省,郑州市,金水区
BV10705662,祭城(地铁站),5号线,交通设施服务;地铁站;地铁站,其他行业,消费端,113.766601,34.776693,河南省,郑州市,金水区
BV10859591,圃田西(地铁站),3号线;8号线,交通设施服务;地铁站;地铁站,其他行业,消费端,113.793199,34.741918,河南省,郑州市,管城回族区
BV10840260,河南工业大学(地铁站),1号线,交通设施服务;地铁站;地铁站,其他行业,消费端,113.542174,34.826597,河南省,郑州市,中原区
BV11340731,白庙(地铁站),7号线;8号线,交通设施服务;地铁站;地铁站,其他行业,消费端,113.666893,34.799151,河南省,郑州市,金水区
BV10602511,北三环(地铁站),2号线,交通设施服务;地铁站;地铁站,其他行业,消费端,113.681518,34.804971,河南省,郑州市,金水区
BV10705652,经开中心广场(地铁站),5号线,交通设施服务;地铁站;地铁站,其他行业,消费端,113.764315,34.720915,河南省,郑州市,管城回族区
B01731DVGI,河南省骨科医院,永平路100号,医疗保健服务;专科医院;骨科医院,医疗与公共卫生,消费端,113.76813,34.743144,河南省,郑州市,管城回族区
B01730IHVT,郑州市骨科医院本部院区,陇海中路58号,医疗保健服务;综合医院;三级甲等医院,医疗与公共卫生,消费端,113.638255,34.737269,河南省,郑州市,二七区
BV11283824,东十里铺(地铁站),3号线;4号线,交通设施服务;地铁站;地铁站,其他行业,消费端,113.72605,34.747001,河南省,郑州市,金水区
BV10091122,秦岭路(地铁站),1号线,交通设施服务;地铁站;地铁站,其他行业,消费端,113.603314,34.7568,河南省,郑州市,中原区
BV10859594,营岗(地铁站),3号线,交通设施服务;地铁站;地铁站,其他行业,消费端,113.802273,34.721004,河南省,郑州市,管城回族区
BV10859581,同乐(地铁站),3号线;8号线,交通设施服务;地铁站;地铁站,其他行业,消费端,113.635653,34.795346,河南省,郑州市,金水区
BV10705666,中原福塔(地铁站),5号线,交通设施服务;地铁站;地铁站,其他行业,消费端,113.732164,34.720931,河南省,郑州市,管城回族区
BV10602510,柳林(地铁站),2号线,交通设施服务;地铁站;地铁站,其他行业,消费端,113.681284,34.828431,河南省,郑州市,金水区
B0I0Y5VUW9,郑州航空港站南停车场,郑州航空港站(航空港站地铁站F口步行490米),交通设施服务;停车场;公共停车场,其他行业,消费端,113.93256,34.485597,河南省,郑州市,中牟县
BV10840258,郑州大学(地铁站),1号线;8号线,交通设施服务;地铁站;地铁站,其他行业,消费端,113.541443,34.807581,河南省,郑州市,中原区
BV11194037,姚砦·聂庄(地铁站),5号线;6号线,交通设施服务;地铁站;地铁站,其他行业,消费端,113.707797,34.772601,河南省,郑州市,金水区
BV10859589,凤凰台(地铁站),3号线,交通设施服务;地铁站;地铁站,其他行业,消费端,113.712806,34.74693,河南省,郑州市,金水区
BV10705647,金水东路(地铁站),5号线,交通设施服务;地铁站;地铁站,其他行业,消费端,113.770879,34.769258,河南省,郑州市,金水区
B0FFG9WOOG,郑州大学第一附属医院(南院区),航空港经济综合实验区洞庭湖路6号,医疗保健服务;综合医院;三级甲等医院,医疗与公共卫生,消费端,113.833588,34.577756,河南省,郑州市,新郑市
B0FFF5V5OD,河南博物院南门西停车场,农业路8号河南博物院内,交通设施服务;停车场;公共停车场,其他行业,消费端,113.671751,34.787435,河南省,郑州市,金水区
BV10859597,东周(地铁站),3号线,交通设施服务;地铁站;地铁站,其他行业,消费端,113.758296,34.746501,河南省,郑州市,管城回族区
BV10729470,新郑机场(地铁站),城郊线,交通设施服务;地铁站;地铁站,其他行业,消费端,113.852485,34.526082,河南省,郑州市,新郑市
BV10093843,西三环(地铁站),1号线,交通设施服务;地铁站;地铁站,其他行业,消费端,113.588175,34.760193,河南省,郑州市,中原区
B017316CMF,巩义南站,回郭镇清东村,交通设施服务;火车站;火车站,其他行业,消费端,112.916396,34.67076,河南省,郑州市,巩义市
BV11340726,龙王庙(地铁站),8号线,交通设施服务;地铁站;地铁站,其他行业,消费端,113.902502,34.758213,河南省,郑州市,中牟县
BV11283816,省体育中心(地铁站),3号线;4号线,交通设施服务;地铁站;地铁站,其他行业,消费端,113.625987,34.83237,河南省,郑州市,惠济区
BV10705645,省人民医院(地铁站),5号线,交通设施服务;地铁站;地铁站,其他行业,消费端,113.693327,34.774638,河南省,郑州市,金水区
BV10705655,陇海西路(地铁站),5号线,交通设施服务;地铁站;地铁站,其他行业,消费端,113.613569,34.736281,河南省,郑州市,中原区
B0173042A5,郑州大学第三附属医院(北院区),康复前街7号,医疗保健服务;专科医院;专科医院,医疗与公共卫生,消费端,113.647984,34.743302,河南省,郑州市,二七区
BV11340727,天健湖(地铁站),8号线,交通设施服务;地铁站;地铁站,其他行业,消费端,113.47869,34.808149,河南省,郑州市,中原区
B0FFH8B7IV,植得口腔医院(总院),金水路276号,医疗保健服务;专科医院;口腔医院,医疗与公共卫生,消费端,113.712735,34.763306,河南省,郑州市,金水区
BV10705667,航海广场(地铁站),5号线,交通设施服务;地铁站;地铁站,其他行业,消费端,113.706164,34.720913,河南省,郑州市,管城回族区
BV10090869,绿城广场(地铁站),10号线;1号线,交通设施服务;地铁站;地铁站,其他行业,消费端,113.633434,34.747477,河南省,郑州市,二七区
BV10705649,郑州人民医院(地铁站),5号线;7号线,交通设施服务;地铁站;地铁站,其他行业,消费端,113.667203,34.774602,河南省,郑州市,金水区
BV11300681,贾河(地铁站),2号线,交通设施服务;地铁站;地铁站,其他行业,消费端,113.593282,34.867134,河南省,郑州市,惠济区
BV10705664,市第二人民医院(地铁站),5号线;7号线,交通设施服务;地铁站;地铁站,其他行业,消费端,113.644129,34.720446,河南省,郑州市,二七区
BV11194039,省骨科医院(地铁站),3号线;5号线,交通设施服务;地铁站;地铁站,其他行业,消费端,113.773861,34.745838,河南省,郑州市,管城回族区
B01730532K,河南中医药大学第三附属医院,东明路北63(近金水路)(燕庄地铁站D口步行400米),医疗保健服务;综合医院;三级甲等医院,医疗与公共卫生,消费端,113.701042,34.764564,河南省,郑州市,金水区
B017307AN8,郑州大学第五附属医院,康复前街3号,医疗保健服务;综合医院;三级甲等医院,医疗与公共卫生,消费端,113.651628,34.743478,河南省,郑州市,二七区
BV10897825,南岗刘(地铁站),7号线,交通设施服务;地铁站;地铁站,其他行业,消费端,113.644185,34.655671,河南省,郑州市,二七区
BV11283836,张家村(地铁站),4号线;7号线,交通设施服务;地铁站;地铁站,其他行业,消费端,113.661128,34.82428,河南省,郑州市,金水区
B01730IEOB,河南省胸科医院,纬五路1号(姚砦·聂庄地铁站G口步行360米),医疗保健服务;专科医院;胸科医院,医疗与公共卫生,消费端,113.702926,34.773386,河南省,郑州市,金水区
BV10705665,冯庄(地铁站),5号线,交通设施服务;地铁站;地铁站,其他行业,消费端,113.667892,34.720432,河南省,郑州市,二七区
B0GK27JD5L,杉杉奥特莱斯广场·郑州停车场,郑州杉杉奥莱·中牟店,交通设施服务;停车场;公共停车场,其他行业,消费端,114.029116,34.781271,河南省,郑州市,中牟县
BV10090635,黄岗寺(公交站),49路;4路;560路;722路;B11路;G82路;S178路;Y15路,交通设施服务;公交车站;公交车站相关,交通运输业,消费端,113.627808,34.702995,河南省,郑州市,二七区
B01730IEOB,河南省胸科医院,纬五路1号(姚砦·聂庄地铁站G口步行360米),医疗保健服务;专科医院;胸科医院,医疗与公共卫生,消费端,113.702926,34.773386,河南省,郑州市,金水区
BV10705665,冯庄(地铁站),5号线,交通设施服务;地铁站;地铁站,其他行业,消费端,113.667892,34.720432,河南省,郑州市,二七区
B0GK27JD5L,杉杉奥特莱斯广场·郑州停车场,郑州杉杉奥莱·中牟店,交通设施服务;停车场;公共停车场,其他行业,消费端,114.029116,34.781271,河南省,郑州市,中牟县
BV10090635,黄岗寺(公交站),49路;4路;560路;722路;B11路;G82路;S178路;Y15路,交通设施服务;公交车站;公交车站相关,交通运输业,消费端,113.627808,34.702995,河南省,郑州市,二七区
B0173046B7,郑州大学第二附属医院本部院区,经八路2号,医疗保健服务;综合医院;三级甲等医院,医疗与公共卫生,消费端,113.670195,34.7659,河南省,郑州市,金水区
B0FFFSBXH4,登封汽车客运总站,颖河路,交通设施服务;长途汽车站;长途汽车站,其他行业,消费端,113.054279,34.445676,河南省,郑州市,登封市
BV10994052,二砂(地铁站),10号线,交通设施服务;地铁站;地铁站,其他行业,消费端,113.598376,34.747538,河南省,郑州市,中原区
BV09379201,大石桥·市妇幼保健院(地铁站),3号线;7号线,交通设施服务;地铁站;地铁站,其他行业,消费端,113.655734,34.765011,河南省,郑州市,金水区
BV10705669,福塔东(地铁站),12号线;5号线,交通设施服务;地铁站;地铁站,其他行业,消费端,113.746941,34.720036,河南省,郑州市,管城回族区
BV10729472,孟庄(地铁站),城郊线,交通设施服务;地铁站;地铁站,其他行业,消费端,113.818308,34.58576,河南省,郑州市,新郑市
B017302656,郑州市妇幼保健院,金水路41号,医疗保健服务;专科医院;专科医院,医疗与公共卫生,消费端,113.652574,34.764765,河南省,郑州市,金水区
BV10705653,月季公园(地铁站),5号线,交通设施服务;地铁站;地铁站,其他行业,消费端,113.622992,34.765727,河南省,郑州市,中原区
B01730K1VM,圣玛妇产医院,农业东路3号,医疗保健服务;专科医院;专科医院,医疗与公共卫生,消费端,113.712615,34.785395,河南省,郑州市,金水区
B0H0C4U58G,郑州奥林匹克体育中心P2地面停车场,奥林匹克体育中心,交通设施服务;停车场;公共停车场,其他行业,消费端,113.537469,34.744286,河南省,郑州市,中原区
BV09001059,郑州航空港站(地铁站),城郊线,交通设施服务;地铁站;地铁站,其他行业,消费端,113.932719,34.487195,河南省,郑州市,中牟县
BV10897822,荆胡(地铁站),7号线,交通设施服务;地铁站;地铁站,其他行业,消费端,113.644091,34.680467,河南省,郑州市,二七区
BV09381696,东大街·市第一人民医院(地铁站),2号线;3号线,交通设施服务;地铁站;地铁站,其他行业,消费端,113.68299,34.748829,河南省,郑州市,管城回族区
BV10994065,李商隐公园(地铁站),10号线,交通设施服务;地铁站;地铁站,其他行业,消费端,113.447086,34.749666,河南省,郑州市,荥阳市
BV10859596,南阳新村(地铁站),3号线,交通设施服务;地铁站;地铁站,其他行业,消费端,113.642243,34.785762,河南省,郑州市,金水区
BV10840256,铁炉(地铁站),14号线;1号线,交通设施服务;地铁站;地铁站,其他行业,消费端,113.541028,34.767983,河南省,郑州市,中原区
B0FFJXSSIY,联勤保障部队第九八八医院,郑上路602号,医疗保健服务;综合医院;三级甲等医院,医疗与公共卫生,消费端,113.535111,34.764705,河南省,郑州市,中原区
BV10090683,碧沙岗(地铁站),1号线,交通设施服务;地铁站;地铁站,其他行业,消费端,113.624373,34.75504,河南省,郑州市,中原区
BV10897824,漓江路(地铁站),7号线,交通设施服务;地铁站;地铁站,其他行业,消费端,113.644029,34.694739,河南省,郑州市,二七区
BV10705646,市中心医院(地铁站),10号线;5号线,交通设施服务;地铁站;地铁站,其他行业,消费端,113.613692,34.746931,河南省,郑州市,中原区
BV11340723,枣庄(地铁站),8号线,交通设施服务;地铁站;地铁站,其他行业,消费端,113.69432,34.794877,河南省,郑州市,金水区
BV11340723,枣庄(地铁站),8号线,交通设施服务;地铁站;地铁站,其他行业,消费端,113.69432,34.794877,河南省,郑州市,金水区
B01730I1ZG,始祖山景区南山门山顶停车场,始祖山内(西侧),交通设施服务;停车场;公共停车场,其他行业,消费端,113.534903,34.344233,河南省,郑州市,新郑市
BV10859595,兴隆铺(地铁站),3号线,交通设施服务;地铁站;地铁站,其他行业,消费端,113.62791,34.807036,河南省,郑州市,惠济区
B0JRA7R325,少林景区生态停车场,207国道旁少林景区内(北侧),交通设施服务;停车场;公共停车场,其他行业,消费端,112.955767,34.514672,河南省,郑州市,登封市
BV11535362,滨河新城(地铁站),3号线,交通设施服务;地铁站;地铁站,其他行业,消费端,113.795142,34.687714,河南省,郑州市,管城回族区
BV09185745,省社科院(地铁站),8号线,交通设施服务;地铁站;地铁站,其他行业,消费端,113.848797,34.758072,河南省,郑州市,中牟县
BV11535361,潮河(地铁站),3号线,交通设施服务;地铁站;地铁站,其他行业,消费端,113.795113,34.695592,河南省,郑州市,管城回族区
BV10859920,金融岛南(地铁站),4号线,交通设施服务;地铁站;地铁站,其他行业,消费端,113.736703,34.809189,河南省,郑州市,金水区
B017307F4M,郑州市中医院本部,林山寨街道文化宫路65号院,医疗保健服务;综合医院;三级甲等医院,医疗与公共卫生,消费端,113.617525,34.751782,河南省,郑州市,中原区
BV10859584,王砦(地铁站),3号线,交通设施服务;地铁站;地铁站,其他行业,消费端,113.626011,34.819658,河南省,郑州市,惠济区
BV10994071,博览中心(地铁站),3号线;6号线,交通设施服务;地铁站;地铁站,其他行业,消费端,113.703745,34.746902,河南省,郑州市,管城回族区
BV10602514,花寨(地铁站),2号线,交通设施服务;地铁站;地铁站,其他行业,消费端,113.682238,34.705974,河南省,郑州市,管城回族区
BV10092735,农业南路(地铁站),1号线,交通设施服务;地铁站;地铁站,其他行业,生产端,113.755327,34.765423,河南省,郑州市,金水区
BV09379353,五一公园·市中医院(地铁站),1号线;5号线,交通设施服务;地铁站;地铁站,其他行业,消费端,113.613576,34.756657,河南省,郑州市,中原区
BV10859923,丰庆路(地铁站),4号线,交通设施服务;地铁站;地铁站,其他行业,消费端,113.654541,34.829804,河南省,郑州市,金水区
BV10859593,人民公园(地铁站),3号线,交通设施服务;地铁站;地铁站,其他行业,消费端,113.659983,34.758629,河南省,郑州市,二七区
BV10859912,郎庄(地铁站),4号线,交通设施服务;地铁站;地铁站,其他行业,消费端,113.738425,34.685105,河南省,郑州市,管城回族区
BV11340722,银屏路(地铁站),8号线,交通设施服务;地铁站;地铁站,其他行业,消费端,113.561073,34.808081,河南省,郑州市,中原区
BV09188378,省中医院(地铁站),8号线,交通设施服务;地铁站;地铁站,其他行业,消费端,113.648084,34.799651,河南省,郑州市,金水区
BV10705670,康宁街(地铁站),5号线,交通设施服务;地铁站;地铁站,其他行业,消费端,113.773847,34.750463,河南省,郑州市,管城回族区
BV09205417,大学科技园(地铁站),8号线,交通设施服务;地铁站;地铁站,其他行业,消费端,113.604772,34.790799,河南省,郑州市,中原区
B017316LTR,绿博园北门西停车场,刘集镇绿博园(西北角),交通设施服务;停车场;公共停车场,其他行业,消费端,113.926538,34.759211,河南省,郑州市,中牟县
B0KG6AR1XR,郑州南站,[],交通设施服务;火车站;火车站,其他行业,消费端,113.746668,34.653857,河南省,郑州市,管城回族区
BV10840262,梧桐街(地铁站),1号线,交通设施服务;地铁站;地铁站,其他行业,消费端,113.540929,34.794393,河南省,郑州市,中原区
B0FFGH1MS4,郑州西站(进站口),[],交通设施服务;火车站;进站口/检票口,其他行业,消费端,113.424933,34.744402,河南省,郑州市,荥阳市
BV10705661,桐淮(地铁站),5号线;6号线,交通设施服务;地铁站;地铁站,其他行业,消费端,113.61357,34.72864,河南省,郑州市,中原区
B01730KC9O,郑州第一人民医院(东大街院区),东大街56号,医疗保健服务;综合医院;三级甲等医院,医疗与公共卫生,消费端,113.684489,34.749859,河南省,郑州市,管城回族区
BV10739836,文苑北路(地铁站),1号线,交通设施服务;地铁站;地铁站,其他行业,消费端,113.812199,34.808447,河南省,郑州市,金水区
B0FFJ16O2R,凤凰山景区停车场,凤凰山景区,交通设施服务;停车场;停车场相关,其他行业,消费端,113.235139,34.585595,河南省,郑州市,新密市
B0FFL7L9TV,建业电影小镇A区停车场,建业电影小镇百花街南,交通设施服务;停车场;公共停车场,其他行业,消费端,113.998736,34.773959,河南省,郑州市,中牟县
B0FFIGF4GF,河南省洛阳正骨医院,郑东新区东风南路与永平路交叉口永平路100号,医疗保健服务;专科医院;骨科医院,医疗与公共卫生,消费端,113.768,34.742056,河南省,郑州市,管城回族区
B0FFM0LR22,郑州站东广场南停车场,二马路82号郑州站,交通设施服务;停车场;公共停车场,其他行业,消费端,113.662803,34.746057,河南省,郑州市,二七区
B0KUBAS054,郑州绿城儿童医院,十里铺街18-52号,医疗保健服务;专科医院;专科医院,医疗与公共卫生,消费端,113.729767,34.738322,河南省,郑州市,金水区
BV10843510,河南大学新区(地铁站),1号线,交通设施服务;地铁站;地铁站,其他行业,消费端,113.812659,34.820707,河南省,郑州市,金水区
B0GK3SUPBQ,千玺广场地面停车场,郑东新区中央公园2号千玺广场,交通设施服务;停车场;公共停车场,其他行业,消费端,113.726082,34.769513,河南省,郑州市,金水区
B0173046AE,河南省儿童医院(东三街院区),岗杜街255号,医疗保健服务;专科医院;专科医院,医疗与公共卫生,消费端,113.657597,34.768699,河南省,郑州市,金水区
BV09257966,陈砦(地铁站),7号线,交通设施服务;地铁站;地铁站,其他行业,消费端,113.664413,34.812329,河南省,郑州市,金水区
BV10897821,王胡砦(地铁站),7号线,交通设施服务;地铁站;地铁站,其他行业,消费端,113.644051,34.705831,河南省,郑州市,二七区
BV09257967,琉璃寺(地铁站),7号线,交通设施服务;地铁站;地铁站,其他行业,消费端,113.65365,34.842272,河南省,郑州市,金水区
B0FFITYZSD,郑州人民医院郑东院区,东风南路56号(东风南路地铁站B口步行420米),医疗保健服务;综合医院;三级甲等医院,医疗与公共卫生,消费端,113.767354,34.761104,河南省,郑州市,金水区
BV10897826,东赵(地铁站),7号线,交通设施服务;地铁站;地铁站,其他行业,消费端,113.64321,34.879442,河南省,郑州市,惠济区
BV10859922,姚庄(地铁站),4号线,交通设施服务;地铁站;地铁站,其他行业,消费端,113.734053,34.690457,河南省,郑州市,管城回族区
BV11340720,李湖桥(地铁站),8号线,交通设施服务;地铁站;地铁站,其他行业,消费端,113.882577,34.758596,河南省,郑州市,中牟县
B0FFF63VZM,河南整形美容医院(农业东路),农业东路3号(中州大道农业路交汇处向东200米路南),医疗保健服务;专科医院;整形美容,医疗与公共卫生,生产端,113.71163,34.785479,河南省,郑州市,金水区
BV10729461,康平湖(地铁站),城郊线,交通设施服务;地铁站;地铁站,其他行业,消费端,113.853136,34.584793,河南省,郑州市,新郑市
B0FFKVWZ31,河南中医药大学第一附属医院东院区,仁信路16号,医疗保健服务;综合医院;综合医院,医疗与公共卫生,消费端,114.013431,34.781544,河南省,郑州市,中牟县
BV11340716,五龙口(地铁站),8号线,交通设施服务;地铁站;地铁站,其他行业,消费端,113.613384,34.78943,河南省,郑州市,中原区
B0FFGFO6IP,郑州新郑国际机场T2航站楼(国内到达),航空港区郑州新郑国际机场T2航站楼2层,交通设施服务;机场相关;机场出发/到达,其他行业,消费端,113.853557,34.524806,河南省,郑州市,新郑市
B0FFIU4J2Y,郑州万安妇产医院,河南自贸试验区郑州片区(郑东)万安街17号,医疗保健服务;专科医院;妇科医院,医疗与公共卫生,消费端,113.747843,34.756824,河南省,郑州市,金水区
BV09188380,高铁公园(地铁站),12号线;8号线,交通设施服务;地铁站;地铁站,其他行业,消费端,113.774913,34.791912,河南省,郑州市,金水区
BV10859582,西周(地铁站),12号线;3号线,交通设施服务;地铁站;地铁站,其他行业,消费端,113.746855,34.747945,河南省,郑州市,管城回族区
BV10859918,老鸦陈(地铁站),4号线,交通设施服务;地铁站;地铁站,其他行业,消费端,113.617103,34.832763,河南省,郑州市,惠济区
BV10994075,马寨(地铁站),6号线,交通设施服务;地铁站;地铁站,其他行业,消费端,113.516575,34.703407,河南省,郑州市,二七区
B0I1R759CB,郑州航空港站(南进站口),航空港区三官庙107国道西侧,交通设施服务;火车站;进站口/检票口,其他行业,消费端,113.932615,34.486404,河南省,郑州市,中牟县
BV09257965,北大学城(地铁站),7号线,交通设施服务;地铁站;地铁站,其他行业,消费端,113.646504,34.859949,河南省,郑州市,惠济区
B0FFHTW132,河南省立眼科医院,纬五路(省人民医院地铁站A1口步行400米),医疗保健服务;专科医院;眼科医院,医疗与公共卫生,消费端,113.693879,34.771555,河南省,郑州市,金水区
BV10705663,经北二路(地铁站),5号线,交通设施服务;地铁站;地铁站,其他行业,消费端,113.77392,34.726893,河南省,郑州市,管城回族区
B01731876J,河南省直第三人民医院(东院区),民生路与正光路路交差口东南角,医疗保健服务;综合医院;综合医院,医疗与公共卫生,消费端,113.750494,34.767528,河南省,郑州市,金水区
BV10859930,龙湖北(地铁站),4号线,交通设施服务;地铁站;地铁站,其他行业,消费端,113.734236,34.8247,河南省,郑州市,金水区
BV10897819,农业大学(地铁站),7号线,交通设施服务;地铁站;地铁站,其他行业,生产端,113.666582,34.787395,河南省,郑州市,金水区
B0G07H2P8N,正弘城地下停车场,花园路西1号正弘城(东风路地铁站D口步行190米),交通设施服务;停车场;公共停车场,其他行业,消费端,113.679844,34.795367,河南省,郑州市,金水区
BV10840257,市民中心(地铁站),1号线,交通设施服务;地铁站;地铁站,其他行业,消费端,113.553932,34.762054,河南省,郑州市,中原区
BV09237662,人民路·河南中医一附院(地铁站),1号线,交通设施服务;地铁站;地铁站,其他行业,消费端,113.673865,34.757566,河南省,郑州市,金水区
B0HA6LC5Q3,郑州东站(东出站口),心怡路199号郑州东站1F层,交通设施服务;火车站;出站口,其他行业,消费端,113.781766,34.759308,河南省,郑州市,金水区
B0FFI9TLD5,郑州东站(西出站口),郑州东站地铁站J口旁,交通设施服务;火车站;出站口,其他行业,消费端,113.777065,34.759187,河南省,郑州市,金水区
B01731A0XR,郑州站(出站口),二马路82号郑州站F1层,交通设施服务;火车站;出站口,其他行业,消费端,113.657877,34.745289,河南省,郑州市,二七区
BV10859590,通泰路(地铁站),3号线,交通设施服务;地铁站;地铁站,其他行业,消费端,113.734391,34.748105,河南省,郑州市,金水区
B0LURU4IX9,郑东万象城停车场,金水东路39号,交通设施服务;停车场;停车场相关,其他行业,消费端,113.761072,34.765557,河南省,郑州市,金水区
B0FFIXD6UB,郑州客运南站停车场,京广南路86号附近,交通设施服务;停车场;公共停车场,其他行业,消费端,113.659167,34.698274,河南省,郑州市,二七区
BV09380219,京广南路·市第六人民医院(地铁站),5号线,交通设施服务;地铁站;地铁站,其他行业,消费端,113.656817,34.720213,河南省,郑州市,二七区
BV09205418,祥营(地铁站),8号线,交通设施服务;地铁站;地铁站,其他行业,消费端,113.524139,34.80807,河南省,郑州市,中原区
B0IGOAHBSJ,冰雪世界地面停车场,郑州银基冰雪世界,交通设施服务;停车场;公共停车场,其他行业,消费端,113.555693,34.479644,河南省,郑州市,新密市
BV10861902,黄河迎宾馆(地铁站),2号线;7号线,交通设施服务;地铁站;地铁站,其他行业,消费端,113.644508,34.868137,河南省,郑州市,惠济区
BV10897814,南环公园(地铁站),7号线,交通设施服务;地铁站;地铁站,其他行业,消费端,113.644049,34.670667,河南省,郑州市,二七区
B0173186I3,郑州植物园西门地面停车场,西四环,交通设施服务;停车场;公共停车场,其他行业,消费端,113.53372,34.734415,河南省,郑州市,中原区
B0FFK5D6T9,郑州四六〇医院,友爱路42号(与153中心医院健康管理中心合并),医疗保健服务;综合医院;三级甲等医院|医疗保健服务;诊所;诊所,医疗与公共卫生,消费端,113.622904,34.751726,河南省,郑州市,中原区
B01731DU9H,郑州蓝天健康体检门诊部,商城路与未来路交叉口向西200米路北,医疗保健服务;诊所;诊所,医疗与公共卫生,消费端,113.701565,34.751138,河南省,郑州市,管城回族区
B017316UOJ,郑州蓝天健康体检门诊部,花园路纬四路交叉口向东一百米路北,医疗保健服务;诊所;诊所,医疗与公共卫生,消费端,113.683563,34.770255,河南省,郑州市,金水区
B0FFGH02DD,北京同仁堂郑州药店(金水东路旗舰店),金水东路与黄河南路东北角,医疗保健服务;医药保健销售店;药房|医疗保健服务;诊所;诊所,零售业,消费端,113.745587,34.764636,河南省,郑州市,金水区
B0JR1MQHOV,素朴中医,商务外环路14号路劲大厦1-2层,医疗保健服务;综合医院;综合医院|医疗保健服务;诊所;诊所,医疗与公共卫生,消费端,113.720798,34.777761,河南省,郑州市,金水区
B017319YSW,济华中医馆(桐柏南路),桐柏路与汝河路交叉口北80米路东,医疗保健服务;诊所;诊所,医疗与公共卫生,消费端,113.613865,34.733444,河南省,郑州市,中原区
B017319Y15,济华中医馆(红专路),红专路103-2,医疗保健服务;诊所;诊所,医疗与公共卫生,消费端,113.695402,34.779795,河南省,郑州市,金水区
B0FFF08HWA,仲华国医馆,丰产路28号,医疗保健服务;诊所;诊所,医疗与公共卫生,消费端,113.672405,34.784317,河南省,郑州市,金水区
B0KR6L00MR,秉壹堂综合门诊部(聂庄广场店),聂庄商业广场2层,医疗保健服务;诊所;诊所,医疗与公共卫生,消费端,113.702442,34.769877,河南省,郑州市,金水区
B0FFGHQMA9,张仲景大药房(河医店),建设东路7号(郑大一附院地铁站A口步行200米),医疗保健服务;医药保健销售店;药房|医疗保健服务;诊所;诊所,零售业,消费端,113.645645,34.754571,河南省,郑州市,二七区
B0FFKL37PL,唯美口腔矫正种植牙连锁(南阳路院区),南阳路226号富田丽景花园38号楼1-2层南2号,医疗保健服务;专科医院;口腔医院|医疗保健服务;诊所;诊所,医疗与公共卫生,生产端,113.635195,34.795102,河南省,郑州市,金水区
B0LRM7ZDTG,张仲景国医馆(心怡路一店),心怡路与祥盛街交叉口向南50米路东59-47号,医疗保健服务;诊所;诊所,医疗与公共卫生,消费端,113.772525,34.765775,河南省,郑州市,金水区
B0J0AZ3ONS,河南省儿童医院(西院区),中原中路124号,医疗保健服务;专科医院;专科医院|医疗保健服务;诊所;诊所,医疗与公共卫生,消费端,113.589844,34.747817,河南省,郑州市,中原区
B0KGJZZ62X,三服堂国医馆(纬三路总馆),经五路5号锦荣商务大厦1楼13号,医疗保健服务;诊所;诊所,医疗与公共卫生,消费端,113.678336,34.769475,河南省,郑州市,金水区
B0FFH5BJ0C,济华中医馆,未来路与商城路交叉口北50米路西,医疗保健服务;诊所;诊所,医疗与公共卫生,消费端,113.7036,34.752365,河南省,郑州市,管城回族区
B0FFLJ2YLK,河南省人民医院急救中心,纬五路7号河南省人民医院,医疗保健服务;综合医院;三级甲等医院|医疗保健服务;急救中心;急救中心,医疗与公共卫生,消费端,113.693015,34.773145,河南省,郑州市,金水区
B0K29CYYQK,固生堂金水英协分院,英协路56号,医疗保健服务;诊所;诊所,医疗与公共卫生,消费端,113.718114,34.755083,河南省,郑州市,金水区
B0FFKZKGTH,张仲景国医馆科新路中医门诊部,花园路西农科路北4幢115、116、117、118号,医疗保健服务;医药保健销售店;药房|医疗保健服务;诊所;诊所,零售业,消费端,113.679891,34.792639,河南省,郑州市,金水区
B017307XD1,中牟县疾病预防控制中心,青年路街道青年路西段1106号,医疗保健服务;疾病预防机构;疾病预防,医疗与公共卫生,消费端,114.016382,34.72546,河南省,郑州市,中牟县
B0FFMFKNXC,春和堂中医门诊(港区店),航空港区鄱阳湖路与长安路交叉口润丰锦尚南门2-106,医疗保健服务;医药保健销售店;药房|医疗保健服务;诊所;诊所,零售业,消费端,113.848525,34.569086,河南省,郑州市,新郑市
B0FFHPU11V,三泰中医馆,东风路与花园路交叉口向西400米路南(蓝堡湾三期商业裙楼1-303),医疗保健服务;诊所;诊所,医疗与公共卫生,消费端,113.676456,34.79745,河南省,郑州市,金水区
B0173187JO,康氏中医,美景鸿城1期·鸿韵西门旁,医疗保健服务;诊所;诊所,医疗与公共卫生,消费端,113.722328,34.719812,河南省,郑州市,管城回族区
B0I2TZSMFG,郑州德正堂中医(管城店),东明路40号一楼,医疗保健服务;诊所;诊所,医疗与公共卫生,消费端,113.700338,34.754307,河南省,郑州市,管城回族区
B0FFIDGLSR,省直劳动者爱心驿站张仲景心怡路中医门诊部,心怡路与祥盛街交叉口向南50米路东,医疗保健服务;医药保健销售店;药房|医疗保健服务;诊所;诊所,零售业,消费端,113.772525,34.765775,河南省,郑州市,金水区
B0FFF351YJ,新华卓越健康管理有限公司第一门诊部,经开区航海东路1394号富田财富广场3号楼2-3层,医疗保健服务;诊所;诊所,医疗与公共卫生,消费端,113.764227,34.721953,河南省,郑州市,管城回族区
B0FFGH0OGX,王垌村卫生所,十八里河街道南四环,医疗保健服务;诊所;诊所,医疗与公共卫生,消费端,113.689384,34.656711,河南省,郑州市,管城回族区
B0J33YNVFL,郑州庚贤中医药文化博物馆,紫金山人民路8号(紫荆山地铁站D口步行180米),医疗保健服务;诊所;诊所|医疗保健服务;专科医院;专科医院,医疗与公共卫生,消费端,113.679592,34.761512,河南省,郑州市,金水区
B01730J03G,河南省疾病预防控制中心(农业南路),农业南路105号,医疗保健服务;疾病预防机构;疾病预防,医疗与公共卫生,生产端,113.759265,34.758445,河南省,郑州市,金水区
B017316TB3,王建平中医(综合)诊所,红专北街5-1号,医疗保健服务;诊所;诊所,医疗与公共卫生,消费端,113.676141,34.781234,河南省,郑州市,金水区
B0173187X4,新密王现凯诊所,岳村镇桥沟村,医疗保健服务;诊所;诊所,医疗与公共卫生,消费端,113.472767,34.548032,河南省,郑州市,新密市
B0FFG77J8G,成中品堂,如意西路与农业东路交叉口建业总部港F座,医疗保健服务;医药保健销售店;药房|医疗保健服务;诊所;诊所,零售业,消费端,113.729712,34.785013,河南省,郑州市,金水区
B0FFGTOOIF,郑州大学第一附属医院(河医院区)急救中心,建设东路1号郑州大学第一附属医院内,医疗保健服务;综合医院;三级甲等医院|医疗保健服务;急救中心;急救中心,医疗与公共卫生,消费端,113.644508,34.752505,河南省,郑州市,二七区
B017316A52,郑州市疾病预防控制中心(中原西路),中原西路96号,医疗保健服务;疾病预防机构;疾病预防,医疗与公共卫生,消费端,113.534991,34.749333,河南省,郑州市,中原区
B0FFIIHQES,王丙山中医堂,郭店镇计划生育办公室西北侧,医疗保健服务;诊所;诊所,医疗与公共卫生,消费端,113.725479,34.529366,河南省,郑州市,新郑市
B0LGMKC043,秉壹堂中医门诊(金水东路),金水东路11-55号(黄河南路地铁站B2口步行50米),医疗保健服务;诊所;诊所,医疗与公共卫生,消费端,113.746117,34.762214,河南省,郑州市,金水区
B0FFGARK0G,河南省动物疫病预防控制中心,郑东新区豫兴路街道明霞街80号,医疗保健服务;疾病预防机构;疾病预防,医疗与公共卫生,消费端,113.916539,34.762896,河南省,郑州市,中牟县
B0G2M10RTT,郑东万家康盛门诊部(郑东新区店),农业南路90-46号,医疗保健服务;诊所;诊所,医疗与公共卫生,消费端,113.756581,34.750777,河南省,郑州市,管城回族区
B0FFGERCYS,张仲景大药房(丰产路店),花园路丰产路交叉口向西100米路北,医疗保健服务;医药保健销售店;药房|医疗保健服务;诊所;诊所,零售业,消费端,113.680326,34.783864,河南省,郑州市,金水区
B0J6VRAOSC,郑州高新区沟赵天健湖社区卫生服务中心,黄兰路与杜兰街,医疗保健服务;诊所;诊所,医疗与公共卫生,消费端,113.497877,34.811145,河南省,郑州市,中原区
B0FFH1WQ3Z,中原德懿堂中医门诊部,秦岭路与陇海路交汇处,医疗保健服务;诊所;诊所|医疗保健服务;专科医院;专科医院,医疗与公共卫生,消费端,113.603146,34.735597,河南省,郑州市,中原区
B0FFG24KQY,治宇祖传中医(郑州总店),郑东新区白沙镇康庄路东侧瑞风路北恒通新城1号楼2号铺,医疗保健服务;诊所;诊所,医疗与公共卫生,消费端,113.859441,34.770539,河南省,郑州市,中牟县
B0IB39C357,金水加齐口腔门诊部,宏泰路56号瑞穗苑小区1号楼14二楼1516商铺,医疗保健服务;诊所;诊所,医疗与公共卫生,消费端,113.648344,34.829074,河南省,郑州市,金水区
B0I26AC011,郑州市二七区疾病预防控制中心,长江路碧云路交叉口向南600米路东侧,医疗保健服务;疾病预防机构;疾病预防,医疗与公共卫生,消费端,113.665662,34.706566,河南省,郑州市,二七区
B0LAOXTDA9,三服堂国医馆(名门馆),金水路297号名门城市广场1号楼1层142号,医疗保健服务;诊所;诊所,医疗与公共卫生,消费端,113.712452,34.761809,河南省,郑州市,金水区
B0IDOZX2HB,河南省疾病预防控制中心门诊部,纬五路经二路东南角南5米,医疗保健服务;疾病预防机构;疾病预防,医疗与公共卫生,消费端,113.695358,34.771761,河南省,郑州市,金水区
B0KDJZ0RLV,郑州全景铭医荟综合门诊,城东路43号1号楼,医疗保健服务;诊所;诊所,医疗与公共卫生,消费端,113.691485,34.744044,河南省,郑州市,管城回族区
B01730HZ8L,郑州市职业病防治院,红旗路2号,医疗保健服务;疾病预防机构;疾病预防,医疗与公共卫生,消费端,113.65608,34.777203,河南省,郑州市,金水区
B0K6OCOF8H,金水御和堂中医门诊部,黄河路11号豫粮大厦西配一楼一号,医疗保健服务;诊所;诊所,医疗与公共卫生,消费端,113.682364,34.775538,河南省,郑州市,金水区
B0173058NI,郑州市卫生监督所,岗杜街127号,医疗保健服务;疾病预防机构;疾病预防,医疗与公共卫生,消费端,113.656259,34.767804,河南省,郑州市,金水区
B0G3L5JI7I,张仲景大药房(二七万达店),大学路与汉江路交叉口向西50米,医疗保健服务;医药保健销售店;药房|医疗保健服务;诊所;诊所,零售业,消费端,113.643502,34.715869,河南省,郑州市,二七区
B0IR5C2D06,圣竺大医中医馆,未来路福元路交叉口未来路正南一百米路,医疗保健服务;诊所;诊所,医疗与公共卫生,消费端,113.703652,34.756086,河南省,郑州市,金水区
B0GU659TLS,中易堂国医馆,东风路217号院2号楼1层101号,医疗保健服务;诊所;诊所,医疗与公共卫生,消费端,113.701964,34.792888,河南省,郑州市,金水区
B0HRJSNIJB,北京同仁堂郑州药店(心怡路店),金水东路与心怡路交叉口西北角绿地新都会1层(麦当劳东),医疗保健服务;医药保健销售店;药房|医疗保健服务;诊所;诊所,零售业,消费端,113.770193,34.770173,河南省,郑州市,金水区
B0K3F7PJSV,金水汉医堂中医诊所,东明路红专路向北150米路西,医疗保健服务;诊所;诊所,医疗与公共卫生,消费端,113.69994,34.7818,河南省,郑州市,金水区
B0JGB57NB0,金水二十一世纪综合门诊部,国基路(沙门地铁站E口步行400米),医疗保健服务;诊所;诊所,医疗与公共卫生,消费端,113.688057,34.819022,河南省,郑州市,金水区
B0IAGZ24RR,管城洄溪堂中医门诊部,鼎力街与文达路交叉口,医疗保健服务;诊所;诊所,医疗与公共卫生,消费端,113.730764,34.690409,河南省,郑州市,管城回族区
B0KUK1JCCK,郑州锦尚堂中医院,中原中路167号商业楼2号,医疗保健服务;诊所;诊所,医疗与公共卫生,消费端,113.597661,34.747011,河南省,郑州市,中原区
B0FFGIDNJ0,丁洼村卫生室,广武镇丁洼村,医疗保健服务;诊所;诊所,医疗与公共卫生,消费端,113.3992,34.862509,河南省,郑州市,荥阳市
B0GRMAYTQN,荥阳市疾病预防控制中心,河阴路1号,医疗保健服务;疾病预防机构;疾病预防,医疗与公共卫生,消费端,113.389717,34.784301,河南省,郑州市,荥阳市
B0FFJRWY4V,新密市疾病预防控制中心-预防接种门诊,东大街492号,医疗保健服务;诊所;诊所,医疗与公共卫生,消费端,113.385913,34.536768,河南省,郑州市,新密市
B0FFJ8Z20F,张仲景国医馆经开第一大街中医门诊部,经开第一大街与经北五路交叉口,医疗保健服务;医药保健销售店;药房|医疗保健服务;诊所;诊所,零售业,消费端,113.739495,34.730673,河南省,郑州市,管城回族区
B0HRDGVNWY,桐君仁医中医馆,银屏路与翠竹街交叉口向北50米路东,医疗保健服务;诊所;诊所,医疗与公共卫生,消费端,113.560979,34.818212,河南省,郑州市,中原区
B0GRGCQ1WR,姿雅医疗,玉兰街62号,医疗保健服务;诊所;诊所,医疗与公共卫生,消费端,113.521335,34.805181,河南省,郑州市,中原区
B01730JWKP,张仲景大药房(商城路一店),商城路7号,医疗保健服务;医药保健销售店;药房|医疗保健服务;诊所;诊所,零售业,消费端,113.684824,34.752095,河南省,郑州市,管城回族区
B0IROZ152G,天元一童疗馆,秦岭路与沁河路交叉口西北260米,医疗保健服务;诊所;诊所,医疗与公共卫生,消费端,113.601722,34.724775,河南省,郑州市,中原区
B0H067FZM2,北京同仁堂郑州药店(经开第三大街店),航海东路与经开第三大街交叉口东北角天鑫大厦一层(地铁五号线福塔东站D口),医疗保健服务;诊所;诊所,医疗与公共卫生,消费端,113.747291,34.721333,河南省,郑州市,管城回族区
B0FFHYF5EI,张仲景大药房(政通路店),政通路交通路交叉口,医疗保健服务;医药保健销售店;药房|医疗保健服务;诊所;诊所,零售业,消费端,113.646693,34.724695,河南省,郑州市,二七区
B0FFLH1XMY,鹤草堂中医馆,齐礼闫东街116号(齐礼阎地铁站D口步行330米),医疗保健服务;诊所;诊所,医疗与公共卫生,消费端,113.630902,34.721969,河南省,郑州市,二七区
B0FFKV0X0E,派特门诊,红专路56号,医疗保健服务;诊所;诊所,医疗与公共卫生,消费端,113.680798,34.780053,河南省,郑州市,金水区
B0FFGAMJAI,河南省儿童医院郑东院区急诊,龙湖外环东路33号河南省儿童医院(郑东院区),医疗保健服务;专科医院;专科医院|医疗保健服务;急救中心;急救中心,医疗与公共卫生,消费端,113.753703,34.777745,河南省,郑州市,金水区
B0FFINNS48,叮叮儿科诊所(民生路店),民生路5号7号楼1层,医疗保健服务;诊所;诊所,医疗与公共卫生,消费端,113.752135,34.760048,河南省,郑州市,金水区
B0IGHDD1J1,桐君仁医中医馆经纬馆,花园路街道纬二路30号经纬公寓一层4,医疗保健服务;诊所;诊所,医疗与公共卫生,消费端,113.692176,34.767449,河南省,郑州市,金水区
B0JAKMKOYS,二七黄振喜中西医结合诊所,碧云路99-41号楼,医疗保健服务;诊所;诊所,医疗与公共卫生,消费端,113.669632,34.699926,河南省,郑州市,二七区
B017307D1D,巩义市疾病预防控制中心,健康路102号,医疗保健服务;疾病预防机构;疾病预防,医疗与公共卫生,消费端,113.022759,34.753761,河南省,郑州市,巩义市
B0J0AS7JT2,郑东民健综合门诊部,黄河南路11号,医疗保健服务;诊所;诊所,医疗与公共卫生,消费端,113.746029,34.767701,河南省,郑州市,金水区
B0I1FSOCOF,张仲景国医馆高新万科城中医门诊部,高新区紫竹路68号14号楼2层附12号,医疗保健服务;医药保健销售店;药房|医疗保健服务;诊所;诊所,零售业,消费端,113.51926,34.810572,河南省,郑州市,中原区
B0JA39T00L,惠济乐植口腔门诊部,文化路与英才街口西北角乐植口腔,医疗保健服务;诊所;诊所,医疗与公共卫生,消费端,113.645517,34.860686,河南省,郑州市,惠济区
B0LRZZ2EUO,郑东佑道减重诊所,河南自贸试验区郑州片区(郑东)商都路100号1号楼2层203号,医疗保健服务;诊所;诊所,医疗与公共卫生,消费端,113.777564,34.745503,河南省,郑州市,管城回族区
B0FFKO0MZF,高新区正医堂中医门诊,睿智楠园北2门旁,医疗保健服务;诊所;诊所,医疗与公共卫生,消费端,113.558167,34.79382,河南省,郑州市,中原区
B0FFIAIC3M,二七何公富诊所,苇岸人家南门西60米,医疗保健服务;诊所;诊所,医疗与公共卫生,消费端,113.665934,34.696342,河南省,郑州市,二七区
B0HUBYE06Y,经开超顺中西医结合诊所,经北二路66号44号楼1层105号,医疗保健服务;诊所;诊所,医疗与公共卫生,消费端,113.736438,34.730688,河南省,郑州市,管城回族区
B0KKH73BNZ,得一堂中医诊所,七里河北路与黄河南路交叉口东北100米(西周地铁站直线572米),医疗保健服务;诊所;诊所,医疗与公共卫生,消费端,113.746108,34.75305,河南省,郑州市,金水区
B0JA37YRGT,郑州高新区疾病预防控制中心,冬青街11号(冬青街地铁站C口步行480米),医疗保健服务;疾病预防机构;疾病预防,医疗与公共卫生,消费端,113.563665,34.801196,河南省,郑州市,中原区
B0JDF7WXAT,连生堂国医馆,长江路岗东路交叉口西北角连生堂国医馆,医疗保健服务;诊所;诊所,医疗与公共卫生,消费端,113.714861,34.712914,河南省,郑州市,管城回族区
B0K3O1VDLG,仲圣中医堂(金水店),国基路与普庆路交叉口东北40米,医疗保健服务;诊所;诊所,医疗与公共卫生,消费端,113.644025,34.820276,河南省,郑州市,金水区
B0FFLDA9HO,二七李朝辉中医诊所,汝河东路61号1号楼1单元2号,医疗保健服务;诊所;诊所,医疗与公共卫生,消费端,113.632009,34.732682,河南省,郑州市,二七区
B0J02COQYP,郑东沫莉中医门诊部,郑东新区天赋路28号绿地老街二期20号楼商业,医疗保健服务;综合医院;卫生院|医疗保健服务;诊所;诊所,医疗与公共卫生,消费端,113.746233,34.78418,河南省,郑州市,金水区
B0I6SCQ7B3,红森堂国医馆,经三路北10号院附1号,医疗保健服务;诊所;诊所,医疗与公共卫生,消费端,113.692236,34.775768,河南省,郑州市,金水区
B0FFKXFLVI,龙子湖社区卫生服务中心-预防接种门诊,博学路郑州市第十一人民医院龙子湖医院,医疗保健服务;诊所;诊所,医疗与公共卫生,消费端,113.79271,34.813227,河南省,郑州市,金水区
B0FFHEOG5R,龙湖街道文昌路社区卫生服务中心,睿蕾幼儿园东南门旁,医疗保健服务;诊所;诊所,医疗与公共卫生,消费端,113.687534,34.612045,河南省,郑州市,新郑市
B01731ALRD,广贤中医,紫荆山地铁站D口步行190米,医疗保健服务;专科医院;专科医院|医疗保健服务;诊所;诊所,医疗与公共卫生,消费端,113.679613,34.761588,河南省,郑州市,金水区
B0KA4R8RV0,郑州五季堂中医馆(货站街店),二里岗街道货站北街5号南附2号,医疗保健服务;诊所;诊所,医疗与公共卫生,消费端,113.696662,34.738599,河南省,郑州市,管城回族区
B0173187O1,顺驰口腔,浅水湾小区西南门东100米,医疗保健服务;专科医院;口腔医院|医疗保健服务;诊所;诊所,医疗与公共卫生,消费端,113.743356,34.78258,河南省,郑州市,金水区
B0FFK0585P,冉庄诊所,经开第三十九大街与禄达东路交叉口西南140米,医疗保健服务;诊所;诊所,医疗与公共卫生,消费端,113.894741,34.709198,河南省,郑州市,中牟县
B0FFM1WTJ3,仁宣堂,经三路9号(省人民医院地铁站D口步行370米),医疗保健服务;诊所;诊所,医疗与公共卫生,消费端,113.692886,34.778193,河南省,郑州市,金水区
B0JDZS5ATE,中原曹木荣眼科诊所,工人路30号院郑报沁园底商12号1层和12-16号2层,医疗保健服务;诊所;诊所,医疗与公共卫生,消费端,113.621079,34.740921,河南省,郑州市,中原区
B0FFFVUKKQ,中原锦艺城综合门诊部,锦艺国际华都·欧尚西门北70米,医疗保健服务;诊所;诊所,医疗与公共卫生,消费端,113.611675,34.76409,河南省,郑州市,中原区
B0FFHNZJEK,郑东牛进义中西医结合诊所,龙子湖办事处姚夏路夏庄社区77-28,医疗保健服务;诊所;诊所,医疗与公共卫生,消费端,113.801423,34.816634,河南省,郑州市,金水区
B0HDZ71TN0,贞济堂中医馆,长江中路与淮南街交叉口向西120米路北,医疗保健服务;诊所;诊所,医疗与公共卫生,消费端,113.63525,34.710253,河南省,郑州市,二七区
B0FFLPMF66,葆春堂中医诊所,金水路7号鑫苑中央花园东区7-34号,医疗保健服务;诊所;诊所,医疗与公共卫生,消费端,113.734453,34.759984,河南省,郑州市,金水区
B01730JTPG,郑东王燕诊所,天赋路29号2号楼1-2层附6号,医疗保健服务;诊所;诊所,医疗与公共卫生,消费端,113.746118,34.783822,河南省,郑州市,金水区
B01730JOMO,新郑市疾控中心,新建路街道郑韩路365号,医疗保健服务;疾病预防机构;疾病预防,医疗与公共卫生,消费端,113.71181,34.404582,河南省,郑州市,新郑市
B0IUA73W9N,郑东布依中医(综合)门诊部,商务外环路7号立基上东国际一楼,医疗保健服务;诊所;诊所,医疗与公共卫生,消费端,113.718207,34.772433,河南省,郑州市,金水区
B0FFGHPQR7,毛庄卫生所,南曹街道毛庄村,医疗保健服务;诊所;诊所,医疗与公共卫生,消费端,113.740477,34.693,河南省,郑州市,管城回族区
B0JGXS2V5U,郑州市金水区花园路街道办事处社区卫生服务中心,政四街经三路口东南角,医疗保健服务;诊所;诊所,医疗与公共卫生,消费端,113.692818,34.765139,河南省,郑州市,金水区
B0K1MUPIOV,张小熊连锁轻医美诊所,二七路132号大卫城13层012室,医疗保健服务;诊所;诊所,医疗与公共卫生,消费端,113.665884,34.757766,河南省,郑州市,金水区
B0IRTDDL1F,中顺堂诊所,贾鲁街51-36号,医疗保健服务;诊所;诊所,医疗与公共卫生,消费端,113.813197,34.814432,河南省,郑州市,金水区
B0L6USY3SN,惠济欣德堂中医诊所,清华园路艺茂国际仓东门D5-101,医疗保健服务;诊所;诊所,医疗与公共卫生,消费端,113.619842,34.85845,河南省,郑州市,惠济区
B0FFGH52JA,郑东保海整脊中医综合诊所,农业东路与天时路交叉口向北300米路东,医疗保健服务;诊所;诊所,医疗与公共卫生,消费端,113.75175,34.78168,河南省,郑州市,金水区
B0H0FHL3HS,张仲景大药房(丰庆佳苑店),丰庆路与博远路交叉口西南角,医疗保健服务;医药保健销售店;药房|医疗保健服务;诊所;诊所,零售业,消费端,113.647963,34.817543,河南省,郑州市,金水区
B0JKYS1VBD,金水广惠堂中医(综合)诊所,建业森林半岛老房子C区3层12号,医疗保健服务;诊所;诊所,医疗与公共卫生,消费端,113.647773,34.802372,河南省,郑州市,金水区
B0I6J73O9Q,郑东裴书芳中西医结合诊所,龙子湖办事处磨李社区西临街331-47,医疗保健服务;诊所;诊所,医疗与公共卫生,消费端,113.794042,34.809917,河南省,郑州市,金水区
B0J3OHPGK2,郑东秀中皮肤诊所,管城回族区郑东新区安平路126号,医疗保健服务;诊所;诊所,医疗与公共卫生,消费端,113.76369,34.738187,河南省,郑州市,管城回族区
B017316N8C,黄商村卫生所,四港联动大道与黄商村东口(生态驴肉村饭店正对面),医疗保健服务;诊所;诊所,医疗与公共卫生,消费端,113.833455,34.654383,河南省,郑州市,中牟县
B0HKVC677P,泽郡中医馆,宏江瀚苑南门2号-附16东户,医疗保健服务;诊所;诊所,医疗与公共卫生,消费端,113.627137,34.758963,河南省,郑州市,中原区
B0LBRDJ6UI,管城正气居中医(综合)诊所,紫荆山路与玉城街交叉口北140米,医疗保健服务;诊所;诊所,医疗与公共卫生,消费端,113.681175,34.724625,河南省,郑州市,管城回族区
B0FFKYDGXW,中牟县官渡镇小李庄村卫生所,官渡镇小李庄村卫生所,医疗保健服务;诊所;诊所,医疗与公共卫生,消费端,114.14481,34.747798,河南省,郑州市,中牟县
B0FFGIL4A7,同心堂中医馆,天裕小区南门东280米,医疗保健服务;诊所;诊所,医疗与公共卫生,消费端,113.704272,34.79175,河南省,郑州市,金水区
B0JRXR6E8H,中和草堂中医门诊部,政七街与红专路交叉口西50米,医疗保健服务;诊所;诊所,医疗与公共卫生,消费端,113.686611,34.779989,河南省,郑州市,金水区
B0LA35DSGP,中医门诊,建设东路7号楼(郑大一附院地铁站A口步行190米),医疗保健服务;诊所;诊所,医疗与公共卫生,消费端,113.645695,34.754556,河南省,郑州市,二七区
B0I2XZZPHE,郑州市辅世国医馆,东风路27-14号路南商铺,医疗保健服务;诊所;诊所,医疗与公共卫生,消费端,113.677374,34.797344,河南省,郑州市,金水区
B0IBC7ROMV,桐君堂中医馆(宏达馆),四月天小区北门东100米,医疗保健服务;诊所;诊所,医疗与公共卫生,消费端,113.651601,34.822395,河南省,郑州市,金水区
B0J2X7R0ZA,郑东同德堂中医馆,创业路6号东洲商务大厦一楼101,医疗保健服务;诊所;诊所,医疗与公共卫生,消费端,113.765615,34.760798,河南省,郑州市,金水区
B0H6MDGZM4,郑东安之孕综合门诊部,郑信路115-2号,医疗保健服务;诊所;诊所,医疗与公共卫生,消费端,113.85223,34.763784,河南省,郑州市,中牟县
B0KRYOX2KN,郑州厚德中医诊所,"郑东新区龙翔一街与如意河东二街交汇处,好睦邻如意坊7号楼2楼东南侧",医疗保健服务;诊所;诊所,医疗与公共卫生,消费端,113.740954,34.801473,河南省,郑州市,金水区
B0H6MDGZM4,郑东安之孕综合门诊部,郑信路115-2号,医疗保健服务;诊所;诊所,医疗与公共卫生,消费端,113.85223,34.763784,河南省,郑州市,中牟县
B0KRYOX2KN,郑州厚德中医诊所,"郑东新区龙翔一街与如意河东二街交汇处,好睦邻如意坊7号楼2楼东南侧",医疗保健服务;诊所;诊所,医疗与公共卫生,消费端,113.740954,34.801473,河南省,郑州市,金水区
B0KDVCP4LR,经开圣安中医综合诊所,航海路第八大街108号建海国际中心A座601,医疗保健服务;诊所;诊所,医疗与公共卫生,消费端,113.763817,34.719724,河南省,郑州市,管城回族区
B01730K4XC,白庙卫生所(渠西路),豫馨苑东1门北120米,医疗保健服务;诊所;诊所,医疗与公共卫生,消费端,113.668426,34.807692,河南省,郑州市,金水区
B0FFGK8P9Z,高新董富堂中西医结合诊所,雪松路80号靠近河南工业大学医院东门向南一百米,医疗保健服务;诊所;诊所,医疗与公共卫生,消费端,113.557753,34.829609,河南省,郑州市,中原区
B0KDVAIXU6,中原誉保堂诊所,棉纺西路4号院,医疗保健服务;诊所;诊所,医疗与公共卫生,消费端,113.609269,34.762943,河南省,郑州市,中原区
B0I2TSXP1E,郑州航空港区新港社区卫生服务中心,航空港区遵大路6号,医疗保健服务;诊所;诊所,医疗与公共卫生,消费端,113.841697,34.485075,河南省,郑州市,新郑市
B0I6PAI123,惠济张德鹏诊所天河路店,惠和苑小区新城路16号,医疗保健服务;诊所;诊所,医疗与公共卫生,消费端,113.614676,34.870818,河南省,郑州市,惠济区
B0FFFZIYEL,龙湖镇小乔村王建伟卫生室,郑州升达经贸管理学院西2门北130米,医疗保健服务;诊所;诊所,医疗与公共卫生,消费端,113.687621,34.597488,河南省,郑州市,新郑市
B0K1A5QHMW,皇甫针道中医针灸诊所,玉凤路与郑汴路交叉口南220米,医疗保健服务;诊所;诊所,医疗与公共卫生,消费端,113.710697,34.744769,河南省,郑州市,金水区
B0HUA7F1PW,蓝天口腔(未来城店),管城区商城东路10号,医疗保健服务;专科医院;口腔医院|医疗保健服务;诊所;诊所,医疗与公共卫生,消费端,113.701675,34.751138,河南省,郑州市,管城回族区
B0H1O7U8RJ,张仲景国医馆(郑州丰庆佳苑店),丰庆路36号院1号楼-2层S101,医疗保健服务;诊所;诊所,医疗与公共卫生,消费端,113.64566,34.81691,河南省,郑州市,金水区
B0FFIIJ0VC,青年路,民族路与青年西路交叉口东北20米,医疗保健服务;诊所;诊所,医疗与公共卫生,消费端,114.022806,34.724897,河南省,郑州市,中牟县
B0FFKFFJ47,郭正堂,省直住宅小区8号院南门旁,医疗保健服务;诊所;诊所,医疗与公共卫生,消费端,113.688769,34.767775,河南省,郑州市,金水区
B0FFME6BYB,管城泰寅宏济综合门诊部,航海东路402号(南五里堡地铁站E口步行340米),医疗保健服务;诊所;诊所,医疗与公共卫生,消费端,113.68585,34.721547,河南省,郑州市,管城回族区
B0FFHPMEQ1,巩义市站街镇老城村卫生室,站街镇老城村卫生室,医疗保健服务;诊所;诊所,医疗与公共卫生,消费端,113.041568,34.78911,河南省,郑州市,巩义市
B0J2D5RJ8F,二七榕树家康养堂中医诊所,淮南街100号,医疗保健服务;诊所;诊所,医疗与公共卫生,消费端,113.635785,34.703288,河南省,郑州市,二七区
B0JUY5SIPN,二七丹尼诊所,大学北路79-9(市骨科医院地铁站C口步行270米),医疗保健服务;诊所;诊所,医疗与公共卫生,消费端,113.643792,34.739679,河南省,郑州市,二七区
B0FFH5YKG6,杨沟烧伤,[],医疗保健服务;诊所;诊所,医疗与公共卫生,消费端,113.076119,34.408237,河南省,郑州市,登封市
B0I3F90AF6,郑州银屑病专病门诊,南阳路227号家属院东北2门旁,医疗保健服务;诊所;诊所,医疗与公共卫生,消费端,113.637263,34.792679,河南省,郑州市,金水区
B0FFFZA3HJ,金水仁德中医门诊部,玉凤路361号,医疗保健服务;诊所;诊所,医疗与公共卫生,消费端,113.71121,34.754284,河南省,郑州市,金水区
B0K6UKNSYJ,九润堂明德中医诊所,广电南路9号嘉和园(北三环地铁站A口步行370米),医疗保健服务;诊所;诊所,医疗与公共卫生,消费端,113.684338,34.805456,河南省,郑州市,金水区
B0173186H6,雅美口腔,祭城路办事处家属院东南门旁,医疗保健服务;专科医院;口腔医院|医疗保健服务;诊所;诊所,医疗与公共卫生,消费端,113.767846,34.780036,河南省,郑州市,金水区
B01730ISU9,登封怀宇堂中医院,少林大道218号登封怀宇堂医院附近,医疗保健服务;诊所;诊所|医疗保健服务;综合医院;综合医院,医疗与公共卫生,消费端,113.031819,34.455325,河南省,郑州市,登封市
B0FFF915IM,龙湖镇东张寨社区卫生室,龙湖镇文昌路与祥安路交叉口,医疗保健服务;诊所;诊所,医疗与公共卫生,消费端,113.686953,34.605245,河南省,郑州市,新郑市
B0FFF915IM,龙湖镇东张寨社区卫生室,龙湖镇文昌路与祥安路交叉口,医疗保健服务;诊所;诊所,医疗与公共卫生,消费端,113.686953,34.605245,河南省,郑州市,新郑市
B0J34H2R35,上医仁方中医门诊部,城东路商城路交叉口向西一百米路北,医疗保健服务;诊所;诊所,医疗与公共卫生,消费端,113.689462,34.751312,河南省,郑州市,管城回族区
B0FFF91KE9,登封市疾病预防控制中心,颍河路东段,医疗保健服务;疾病预防机构;疾病预防,医疗与公共卫生,消费端,113.087951,34.446437,河南省,郑州市,登封市
B0JGY5WY05,郑州航空港经济综合实验区疾病预防控制中心,航空港区双鹤五街与工业十一路交叉口,医疗保健服务;疾病预防机构;疾病预防,医疗与公共卫生,消费端,113.843571,34.383276,河南省,郑州市,新郑市
B0I1F9R6SW,张仲景大药房(汝河路店),汝河路26号(卧龙岗地铁站D口步行440米),医疗保健服务;诊所;诊所,医疗与公共卫生,消费端,113.60406,34.732442,河南省,郑州市,中原区
B01730JX6P,张仲景大药房(桐淮小区店),汝河路桐柏路交叉口东北角(桐淮地铁站D口步行360米),医疗保健服务;医药保健销售店;药房|医疗保健服务;诊所;诊所,零售业,消费端,113.613885,34.732773,河南省,郑州市,中原区
B0H0ASSVEN,刘飞皮肤专科,东明路与郑汴路交叉口往西200米,医疗保健服务;专科医院;专科医院|医疗保健服务;诊所;诊所,医疗与公共卫生,消费端,113.697789,34.746642,河南省,郑州市,管城回族区
B0FFGLAVFZ,新密王天顺中西医结合诊所,溱水路青屏街道办东100米,医疗保健服务;诊所;诊所,医疗与公共卫生,消费端,113.372269,34.542558,河南省,郑州市,新密市
B0JASA7V8R,狂犬疫苗接种点-郑州狂犬病暴露预防处置门诊,城东路49号(郑州文庙地铁站D口步行210米),医疗保健服务;疾病预防机构;疾病预防,医疗与公共卫生,消费端,113.691719,34.745798,河南省,郑州市,管城回族区
B017308KPA,东风中医门诊部,东风路13-17号(同乐地铁站A口步行450米),医疗保健服务;诊所;诊所,医疗与公共卫生,消费端,113.638703,34.797099,河南省,郑州市,金水区
B0KD15AL65,郑州魏安贞堂中医诊所,纬五路经一路口西北角,医疗保健服务;诊所;诊所,医疗与公共卫生,消费端,113.697501,34.772295,河南省,郑州市,金水区
B0K3SUCSRQ,畅归堂中医馆,郑汴路150号(东十里铺地铁站B口步行410米),医疗保健服务;诊所;诊所,医疗与公共卫生,消费端,113.720476,34.747615,河南省,郑州市,金水区
B0KBF7UOR5,二七榕树家聚善堂中医诊所,连云路15-14号,医疗保健服务;诊所;诊所,医疗与公共卫生,消费端,113.671231,34.715282,河南省,郑州市,二七区
B017307D8L,疾病预防控制中心,紫荆山路132-2号(紫荆山路陇海路往南300米路西),医疗保健服务;疾病预防机构;疾病预防,医疗与公共卫生,消费端,113.681742,34.735996,河南省,郑州市,管城回族区
B0L6YUXUDW,二七佳音门诊部,康复后街27号(医学院地铁站P口步行280米),医疗保健服务;诊所;诊所,医疗与公共卫生,消费端,113.645008,34.745034,河南省,郑州市,二七区
B0J1BSOAY1,豫草堂中医门诊部(居易国际城店),龙湖镇双湖大道南侧21世纪国际城C区超市1-3层01,医疗保健服务;诊所;诊所|医疗保健服务;专科医院;专科医院,医疗与公共卫生,消费端,113.718465,34.610864,河南省,郑州市,新郑市
B0KDR526TK,金水群红综合门诊部,花园北路与中心大街交叉口东北100米,医疗保健服务;诊所;诊所,医疗与公共卫生,消费端,113.681237,34.831117,河南省,郑州市,金水区
B0KDGGKE5N,珺仁堂中医诊所,东明路北260号一号楼一层0110号,医疗保健服务;诊所;诊所,医疗与公共卫生,消费端,113.699965,34.786864,河南省,郑州市,金水区
B0JDGRYSNA,中牟祝金强诊所,文博路与清阳街交叉口西北40米,医疗保健服务;诊所;诊所,医疗与公共卫生,消费端,113.975477,34.711752,河南省,郑州市,中牟县
B0GKUXNQV9,德慈国医馆,房管局家属院西北门旁,医疗保健服务;诊所;诊所,医疗与公共卫生,消费端,113.678957,34.745238,河南省,郑州市,管城回族区
B0FFGVFPZD,郑州紧急医疗救援中心,郑东新区聚源路宏图街路口东50米路南宏图街120号,医疗保健服务;急救中心;急救中心,医疗与公共卫生,消费端,113.74116,34.751373,河南省,郑州市,金水区
B0J3LAAIKH,逸馨堂中医馆,郑东新区秋澄街与龙湖外环东路交叉口花胡庄便民服务中心临街A区1层105号,医疗保健服务;诊所;诊所,医疗与公共卫生,消费端,113.769384,34.79377,河南省,郑州市,金水区
B0FFKNH371,李宁诊所,青年路凤凰茶城8号楼一单元一楼,医疗保健服务;诊所;诊所,医疗与公共卫生,消费端,113.708015,34.741508,河南省,郑州市,金水区
B0FFLA5YUG,爱齿口腔南阳路院,南阳路与群办路交叉口向北80米路东,医疗保健服务;专科医院;口腔医院|医疗保健服务;诊所;诊所,医疗与公共卫生,消费端,113.637373,34.793277,河南省,郑州市,金水区
B0HAGZU7A9,航空港瑞美康诊所,航空港区万科美景魅力之城沐阳园北门向东50米路南,医疗保健服务;诊所;诊所,医疗与公共卫生,消费端,113.858201,34.59279,河南省,郑州市,中牟县
B0FFLA5YUG,爱齿口腔南阳路院,南阳路与群办路交叉口向北80米路东,医疗保健服务;专科医院;口腔医院|医疗保健服务;诊所;诊所,医疗与公共卫生,消费端,113.637373,34.793277,河南省,郑州市,金水区
B0HAGZU7A9,航空港瑞美康诊所,航空港区万科美景魅力之城沐阳园北门向东50米路南,医疗保健服务;诊所;诊所,医疗与公共卫生,消费端,113.858201,34.59279,河南省,郑州市,中牟县
B0H6LRG3KW,马征内科诊所,政通路,医疗保健服务;诊所;诊所,医疗与公共卫生,消费端,113.745235,34.428128,河南省,郑州市,新郑市
B0FFLHAMPI,中原张献超诊所,中原西路169号3号楼1-2层101号,医疗保健服务;诊所;诊所,医疗与公共卫生,消费端,113.57515,34.743588,河南省,郑州市,中原区
B0FFIBA58B,二七颐康中医门诊部(二七店),政通路115-10号,医疗保健服务;诊所;诊所,医疗与公共卫生,消费端,113.630958,34.724653,河南省,郑州市,二七区
B0JDG7096M,四方子诊所,东明路纬二路交叉口西北角,医疗保健服务;诊所;诊所,医疗与公共卫生,消费端,113.699806,34.767726,河南省,郑州市,金水区
B0FFL0S5YS,二七郑州兹度堂中医研究所淮南街店中医诊所,淮南街亚新美好人家18号楼1-2层,医疗保健服务;诊所;诊所,医疗与公共卫生,消费端,113.636118,34.723389,河南省,郑州市,二七区
B0FFIVHQQ2,鸣谦中医,普罗旺世幼儿园东门北50米,医疗保健服务;诊所;诊所,医疗与公共卫生,消费端,113.643757,34.824217,河南省,郑州市,金水区
B017319YQ1,管城根志堂中医门诊部,未来路888-17号,医疗保健服务;诊所;诊所,医疗与公共卫生,消费端,113.705777,34.72275,河南省,郑州市,管城回族区
B0LGSAWYBP,甘草堂中医诊所国基路店,国基路102号院四月天19号楼东4单元1-2层东户,医疗保健服务;诊所;诊所,医疗与公共卫生,消费端,113.649905,34.820039,河南省,郑州市,金水区
B0FFFRMDNK,张仲景大药房(心怡路店),心怡路与盛和街交叉口(祭城地铁站D口步行340米),医疗保健服务;医药保健销售店;药房|医疗保健服务;诊所;诊所,零售业,消费端,113.770312,34.776293,河南省,郑州市,金水区
B0FFLG2C3G,金水鹤众堂诊所,宝瑛路2号(大贺庄社区),医疗保健服务;诊所;诊所,医疗与公共卫生,消费端,113.755032,34.847941,河南省,郑州市,金水区
B0KD6RJ82K,金水遇今康诊所,农业路东19号附9号,医疗保健服务;诊所;诊所,医疗与公共卫生,消费端,113.688654,34.786263,河南省,郑州市,金水区
B0JAZ78F0E,正方堂中医馆,贾鲁街51-4号,医疗保健服务;诊所;诊所,医疗与公共卫生,消费端,113.816446,34.813115,河南省,郑州市,金水区
B0H2T5N4U2,张仲景大药房(红专路店),东盛国际西门旁,医疗保健服务;医药保健销售店;药房|医疗保健服务;诊所;诊所,零售业,消费端,113.682447,34.779728,河南省,郑州市,金水区
B01731D9Y9,北山口卫生院,常五街与望嵩路交叉口东140米,医疗保健服务;综合医院;卫生院|医疗保健服务;诊所;诊所,医疗与公共卫生,消费端,112.999922,34.73526,河南省,郑州市,巩义市
B0K0JC7NO8,永康堂中医馆,厚河园1号院东北门北60米,医疗保健服务;诊所;诊所,医疗与公共卫生,消费端,113.764152,34.777743,河南省,郑州市,金水区
B0JGO1TPKQ,郑东耀宏诊所,白沙镇康庄路东侧瑞丰路北侧恒通新城商业A座1层105,医疗保健服务;诊所;诊所,医疗与公共卫生,消费端,113.860879,34.771644,河南省,郑州市,中牟县
B0KK1SMKN2,仲圣中医堂(二七店),庆喜路天泰路交叉口向北50米,医疗保健服务;诊所;诊所,医疗与公共卫生,消费端,113.619103,34.683355,河南省,郑州市,二七区
B01731AMLJ,薛集村卫生所,薛店镇薛集村文化大院,医疗保健服务;诊所;诊所,医疗与公共卫生,消费端,113.7962,34.472224,河南省,郑州市,新郑市
B0IA6RE0ZO,郑东慈正堂中医综合诊所,[],医疗保健服务;诊所;诊所,医疗与公共卫生,消费端,113.789855,34.752291,河南省,郑州市,管城回族区
B0KUJXMYIW,榕树家中医诊所(升龙天玺三号院店),政通路76号,医疗保健服务;诊所;诊所,医疗与公共卫生,消费端,113.655433,34.725054,河南省,郑州市,二七区
B0K6RSAGS3,郑东益慈诊所,郑东新区明理路与平安大道正商博雅广场4号楼1楼06户,医疗保健服务;诊所;诊所,医疗与公共卫生,消费端,113.809626,34.790537,河南省,郑州市,金水区
B0J6PU2P7D,高新誉轩堂中医诊所,金菊街与雪松路交叉口西200米路南,医疗保健服务;诊所;诊所,医疗与公共卫生,消费端,113.554886,34.821745,河南省,郑州市,中原区
B0G1KU274O,金水宝经中医综合诊所,未来路与纬四路交叉口向东200米路南,医疗保健服务;诊所;诊所,医疗与公共卫生,消费端,113.709711,34.770034,河南省,郑州市,金水区
